{"type":"FeatureCollection","features":[{"geometry": {"type": "Point", "coordinates": [-75.17094707694254, 39.94437406209261]}, "type": "Feature", "id": 0, "properties": {"CATEGORY": "Basic", "STORE_ADDR": "1739 South St", "OFFICIAL_S": "Adabel Deli Inc", "ZIP": "19146", "CDC_STORE_": 1.0}},{"geometry": {"type": "Point", "coordinates": [-75.16048543262013, 39.985281615509294]}, "type": "Feature", "id": 1, "properties": {"CATEGORY": "Enhanced", "STORE_ADDR": "1643 W Diamond St", "OFFICIAL_S": "Adan Grocery", "ZIP": "19121", "CDC_STORE_": 3.0}},{"geometry": {"type": "Point", "coordinates": [-75.15885414520487, 39.99238311557681]}, "type": "Feature", "id": 2, "properties": {"CATEGORY": "Basic", "STORE_ADDR": "2568 N Bancroft St", "OFFICIAL_S": "Agramonte Grocery Store", "ZIP": "19132", "CDC_STORE_": 2.0}},{"geometry": {"type": "Point", "coordinates": [-75.14294922174258, 40.02234870746425]}, "type": "Feature", "id": 3, "properties": {"CATEGORY": "Enhanced", "STORE_ADDR": "4600 N 11th St", "OFFICIAL_S": "Ailyn Mini Market LLC", "ZIP": "19140", "CDC_STORE_": 3.0}},{"geometry": {"type": "Point", "coordinates": [-75.11744231378752, 40.02075034319167]}, "type": "Feature", "id": 4, "properties": {"CATEGORY": "Basic", "STORE_ADDR": "419 East Wyoming Ave", "OFFICIAL_S": "Al Aqsa Halal", "ZIP": "19120", "CDC_STORE_": 2.0}},{"geometry": {"type": "Point", "coordinates": [-75.17203545947727, 39.92506505419169]}, "type": "Feature", "id": 5, "properties": {"CATEGORY": "Basic", "STORE_ADDR": "1545 W. Passyunk Ave", "OFFICIAL_S": "Al Sultan Internation Gourmet", "ZIP": "19145", "CDC_STORE_": 1.0}},{"geometry": {"type": "Point", "coordinates": [-75.22724365134604, 39.924439725677516]}, "type": "Feature", "id": 6, "properties": {"CATEGORY": "Basic", "STORE_ADDR": "6247 Elmwood Ave", "OFFICIAL_S": "Aladdin Food Market", "ZIP": "19142", "CDC_STORE_": 2.0}},{"geometry": {"type": "Point", "coordinates": [-75.18091826891562, 39.9941376812411]}, "type": "Feature", "id": 7, "properties": {"CATEGORY": "Basic", "STORE_ADDR": "3000 W Cumberland St", "OFFICIAL_S": "Alejandro Grocery Store", "ZIP": "19132", "CDC_STORE_": 2.0}},{"geometry": {"type": "Point", "coordinates": [-75.17286062165564, 40.004223794803295]}, "type": "Feature", "id": 8, "properties": {"CATEGORY": "Basic", "STORE_ADDR": "2615 W Allegheny Ave", "OFFICIAL_S": "Allegheny Mini Market II", "ZIP": "19132", "CDC_STORE_": 1.0}},{"geometry": {"type": "Point", "coordinates": [-75.11515849255916, 39.99790831344307]}, "type": "Feature", "id": 9, "properties": {"CATEGORY": "Basic", "STORE_ADDR": "800 E Willard St", "OFFICIAL_S": "Almanzar Mini Market", "ZIP": "19134", "CDC_STORE_": 2.0}},{"geometry": {"type": "Point", "coordinates": [-75.14569317932843, 39.99446162927104]}, "type": "Feature", "id": 10, "properties": {"CATEGORY": "Basic", "STORE_ADDR": "2801 N 9th St", "OFFICIAL_S": "Almonte Deli Grocery", "ZIP": "19133", "CDC_STORE_": 2.0}},{"geometry": {"type": "Point", "coordinates": [-75.16894344947232, 39.971413104649066]}, "type": "Feature", "id": 11, "properties": {"CATEGORY": "Enhanced", "STORE_ADDR": "1945 Poplar St", "OFFICIAL_S": "Almonte Grocery", "ZIP": "19130", "CDC_STORE_": 3.0}},{"geometry": {"type": "Point", "coordinates": [-75.13174966261678, 40.020044294084016]}, "type": "Feature", "id": 12, "properties": {"CATEGORY": "Basic", "STORE_ADDR": "328 W Annsbury St", "OFFICIAL_S": "Almonte Mini Market", "ZIP": "19140", "CDC_STORE_": 1.0}},{"geometry": {"type": "Point", "coordinates": [-75.101560960834, 40.04333468394233]}, "type": "Feature", "id": 13, "properties": {"CATEGORY": "Enhanced", "STORE_ADDR": "546 Van Kirk St", "OFFICIAL_S": "Almonte Mini Market", "ZIP": "19120", "CDC_STORE_": 3.0}},{"geometry": {"type": "Point", "coordinates": [-75.18062389338532, 39.99512889979835]}, "type": "Feature", "id": 14, "properties": {"CATEGORY": "Enhanced", "STORE_ADDR": "2565 N 30th St", "OFFICIAL_S": "Alvarez Grocery", "ZIP": "19132", "CDC_STORE_": 3.0}},{"geometry": {"type": "Point", "coordinates": [-75.22811501563848, 39.9604468133619]}, "type": "Feature", "id": 15, "properties": {"CATEGORY": "Certification", "STORE_ADDR": "5343 Market St", "OFFICIAL_S": "Aman Food Market", "ZIP": "19139", "CDC_STORE_": 3.0}},{"geometry": {"type": "Point", "coordinates": [-75.1157231371777, 39.9951569226936]}, "type": "Feature", "id": 16, "properties": {"CATEGORY": "Enhanced", "STORE_ADDR": "3101 Kensington Avenue", "OFFICIAL_S": "Amancio Dollar Outlet", "ZIP": "19134", "CDC_STORE_": 3.0}},{"geometry": {"type": "Point", "coordinates": [-75.12924110081366, 39.99890875004275]}, "type": "Feature", "id": 17, "properties": {"CATEGORY": "Basic", "STORE_ADDR": "3220 Front St", "OFFICIAL_S": "Amancio Dollar Outlet #3", "ZIP": "19140", "CDC_STORE_": 1.0}},{"geometry": {"type": "Point", "coordinates": [-75.09061919506927, 40.03346977058158]}, "type": "Feature", "id": 18, "properties": {"CATEGORY": "Basic", "STORE_ADDR": "899 E Sanger St", "OFFICIAL_S": "Ami Food Market Inc.", "ZIP": "19124", "CDC_STORE_": 1.0}},{"geometry": {"type": "Point", "coordinates": [-75.21443236055501, 39.948885937058606]}, "type": "Feature", "id": 19, "properties": {"CATEGORY": "Basic", "STORE_ADDR": "4548 Baltimore Ave", "OFFICIAL_S": "Amin Gas & Mini Mart", "ZIP": "19143", "CDC_STORE_": 2.0}},{"geometry": {"type": "Point", "coordinates": [-75.2143427607078, 39.942269018183524]}, "type": "Feature", "id": 20, "properties": {"CATEGORY": "Enhanced", "STORE_ADDR": "1262 S 49th St", "OFFICIAL_S": "Ana Grocery", "ZIP": "19143", "CDC_STORE_": 3.0}},{"geometry": {"type": "Point", "coordinates": [-75.15718276139009, 39.99386155955954]}, "type": "Feature", "id": 21, "properties": {"CATEGORY": "Basic", "STORE_ADDR": "1555 W Oakdale St", "OFFICIAL_S": "Anabel's Grocery", "ZIP": "19132", "CDC_STORE_": 1.0}},{"geometry": {"type": "Point", "coordinates": [-75.13141788598466, 40.00049525012243]}, "type": "Feature", "id": 22, "properties": {"CATEGORY": "Basic", "STORE_ADDR": "3300 Mutter St", "OFFICIAL_S": "Angel Deli Grocery", "ZIP": "19140", "CDC_STORE_": 2.0}},{"geometry": {"type": "Point", "coordinates": [-75.22713786157527, 39.93666900605176]}, "type": "Feature", "id": 23, "properties": {"CATEGORY": "Enhanced", "STORE_ADDR": "5700 Chester Ave", "OFFICIAL_S": "Angela Mini Mart", "ZIP": "19143", "CDC_STORE_": 3.0}},{"geometry": {"type": "Point", "coordinates": [-75.23234458199367, 39.947706052274135]}, "type": "Feature", "id": 24, "properties": {"CATEGORY": "Enhanced", "STORE_ADDR": "5445 Baltimore Avenue", "OFFICIAL_S": "Angelica Supermarket", "ZIP": "19143", "CDC_STORE_": 3.0}},{"geometry": {"type": "Point", "coordinates": [-75.22899459819058, 39.98587205971852]}, "type": "Feature", "id": 25, "properties": {"CATEGORY": "Basic", "STORE_ADDR": "5301 Euclid St", "OFFICIAL_S": "Angelinas Grocery Store", "ZIP": "19131", "CDC_STORE_": 1.0}},{"geometry": {"type": "Point", "coordinates": [-75.24191063557271, 39.956215586926774]}, "type": "Feature", "id": 26, "properties": {"CATEGORY": "Basic", "STORE_ADDR": "309 S 60th St", "OFFICIAL_S": "Angelo's Food Market", "ZIP": "19143", "CDC_STORE_": 2.0}},{"geometry": {"type": "Point", "coordinates": [-75.07795214644271, 40.00608389096711]}, "type": "Feature", "id": 27, "properties": {"CATEGORY": "Basic", "STORE_ADDR": "2350 Orthodox St", "OFFICIAL_S": "Angel's Deli", "ZIP": "19137", "CDC_STORE_": 2.0}},{"geometry": {"type": "Point", "coordinates": [-75.0411914678195, 40.03072099699385]}, "type": "Feature", "id": 28, "properties": {"CATEGORY": "Basic", "STORE_ADDR": "4424 Princeton Ave", "OFFICIAL_S": "Anna's Deli", "ZIP": "19135", "CDC_STORE_": 1.0}},{"geometry": {"type": "Point", "coordinates": [-75.13037561879396, 39.9736653939372]}, "type": "Feature", "id": 29, "properties": {"CATEGORY": "Basic", "STORE_ADDR": "460 Belgrade St", "OFFICIAL_S": "Annes Place", "ZIP": "19125", "CDC_STORE_": 2.0}},{"geometry": {"type": "Point", "coordinates": [-75.18209748995037, 39.937148687563536]}, "type": "Feature", "id": 30, "properties": {"CATEGORY": "Basic", "STORE_ADDR": "1240 S 23rd St", "OFFICIAL_S": "Arheny Food Market", "ZIP": "19146", "CDC_STORE_": 2.0}},{"geometry": {"type": "Point", "coordinates": [-75.16896121487117, 39.935973203394084]}, "type": "Feature", "id": 31, "properties": {"CATEGORY": "Basic", "STORE_ADDR": "1200 S 15th St", "OFFICIAL_S": "Ariana Grocery II", "ZIP": "19146", "CDC_STORE_": 1.0}},{"geometry": {"type": "Point", "coordinates": [-75.09969259831665, 39.99785359693118]}, "type": "Feature", "id": 32, "properties": {"CATEGORY": "Basic", "STORE_ADDR": "2090 E Pacific St", "OFFICIAL_S": "Ariel Grocery Inc", "ZIP": "19134", "CDC_STORE_": 2.0}},{"geometry": {"type": "Point", "coordinates": [-75.1340930715862, 39.98511073979674]}, "type": "Feature", "id": 33, "properties": {"CATEGORY": "Enhanced", "STORE_ADDR": "147 W Dauphin St", "OFFICIAL_S": "Arturo Rojas Multi-Service I, Inc", "ZIP": "19133", "CDC_STORE_": 3.0}},{"geometry": {"type": "Point", "coordinates": [-75.1567906009718, 39.93529696967558]}, "type": "Feature", "id": 34, "properties": {"CATEGORY": "Enhanced", "STORE_ADDR": "1121 E Passyunk Ave", "OFFICIAL_S": "Ascencios Grocery", "ZIP": "19147", "CDC_STORE_": 3.0}},{"geometry": {"type": "Point", "coordinates": [-75.16379039574184, 40.03434184359589]}, "type": "Feature", "id": 35, "properties": {"CATEGORY": "Basic", "STORE_ADDR": "309 E Ashmead St", "OFFICIAL_S": "Ashmead Variety", "ZIP": "19144", "CDC_STORE_": 1.0}},{"geometry": {"type": "Point", "coordinates": [-75.18341129830468, 39.99292817076837]}, "type": "Feature", "id": 36, "properties": {"CATEGORY": "Enhanced", "STORE_ADDR": "3120-28 W York St", "OFFICIAL_S": "Associated Food Market", "ZIP": "19132", "CDC_STORE_": 3.0}},{"geometry": {"type": "Point", "coordinates": [-75.1455802552734, 39.99283200397464]}, "type": "Feature", "id": 37, "properties": {"CATEGORY": "Basic", "STORE_ADDR": "811 W Lehigh Ave", "OFFICIAL_S": "AVP Grocery Store", "ZIP": "19133", "CDC_STORE_": 2.0}},{"geometry": {"type": "Point", "coordinates": [-75.16480258412331, 39.96491788391018]}, "type": "Feature", "id": 38, "properties": {"CATEGORY": "Enhanced", "STORE_ADDR": "1634 Mount Vernon St", "OFFICIAL_S": "Azaan Grocery", "ZIP": "19130", "CDC_STORE_": 3.0}},{"geometry": {"type": "Point", "coordinates": [-75.21974603882958, 39.94197773775453]}, "type": "Feature", "id": 39, "properties": {"CATEGORY": "Basic", "STORE_ADDR": "5131 Chester Ave", "OFFICIAL_S": "Azcona Supermarket", "ZIP": "19143", "CDC_STORE_": 2.0}},{"geometry": {"type": "Point", "coordinates": [-75.23068628720229, 39.92190331810446]}, "type": "Feature", "id": 40, "properties": {"CATEGORY": "Enhanced", "STORE_ADDR": "6530 Elmwood Ave", "OFFICIAL_S": "B & J Supermarket", "ZIP": "19142", "CDC_STORE_": 3.0}},{"geometry": {"type": "Point", "coordinates": [-75.16323285282273, 39.99194102089693]}, "type": "Feature", "id": 41, "properties": {"CATEGORY": "Basic", "STORE_ADDR": "2500 N 19Th St", "OFFICIAL_S": "Baez Grocery", "ZIP": "19132", "CDC_STORE_": 2.0}},{"geometry": {"type": "Point", "coordinates": [-75.18216215485549, 39.93632416950563]}, "type": "Feature", "id": 42, "properties": {"CATEGORY": "Basic", "STORE_ADDR": "1267 S 23rd St", "OFFICIAL_S": "Baez Grocery Llc", "ZIP": "19146", "CDC_STORE_": 1.0}},{"geometry": {"type": "Point", "coordinates": [-75.14085308761254, 39.982629721141194]}, "type": "Feature", "id": 43, "properties": {"CATEGORY": "Enhanced", "STORE_ADDR": "412 Diamond St", "OFFICIAL_S": "Baez Mini Market Llc #1", "ZIP": "19122", "CDC_STORE_": 3.0}},{"geometry": {"type": "Point", "coordinates": [-75.2325787626035, 39.92687759822507]}, "type": "Feature", "id": 44, "properties": {"CATEGORY": "Basic", "STORE_ADDR": "6351 Woodland Ave", "OFFICIAL_S": "Bain'S Halal Market And Grocery", "ZIP": "19142", "CDC_STORE_": 1.0}},{"geometry": {"type": "Point", "coordinates": [-75.14450239626075, 39.99527115355135]}, "type": "Feature", "id": 45, "properties": {"CATEGORY": "Enhanced", "STORE_ADDR": "2865 N 8th St", "OFFICIAL_S": "Balbi Food Market", "ZIP": "19133", "CDC_STORE_": 3.0}},{"geometry": {"type": "Point", "coordinates": [-75.18045808560736, 39.92251169816898]}, "type": "Feature", "id": 46, "properties": {"CATEGORY": "Enhanced", "STORE_ADDR": "2355 S Woodstock St", "OFFICIAL_S": "Barbaro, Inc", "ZIP": "19145", "CDC_STORE_": 3.0}},{"geometry": {"type": "Point", "coordinates": [-75.13975740446531, 40.01732891418721]}, "type": "Feature", "id": 47, "properties": {"CATEGORY": "Basic", "STORE_ADDR": "801 W Bristol St", "OFFICIAL_S": "Basilio Grocery Store", "ZIP": "19140", "CDC_STORE_": 1.0}},{"geometry": {"type": "Point", "coordinates": [-75.13211123664732, 39.973141312758415]}, "type": "Feature", "id": 48, "properties": {"CATEGORY": "Enhanced", "STORE_ADDR": "1400 E Columbia Ave", "OFFICIAL_S": "Belgrade Delicatessen", "ZIP": "19125", "CDC_STORE_": 3.0}},{"geometry": {"type": "Point", "coordinates": [-75.24125085183937, 39.91447256117707]}, "type": "Feature", "id": 49, "properties": {"CATEGORY": "Basic", "STORE_ADDR": "7244 Elmwood Ave", "OFFICIAL_S": "Bensale", "ZIP": "19142", "CDC_STORE_": 1.0}},{"geometry": {"type": "Point", "coordinates": [-75.16104795489306, 39.916823062236325]}, "type": "Feature", "id": 50, "properties": {"CATEGORY": "Certification", "STORE_ADDR": "2601 S 8th St", "OFFICIAL_S": "Best of Both Worlds", "ZIP": "19148", "CDC_STORE_": 2.0}},{"geometry": {"type": "Point", "coordinates": [-75.16460589347685, 39.91527986987405]}, "type": "Feature", "id": 51, "properties": {"CATEGORY": "Certification", "STORE_ADDR": "2747 S 10Th St", "OFFICIAL_S": "Bettys Grocery", "ZIP": "19148", "CDC_STORE_": 3.0}},{"geometry": {"type": "Point", "coordinates": [-75.09963728617511, 40.00033039980823]}, "type": "Feature", "id": 52, "properties": {"CATEGORY": "Enhanced", "STORE_ADDR": "2000 Castor Ave", "OFFICIAL_S": "Bills Deli", "ZIP": "19134", "CDC_STORE_": 3.0}},{"geometry": {"type": "Point", "coordinates": [-75.19565908598464, 39.935211524040476]}, "type": "Feature", "id": 53, "properties": {"CATEGORY": "Basic", "STORE_ADDR": "1501 S 31St St", "OFFICIAL_S": "Black Angel Food Market", "ZIP": "19146", "CDC_STORE_": 2.0}},{"geometry": {"type": "Point", "coordinates": [-75.13482020685173, 39.985118966510456]}, "type": "Feature", "id": 54, "properties": {"CATEGORY": "Enhanced", "STORE_ADDR": "162 W Dauphin St", "OFFICIAL_S": "Blanca Food Market", "ZIP": "19133", "CDC_STORE_": 3.0}},{"geometry": {"type": "Point", "coordinates": [-75.11669711747284, 40.00013661430938]}, "type": "Feature", "id": 55, "properties": {"CATEGORY": "Enhanced", "STORE_ADDR": "701 E Ontario St", "OFFICIAL_S": "Bonifacio Grocery", "ZIP": "19134", "CDC_STORE_": 3.0}},{"geometry": {"type": "Point", "coordinates": [-75.17403046155448, 39.98538166555639]}, "type": "Feature", "id": 56, "properties": {"CATEGORY": "Enhanced", "STORE_ADDR": "2440 W Norris St", "OFFICIAL_S": "Bravo Supermarket", "ZIP": "19121", "CDC_STORE_": 3.0}},{"geometry": {"type": "Point", "coordinates": [-75.17332947036098, 39.999578089973696]}, "type": "Feature", "id": 57, "properties": {"CATEGORY": "Basic", "STORE_ADDR": "2900 N 26Th St", "OFFICIAL_S": "Breton Grocery", "ZIP": "19132", "CDC_STORE_": 2.0}},{"geometry": {"type": "Point", "coordinates": [-75.17904029388362, 39.94289442536344]}, "type": "Feature", "id": 58, "properties": {"CATEGORY": "Basic", "STORE_ADDR": "755 S 22Nd St", "OFFICIAL_S": "Brianette Deli & Grocery LLC", "ZIP": "19146", "CDC_STORE_": 1.0}},{"geometry": {"type": "Point", "coordinates": [-75.14017957785896, 39.98101099857324]}, "type": "Feature", "id": 59, "properties": {"CATEGORY": "Enhanced", "STORE_ADDR": "312 W Norris St", "OFFICIAL_S": "Brillante Mini Market", "ZIP": "19122", "CDC_STORE_": 3.0}},{"geometry": {"type": "Point", "coordinates": [-75.1599062834263, 39.984493313108786]}, "type": "Feature", "id": 60, "properties": {"CATEGORY": "Enhanced", "STORE_ADDR": "2027 N 16th St", "OFFICIAL_S": "Brisita Grocery", "ZIP": "19121", "CDC_STORE_": 3.0}},{"geometry": {"type": "Point", "coordinates": [-75.1304319301472, 40.02318331394166]}, "type": "Feature", "id": 61, "properties": {"CATEGORY": "Enhanced", "STORE_ADDR": "4729 N 3rd St", "OFFICIAL_S": "Brito Grocery", "ZIP": "19120", "CDC_STORE_": 3.0}},{"geometry": {"type": "Point", "coordinates": [-75.15540949134808, 40.009834837695706]}, "type": "Feature", "id": 62, "properties": {"CATEGORY": "Basic", "STORE_ADDR": "1627 W Erie Ave", "OFFICIAL_S": "Britos Grocery", "ZIP": "19140", "CDC_STORE_": 1.0}},{"geometry": {"type": "Point", "coordinates": [-75.15355269742982, 40.01114065079104]}, "type": "Feature", "id": 63, "properties": {"CATEGORY": "Enhanced", "STORE_ADDR": "1540 W Butler St", "OFFICIAL_S": "Brother's Grocery", "ZIP": "19140", "CDC_STORE_": 3.0}},{"geometry": {"type": "Point", "coordinates": [-75.16855634464265, 39.97565747829286]}, "type": "Feature", "id": 64, "properties": {"CATEGORY": "Enhanced", "STORE_ADDR": "2012 Ridge Ave", "OFFICIAL_S": "Brother's Mini Market", "ZIP": "19121", "CDC_STORE_": 3.0}},{"geometry": {"type": "Point", "coordinates": [-75.22396192851856, 39.92538759344248]}, "type": "Feature", "id": 65, "properties": {"CATEGORY": "Basic", "STORE_ADDR": "2561 S 61St St", "OFFICIAL_S": "Buist Food Market", "ZIP": "19142", "CDC_STORE_": 2.0}},{"geometry": {"type": "Point", "coordinates": [-75.09617000637523, 40.048961184595676]}, "type": "Feature", "id": 66, "properties": {"CATEGORY": "Basic", "STORE_ADDR": "6351 Rising Sun Ave", "OFFICIAL_S": "C & R Deli Grocery", "ZIP": "19111", "CDC_STORE_": 2.0}},{"geometry": {"type": "Point", "coordinates": [-75.17445286086016, 39.97935366042805]}, "type": "Feature", "id": 67, "properties": {"CATEGORY": "Enhanced", "STORE_ADDR": "2400 W Oxford St", "OFFICIAL_S": "C Food Market", "ZIP": "19121", "CDC_STORE_": 3.0}},{"geometry": {"type": "Point", "coordinates": [-75.23562969759982, 39.977810802834036]}, "type": "Feature", "id": 68, "properties": {"CATEGORY": "Basic", "STORE_ADDR": "1660 N 57Th St", "OFFICIAL_S": "Cabrera Mini Market", "ZIP": "19131", "CDC_STORE_": 1.0}},{"geometry": {"type": "Point", "coordinates": [-75.11688284146473, 39.988880537774904]}, "type": "Feature", "id": 69, "properties": {"CATEGORY": "Basic", "STORE_ADDR": "2085 E Cambria St", "OFFICIAL_S": "Cambria Mini Market", "ZIP": "19134", "CDC_STORE_": 2.0}},{"geometry": {"type": "Point", "coordinates": [-75.15342690480765, 40.02951458286535]}, "type": "Feature", "id": 70, "properties": {"CATEGORY": "Basic", "STORE_ADDR": "1801 W Albanus St", "OFFICIAL_S": "Gomez Grocery", "ZIP": "19141", "CDC_STORE_": 1.0}},{"geometry": {"type": "Point", "coordinates": [-75.14056418806707, 39.99381754205407]}, "type": "Feature", "id": 71, "properties": {"CATEGORY": "Basic", "STORE_ADDR": "2800 N Reese Street", "OFFICIAL_S": "Gomez Grocery", "ZIP": "19133", "CDC_STORE_": 2.0}},{"geometry": {"type": "Point", "coordinates": [-75.12450180229602, 39.984791715792014]}, "type": "Feature", "id": 72, "properties": {"CATEGORY": "Enhanced", "STORE_ADDR": "2572 Frankford Ave", "OFFICIAL_S": "Gomez Grocery", "ZIP": "19125", "CDC_STORE_": 3.0}},{"geometry": {"type": "Point", "coordinates": [-75.25300830516666, 39.97638129445955]}, "type": "Feature", "id": 73, "properties": {"CATEGORY": "Enhanced", "STORE_ADDR": "6621 Lebanon Ave", "OFFICIAL_S": "Gomez Grocery", "ZIP": "19151", "CDC_STORE_": 3.0}},{"geometry": {"type": "Point", "coordinates": [-75.1628317440984, 40.02269469331516]}, "type": "Feature", "id": 74, "properties": {"CATEGORY": "Enhanced", "STORE_ADDR": "4562 Wayne Ave", "OFFICIAL_S": "Gomez Supermarket", "ZIP": "19144", "CDC_STORE_": 3.0}},{"geometry": {"type": "Point", "coordinates": [-75.12738600901896, 40.04175775242161]}, "type": "Feature", "id": 75, "properties": {"CATEGORY": "Basic", "STORE_ADDR": "5963 N 4Th St", "OFFICIAL_S": "Gonzalez Grocery", "ZIP": "19120", "CDC_STORE_": 1.0}},{"geometry": {"type": "Point", "coordinates": [-75.10723967672975, 40.02726955316071]}, "type": "Feature", "id": 76, "properties": {"CATEGORY": "Basic", "STORE_ADDR": "5144 Whitaker Ave", "OFFICIAL_S": "Gonzalez Mini Market", "ZIP": "19124", "CDC_STORE_": 1.0}},{"geometry": {"type": "Point", "coordinates": [-75.21233908226898, 39.94123156117232]}, "type": "Feature", "id": 77, "properties": {"CATEGORY": "Certification", "STORE_ADDR": "4837 Woodland Ave", "OFFICIAL_S": "Good Neighbor Mini Mart", "ZIP": "19143", "CDC_STORE_": 3.0}},{"geometry": {"type": "Point", "coordinates": [-75.19642219218896, 39.965906681563695]}, "type": "Feature", "id": 78, "properties": {"CATEGORY": "Enhanced", "STORE_ADDR": "3701 Fairmount Ave", "OFFICIAL_S": "Good Neighbor Supermarket", "ZIP": "19104", "CDC_STORE_": 3.0}},{"geometry": {"type": "Point", "coordinates": [-75.15575867717772, 40.0224613351215]}, "type": "Feature", "id": 79, "properties": {"CATEGORY": "Basic", "STORE_ADDR": "4500 N Gratz St", "OFFICIAL_S": "Gratz Mini Market", "ZIP": "19140", "CDC_STORE_": 2.0}},{"geometry": {"type": "Point", "coordinates": [-75.17777893094706, 40.034847052102485]}, "type": "Feature", "id": 80, "properties": {"CATEGORY": "Basic", "STORE_ADDR": "5810 Greene Stste 1", "OFFICIAL_S": "Green Grocer", "ZIP": "19144", "CDC_STORE_": 1.0}},{"geometry": {"type": "Point", "coordinates": [-75.22158714322488, 39.96125061314766]}, "type": "Feature", "id": 81, "properties": {"CATEGORY": "Enhanced", "STORE_ADDR": "5027 Arch St", "OFFICIAL_S": "Gregory Grocery", "ZIP": "19139", "CDC_STORE_": 3.0}},{"geometry": {"type": "Point", "coordinates": [-75.11805313751508, 40.03078128919281]}, "type": "Feature", "id": 82, "properties": {"CATEGORY": "Basic", "STORE_ADDR": "5324 Rising Sun Ave", "OFFICIAL_S": "Guerrero Grocery", "ZIP": "19120", "CDC_STORE_": 1.0}},{"geometry": {"type": "Point", "coordinates": [-75.16670464802556, 39.92099185747438]}, "type": "Feature", "id": 83, "properties": {"CATEGORY": "Enhanced", "STORE_ADDR": "2314 S 12Th St", "OFFICIAL_S": "Guido's Mini Market", "ZIP": "19148", "CDC_STORE_": 3.0}},{"geometry": {"type": "Point", "coordinates": [-75.24139257388592, 39.929078274518275]}, "type": "Feature", "id": 84, "properties": {"CATEGORY": "Basic", "STORE_ADDR": "1772 S 65Th St", "OFFICIAL_S": "Gutierrez & Espinal LLC", "ZIP": "19142", "CDC_STORE_": 1.0}},{"geometry": {"type": "Point", "coordinates": [-75.14662492009711, 40.03025186267355]}, "type": "Feature", "id": 85, "properties": {"CATEGORY": "Enhanced", "STORE_ADDR": "5035 N Broad St", "OFFICIAL_S": "Ha Ha's Market", "ZIP": "19141", "CDC_STORE_": 3.0}},{"geometry": {"type": "Point", "coordinates": [-75.16205677846011, 39.92009042705716]}, "type": "Feature", "id": 86, "properties": {"CATEGORY": "Basic", "STORE_ADDR": "2330 S 9th St", "OFFICIAL_S": "Hai Yan Grocery", "ZIP": "19148", "CDC_STORE_": 2.0}},{"geometry": {"type": "Point", "coordinates": [-75.19130650088682, 39.96221915584244]}, "type": "Feature", "id": 87, "properties": {"CATEGORY": "Enhanced", "STORE_ADDR": "3401 Hamilton St", "OFFICIAL_S": "Hamilton Express Deli LLC", "ZIP": "19104", "CDC_STORE_": 3.0}},{"geometry": {"type": "Point", "coordinates": [-75.1098179001128, 39.9883428643937]}, "type": "Feature", "id": 88, "properties": {"CATEGORY": "Enhanced", "STORE_ADDR": "2300 E Clearfield", "OFFICIAL_S": "Hank's Deli", "ZIP": "19134", "CDC_STORE_": 3.0}},{"geometry": {"type": "Point", "coordinates": [-75.08010259632722, 40.018453811063786]}, "type": "Feature", "id": 89, "properties": {"CATEGORY": "Basic", "STORE_ADDR": "1647 Harrison St", "OFFICIAL_S": "Harrison Food Market", "ZIP": "19124", "CDC_STORE_": 2.0}},{"geometry": {"type": "Point", "coordinates": [-75.17343288750507, 39.94096810983146]}, "type": "Feature", "id": 90, "properties": {"CATEGORY": "Basic", "STORE_ADDR": "1847 Christian St", "OFFICIAL_S": "Harry's House", "ZIP": "19146", "CDC_STORE_": 2.0}},{"geometry": {"type": "Point", "coordinates": [-75.0695155932317, 40.05322745961907]}, "type": "Feature", "id": 91, "properties": {"CATEGORY": "Basic", "STORE_ADDR": "1805 Cottman Ave", "OFFICIAL_S": "Harrys Natural Health", "ZIP": "19111", "CDC_STORE_": 2.0}},{"geometry": {"type": "Point", "coordinates": [-75.10086571794872, 40.006384157520465]}, "type": "Feature", "id": 92, "properties": {"CATEGORY": "Basic", "STORE_ADDR": "3939 M St", "OFFICIAL_S": "Health Food International", "ZIP": "19124", "CDC_STORE_": 1.0}},{"geometry": {"type": "Point", "coordinates": [-75.17823343007558, 40.0409476930563]}, "type": "Feature", "id": 93, "properties": {"CATEGORY": "Basic", "STORE_ADDR": "25 E Walnut Ln", "OFFICIAL_S": "Healthy Nutrition LLC", "ZIP": "19144", "CDC_STORE_": 2.0}},{"geometry": {"type": "Point", "coordinates": [-75.23292396467347, 39.94150867807351]}, "type": "Feature", "id": 94, "properties": {"CATEGORY": "Basic", "STORE_ADDR": "5700 Hadfield St", "OFFICIAL_S": "Hernandez Grocery", "ZIP": "19143", "CDC_STORE_": 2.0}},{"geometry": {"type": "Point", "coordinates": [-75.1276431778757, 40.00299849667238]}, "type": "Feature", "id": 95, "properties": {"CATEGORY": "Enhanced", "STORE_ADDR": "118 E Tioga St", "OFFICIAL_S": "Hernandez Grocery #1", "ZIP": "19134", "CDC_STORE_": 3.0}},{"geometry": {"type": "Point", "coordinates": [-75.12827474782144, 40.00308196113338]}, "type": "Feature", "id": 96, "properties": {"CATEGORY": "Basic", "STORE_ADDR": "100 E Tioga St", "OFFICIAL_S": "Hernandez Grocery #2", "ZIP": "19134", "CDC_STORE_": 2.0}},{"geometry": {"type": "Point", "coordinates": [-75.12057614548856, 39.99584548459707]}, "type": "Feature", "id": 97, "properties": {"CATEGORY": "Enhanced", "STORE_ADDR": "3101 Rorer St", "OFFICIAL_S": "Herrera Grocery", "ZIP": "19134", "CDC_STORE_": 3.0}},{"geometry": {"type": "Point", "coordinates": [-75.12311807072429, 40.022959549155445]}, "type": "Feature", "id": 98, "properties": {"CATEGORY": "Basic", "STORE_ADDR": "146 E. Louden St", "OFFICIAL_S": "Hershey's Ice Cream Grocery", "ZIP": "19120", "CDC_STORE_": 1.0}},{"geometry": {"type": "Point", "coordinates": [-75.13350773394876, 40.017963317365385]}, "type": "Feature", "id": 99, "properties": {"CATEGORY": "Enhanced", "STORE_ADDR": "426 W Cayuga St", "OFFICIAL_S": "Higueyana Mini Market", "ZIP": "19140", "CDC_STORE_": 3.0}},{"geometry": {"type": "Point", "coordinates": [-75.24301278403328, 39.95147256646378]}, "type": "Feature", "id": 100, "properties": {"CATEGORY": "Enhanced", "STORE_ADDR": "648 S 60th St", "OFFICIAL_S": "HoHo Market", "ZIP": "19143", "CDC_STORE_": 3.0}},{"geometry": {"type": "Point", "coordinates": [-75.11595306764715, 39.997372549144664]}, "type": "Feature", "id": 101, "properties": {"CATEGORY": "Basic", "STORE_ADDR": "769 E Hilton St", "OFFICIAL_S": "Hong's Market", "ZIP": "19134", "CDC_STORE_": 2.0}},{"geometry": {"type": "Point", "coordinates": [-75.16232785227255, 39.96596107959235]}, "type": "Feature", "id": 102, "properties": {"CATEGORY": "Basic", "STORE_ADDR": "655 N 15th St", "OFFICIAL_S": "Hot Spot Grocery & Deli", "ZIP": "19130", "CDC_STORE_": 1.0}},{"geometry": {"type": "Point", "coordinates": [-75.11472809021389, 39.995802537768256]}, "type": "Feature", "id": 103, "properties": {"CATEGORY": "Basic", "STORE_ADDR": "3130 Kensington Ave", "OFFICIAL_S": "Humphries", "ZIP": "19134", "CDC_STORE_": 2.0}},{"geometry": {"type": "Point", "coordinates": [-75.2499599867121, 39.988764349590944]}, "type": "Feature", "id": 104, "properties": {"CATEGORY": "Basic", "STORE_ADDR": "2123 N 63Rd St", "OFFICIAL_S": "Hwan J Kims Fd Mkt", "ZIP": "19151", "CDC_STORE_": 2.0}},{"geometry": {"type": "Point", "coordinates": [-75.22721818045754, 39.980083537075664]}, "type": "Feature", "id": 105, "properties": {"CATEGORY": "Basic", "STORE_ADDR": "5256 W Jefferson St", "OFFICIAL_S": "I and S mini Market", "ZIP": "19131", "CDC_STORE_": 2.0}},{"geometry": {"type": "Point", "coordinates": [-75.11377000366838, 39.992908576955884]}, "type": "Feature", "id": 106, "properties": {"CATEGORY": "Enhanced", "STORE_ADDR": "3101 Emerald St", "OFFICIAL_S": "Ily Grocery Store", "ZIP": "19134", "CDC_STORE_": 3.0}},{"geometry": {"type": "Point", "coordinates": [-75.13940683395097, 39.99597217493397]}, "type": "Feature", "id": 107, "properties": {"CATEGORY": "Certification", "STORE_ADDR": "2952 N 5th St", "OFFICIAL_S": "Indiana Food Market", "ZIP": "19133", "CDC_STORE_": 3.0}},{"geometry": {"type": "Point", "coordinates": [-75.1646166462479, 39.99991917683504]}, "type": "Feature", "id": 108, "properties": {"CATEGORY": "Basic", "STORE_ADDR": "2066 W Indiana Ave", "OFFICIAL_S": "Indiana Grocery", "ZIP": "19132", "CDC_STORE_": 2.0}},{"geometry": {"type": "Point", "coordinates": [-75.10954636554474, 39.984722526057574]}, "type": "Feature", "id": 109, "properties": {"CATEGORY": "Enhanced", "STORE_ADDR": "2501 E Indiana Ave", "OFFICIAL_S": "Indiana Joe's", "ZIP": "19134", "CDC_STORE_": 3.0}},{"geometry": {"type": "Point", "coordinates": [-75.17290010583909, 40.0010590990631]}, "type": "Feature", "id": 110, "properties": {"CATEGORY": "Enhanced", "STORE_ADDR": "3001 N 26Th St", "OFFICIAL_S": "Indiana Mini Market", "ZIP": "19132", "CDC_STORE_": 3.0}},{"geometry": {"type": "Point", "coordinates": [-75.14412286018941, 39.99734805211664]}, "type": "Feature", "id": 111, "properties": {"CATEGORY": "Basic", "STORE_ADDR": "801 W Indiana Ave", "OFFICIAL_S": "Indiana Street Mini Market", "ZIP": "19133", "CDC_STORE_": 2.0}},{"geometry": {"type": "Point", "coordinates": [-75.24035352178319, 39.915109103549874]}, "type": "Feature", "id": 112, "properties": {"CATEGORY": "Enhanced", "STORE_ADDR": "7200 Elmwood Ave", "OFFICIAL_S": "J & D Market", "ZIP": "19142", "CDC_STORE_": 3.0}},{"geometry": {"type": "Point", "coordinates": [-75.10181550968527, 40.044529657285764]}, "type": "Feature", "id": 113, "properties": {"CATEGORY": "Enhanced", "STORE_ADDR": "5921 Rising Sun Ave", "OFFICIAL_S": "J & F Business", "ZIP": "19120", "CDC_STORE_": 3.0}},{"geometry": {"type": "Point", "coordinates": [-75.13422872345953, 39.99453324975507]}, "type": "Feature", "id": 114, "properties": {"CATEGORY": "Enhanced", "STORE_ADDR": "201 West Cambria St", "OFFICIAL_S": "J & J Deli Grocery", "ZIP": "19133", "CDC_STORE_": 3.0}},{"geometry": {"type": "Point", "coordinates": [-75.17611283997454, 40.02784300384962]}, "type": "Feature", "id": 115, "properties": {"CATEGORY": "Basic", "STORE_ADDR": "301 W Coulter St", "OFFICIAL_S": "J & J Family Grocery", "ZIP": "19144", "CDC_STORE_": 1.0}},{"geometry": {"type": "Point", "coordinates": [-75.15362114423431, 40.047332137230384]}, "type": "Feature", "id": 116, "properties": {"CATEGORY": "Enhanced", "STORE_ADDR": "2001 W Spencer St", "OFFICIAL_S": "J & J Grocery", "ZIP": "19138", "CDC_STORE_": 3.0}},{"geometry": {"type": "Point", "coordinates": [-75.17073054797312, 39.965033279296776]}, "type": "Feature", "id": 117, "properties": {"CATEGORY": "Certification", "STORE_ADDR": "2001 Green Street", "OFFICIAL_S": "J & K Food Market", "ZIP": "19130", "CDC_STORE_": 3.0}},{"geometry": {"type": "Point", "coordinates": [-75.16440397662913, 39.987392964655044]}, "type": "Feature", "id": 118, "properties": {"CATEGORY": "Basic", "STORE_ADDR": "1907 W Susquehanna Ave", "OFFICIAL_S": "J & M Convenience Store", "ZIP": "19121", "CDC_STORE_": 2.0}},{"geometry": {"type": "Point", "coordinates": [-75.17456477521864, 39.98400155847703]}, "type": "Feature", "id": 119, "properties": {"CATEGORY": "Basic", "STORE_ADDR": "2451 W Berks St", "OFFICIAL_S": "J & M Deli Grocery", "ZIP": "19121", "CDC_STORE_": 2.0}},{"geometry": {"type": "Point", "coordinates": [-75.20088842121777, 39.97301870642432]}, "type": "Feature", "id": 120, "properties": {"CATEGORY": "Basic", "STORE_ADDR": "3874 Poplar St", "OFFICIAL_S": "J & R Food Market", "ZIP": "19104", "CDC_STORE_": 1.0}},{"geometry": {"type": "Point", "coordinates": [-75.07645548216176, 40.01641750198158]}, "type": "Feature", "id": 121, "properties": {"CATEGORY": "Basic", "STORE_ADDR": "1838 Harrison St", "OFFICIAL_S": "J & R Mini Market", "ZIP": "19124", "CDC_STORE_": 2.0}},{"geometry": {"type": "Point", "coordinates": [-75.1301000246774, 40.0380371096618]}, "type": "Feature", "id": 122, "properties": {"CATEGORY": "Certification", "STORE_ADDR": "5701 N 5th St", "OFFICIAL_S": "J & S Fish and Fruit Market", "ZIP": "19120", "CDC_STORE_": 3.0}},{"geometry": {"type": "Point", "coordinates": [-75.10972709575348, 39.988389781773655]}, "type": "Feature", "id": 123, "properties": {"CATEGORY": "Basic", "STORE_ADDR": "2301 E Clearfield St", "OFFICIAL_S": "Jaquez Deli Grocery", "ZIP": "19134", "CDC_STORE_": 2.0}},{"geometry": {"type": "Point", "coordinates": [-75.12710170922426, 40.02864027974932]}, "type": "Feature", "id": 124, "properties": {"CATEGORY": "Basic", "STORE_ADDR": "5134 N 2nd St", "OFFICIAL_S": "Jaquez Family Grocery", "ZIP": "19120", "CDC_STORE_": 1.0}},{"geometry": {"type": "Point", "coordinates": [-75.12144768556436, 40.044784169854225]}, "type": "Feature", "id": 125, "properties": {"CATEGORY": "Basic", "STORE_ADDR": "143 West Godfrey Ave", "OFFICIAL_S": "Jaquez Grocery", "ZIP": "19120", "CDC_STORE_": 1.0}},{"geometry": {"type": "Point", "coordinates": [-75.17253821225377, 40.039587405546065]}, "type": "Feature", "id": 126, "properties": {"CATEGORY": "Basic", "STORE_ADDR": "301 E Price St", "OFFICIAL_S": "Jaquez Grocery", "ZIP": "19144", "CDC_STORE_": 1.0}},{"geometry": {"type": "Point", "coordinates": [-75.22698912464905, 39.925365214447964]}, "type": "Feature", "id": 127, "properties": {"CATEGORY": "Basic", "STORE_ADDR": "2435 S 62nd St", "OFFICIAL_S": "Jaquez Grocery", "ZIP": "19142", "CDC_STORE_": 2.0}},{"geometry": {"type": "Point", "coordinates": [-75.15649570190587, 40.00011358270541]}, "type": "Feature", "id": 128, "properties": {"CATEGORY": "Basic", "STORE_ADDR": "3061 N 16th St", "OFFICIAL_S": "Jaquez Mini Market", "ZIP": "19132", "CDC_STORE_": 2.0}},{"geometry": {"type": "Point", "coordinates": [-75.2252543204382, 39.938109974077065]}, "type": "Feature", "id": 129, "properties": {"CATEGORY": "Enhanced", "STORE_ADDR": "5535 Chester Ave", "OFFICIAL_S": "Jaquez Mini Market", "ZIP": "19143", "CDC_STORE_": 3.0}},{"geometry": {"type": "Point", "coordinates": [-75.16237893308903, 39.925517954156014]}, "type": "Feature", "id": 130, "properties": {"CATEGORY": "Basic", "STORE_ADDR": "1913 S 10Th St", "OFFICIAL_S": "Jd Grill & Deli Inc", "ZIP": "19148", "CDC_STORE_": 1.0}},{"geometry": {"type": "Point", "coordinates": [-75.13648702763165, 40.02621786418819]}, "type": "Feature", "id": 131, "properties": {"CATEGORY": "Basic", "STORE_ADDR": "700 W Rockland St", "OFFICIAL_S": "J-Di Deli #1", "ZIP": "19120", "CDC_STORE_": 2.0}},{"geometry": {"type": "Point", "coordinates": [-75.21561663458873, 39.944880809684214]}, "type": "Feature", "id": 132, "properties": {"CATEGORY": "Certification", "STORE_ADDR": "4823 Chester Ave", "OFFICIAL_S": "Jennifer Grocery", "ZIP": "19143", "CDC_STORE_": 3.0}},{"geometry": {"type": "Point", "coordinates": [-75.11104055601069, 39.99939913208222]}, "type": "Feature", "id": 133, "properties": {"CATEGORY": "Basic", "STORE_ADDR": "965 E Ontario St", "OFFICIAL_S": "Jeremy Grocery", "ZIP": "19134", "CDC_STORE_": 2.0}},{"geometry": {"type": "Point", "coordinates": [-75.14113088701626, 40.01353469148634]}, "type": "Feature", "id": 134, "properties": {"CATEGORY": "Enhanced", "STORE_ADDR": "4056 N Darien St", "OFFICIAL_S": "Jerez Grocery", "ZIP": "19140", "CDC_STORE_": 3.0}},{"geometry": {"type": "Point", "coordinates": [-75.1477342763611, 39.968620079074554]}, "type": "Feature", "id": 135, "properties": {"CATEGORY": "Certification", "STORE_ADDR": "1022 N Marshall St", "OFFICIAL_S": "1022 Marshall Enterprises, Inc", "ZIP": "19123", "CDC_STORE_": 3.0}},{"geometry": {"type": "Point", "coordinates": [-75.16445177583101, 39.91651923337324]}, "type": "Feature", "id": 136, "properties": {"CATEGORY": "Basic", "STORE_ADDR": "2654 S 10th St", "OFFICIAL_S": "10th Ave Sandwiches", "ZIP": "19148", "CDC_STORE_": 1.0}},{"geometry": {"type": "Point", "coordinates": [-75.1152060877244, 40.034178478038086]}, "type": "Feature", "id": 137, "properties": {"CATEGORY": "Basic", "STORE_ADDR": "5570 Rising Sun Ave", "OFFICIAL_S": "1111 M&S Gas, Inc.", "ZIP": "19120", "CDC_STORE_": 1.0}},{"geometry": {"type": "Point", "coordinates": [-75.1579443350497, 39.96055973566986]}, "type": "Feature", "id": 138, "properties": {"CATEGORY": "Certification", "STORE_ADDR": "453 N 12th St", "OFFICIAL_S": "12th Street Food Mart", "ZIP": "19123", "CDC_STORE_": 3.0}},{"geometry": {"type": "Point", "coordinates": [-75.17225211931886, 39.926016762892495]}, "type": "Feature", "id": 139, "properties": {"CATEGORY": "Basic", "STORE_ADDR": "1551 Mckean St", "OFFICIAL_S": "16th Street Food Market", "ZIP": "19145", "CDC_STORE_": 2.0}},{"geometry": {"type": "Point", "coordinates": [-75.15385236764035, 39.934942080584534]}, "type": "Feature", "id": 140, "properties": {"CATEGORY": "Basic", "STORE_ADDR": "1111 S 6th St", "OFFICIAL_S": "1st Oriental Supermarket", "ZIP": "19147", "CDC_STORE_": 1.0}},{"geometry": {"type": "Point", "coordinates": [-75.1791649890558, 39.93309216834447]}, "type": "Feature", "id": 141, "properties": {"CATEGORY": "Basic", "STORE_ADDR": "2050 Dickinson St", "OFFICIAL_S": "21st Food Market & Deli", "ZIP": "19146", "CDC_STORE_": 2.0}},{"geometry": {"type": "Point", "coordinates": [-75.17125442457791, 39.97900923506461]}, "type": "Feature", "id": 142, "properties": {"CATEGORY": "Enhanced", "STORE_ADDR": "2201 W Oxford St", "OFFICIAL_S": "22nd St. Mini Market", "ZIP": "19121", "CDC_STORE_": 3.0}},{"geometry": {"type": "Point", "coordinates": [-75.17256219233862, 40.00256234011597]}, "type": "Feature", "id": 143, "properties": {"CATEGORY": "Enhanced", "STORE_ADDR": "3101 N 26th St", "OFFICIAL_S": "26th and Clearfield Mini Mart", "ZIP": "19132", "CDC_STORE_": 3.0}},{"geometry": {"type": "Point", "coordinates": [-75.17698439298768, 39.982753004875775]}, "type": "Feature", "id": 144, "properties": {"CATEGORY": "Enhanced", "STORE_ADDR": "1800 N 26Th St", "OFFICIAL_S": "26th Food Market", "ZIP": "19121", "CDC_STORE_": 3.0}},{"geometry": {"type": "Point", "coordinates": [-75.12341006623197, 39.9910426322172]}, "type": "Feature", "id": 145, "properties": {"CATEGORY": "Basic", "STORE_ADDR": "2764-72 Kensington Ave", "OFFICIAL_S": "2764 Kensington Inc", "ZIP": "19134", "CDC_STORE_": 2.0}},{"geometry": {"type": "Point", "coordinates": [-75.17470240682685, 39.99708484994454]}, "type": "Feature", "id": 146, "properties": {"CATEGORY": "Basic", "STORE_ADDR": "2655 W Sterner St", "OFFICIAL_S": "27th Food Market", "ZIP": "19132", "CDC_STORE_": 1.0}},{"geometry": {"type": "Point", "coordinates": [-75.19262496013005, 39.92729053902832]}, "type": "Feature", "id": 147, "properties": {"CATEGORY": "Basic", "STORE_ADDR": "2800 Snyder Ave", "OFFICIAL_S": "28 & Snyder Supermarket", "ZIP": "19145", "CDC_STORE_": 2.0}},{"geometry": {"type": "Point", "coordinates": [-75.15468293720996, 39.96176949506987]}, "type": "Feature", "id": 148, "properties": {"CATEGORY": "Enhanced", "STORE_ADDR": "1009 Spring Garden St", "OFFICIAL_S": "3 Espigas Bakery & Grocery", "ZIP": "19123", "CDC_STORE_": 3.0}},{"geometry": {"type": "Point", "coordinates": [-75.16384937994573, 40.005384377081974]}, "type": "Feature", "id": 149, "properties": {"CATEGORY": "Enhanced", "STORE_ADDR": "3324 N 21st St", "OFFICIAL_S": "3 J Food Market", "ZIP": "19140", "CDC_STORE_": 3.0}},{"geometry": {"type": "Point", "coordinates": [-75.22912800724382, 39.95438486503057]}, "type": "Feature", "id": 150, "properties": {"CATEGORY": "Certification", "STORE_ADDR": "5356 Delancey Street", "OFFICIAL_S": "3 Sisters #2", "ZIP": "19143", "CDC_STORE_": 3.0}},{"geometry": {"type": "Point", "coordinates": [-75.15109687420488, 40.00079774611097]}, "type": "Feature", "id": 151, "properties": {"CATEGORY": "Enhanced", "STORE_ADDR": "1327 W Wishart St", "OFFICIAL_S": "3 Torres", "ZIP": "19132", "CDC_STORE_": 3.0}},{"geometry": {"type": "Point", "coordinates": [-75.14863645111478, 39.963828253160074]}, "type": "Feature", "id": 152, "properties": {"CATEGORY": "Enhanced", "STORE_ADDR": "623 Fairmount Ave", "OFFICIAL_S": "3MNS Inc.", "ZIP": "19123", "CDC_STORE_": 3.0}},{"geometry": {"type": "Point", "coordinates": [-75.23106313037059, 39.937949792148416]}, "type": "Feature", "id": 153, "properties": {"CATEGORY": "Basic", "STORE_ADDR": "1701 S 58th St", "OFFICIAL_S": "4 Brothers Mini Market", "ZIP": "19143", "CDC_STORE_": 2.0}},{"geometry": {"type": "Point", "coordinates": [-75.21891768186075, 39.95618435366876]}, "type": "Feature", "id": 154, "properties": {"CATEGORY": "Enhanced", "STORE_ADDR": "4847 Walnut St", "OFFICIAL_S": "49 Stop Supermarket", "ZIP": "19139", "CDC_STORE_": 3.0}},{"geometry": {"type": "Point", "coordinates": [-75.22225218737117, 39.9628942118585]}, "type": "Feature", "id": 155, "properties": {"CATEGORY": "Basic", "STORE_ADDR": "5101 Race St", "OFFICIAL_S": "51 Race Food Market Inc", "ZIP": "19139", "CDC_STORE_": 2.0}},{"geometry": {"type": "Point", "coordinates": [-75.21643803840736, 39.94015654109306]}, "type": "Feature", "id": 156, "properties": {"CATEGORY": "Enhanced", "STORE_ADDR": "1360 S 51st St", "OFFICIAL_S": "51 Street Mini Market #1", "ZIP": "19143", "CDC_STORE_": 3.0}},{"geometry": {"type": "Point", "coordinates": [-75.21884734715097, 39.94055824755422]}, "type": "Feature", "id": 157, "properties": {"CATEGORY": "Basic", "STORE_ADDR": "1401 S 52nd St", "OFFICIAL_S": "52nd Street Food Market", "ZIP": "19143", "CDC_STORE_": 2.0}},{"geometry": {"type": "Point", "coordinates": [-75.22907170122437, 39.969114914147056]}, "type": "Feature", "id": 158, "properties": {"CATEGORY": "Basic", "STORE_ADDR": "5414 Wyalusing Ave", "OFFICIAL_S": "5414 Wyalusing Food Market", "ZIP": "19131", "CDC_STORE_": 1.0}},{"geometry": {"type": "Point", "coordinates": [-75.23026327725725, 39.96388481178736]}, "type": "Feature", "id": 159, "properties": {"CATEGORY": "Basic", "STORE_ADDR": "5501 Race Street", "OFFICIAL_S": "55th Street Food Market", "ZIP": "19139", "CDC_STORE_": 1.0}},{"geometry": {"type": "Point", "coordinates": [-75.23812164742439, 39.955498391698335]}, "type": "Feature", "id": 160, "properties": {"CATEGORY": "Enhanced", "STORE_ADDR": "5800 Delancey St", "OFFICIAL_S": "58th St. & Delancey Food Market", "ZIP": "19143", "CDC_STORE_": 3.0}},{"geometry": {"type": "Point", "coordinates": [-75.17943057588093, 39.993417084776915]}, "type": "Feature", "id": 161, "properties": {"CATEGORY": "Enhanced", "STORE_ADDR": "2462 N 29Th St", "OFFICIAL_S": "7 Days Food Market", "ZIP": "19132", "CDC_STORE_": 3.0}},{"geometry": {"type": "Point", "coordinates": [-75.23755438238116, 39.928246527036116]}, "type": "Feature", "id": 162, "properties": {"CATEGORY": "Basic", "STORE_ADDR": "1930 S 65Th St", "OFFICIAL_S": "8 Brothers Supermarket", "ZIP": "19142", "CDC_STORE_": 2.0}},{"geometry": {"type": "Point", "coordinates": [-75.16115949511472, 39.92205942444666]}, "type": "Feature", "id": 163, "properties": {"CATEGORY": "Enhanced", "STORE_ADDR": "853 Jackson St", "OFFICIAL_S": "9th & Jackson Grocery", "ZIP": "19148", "CDC_STORE_": 3.0}},{"geometry": {"type": "Point", "coordinates": [-75.22625534868767, 39.941303202591655]}, "type": "Feature", "id": 164, "properties": {"CATEGORY": "Basic", "STORE_ADDR": "5456 Warrington Ave", "OFFICIAL_S": "A & A Supermarket", "ZIP": "19143", "CDC_STORE_": 2.0}},{"geometry": {"type": "Point", "coordinates": [-75.1657092098601, 39.96572249162862]}, "type": "Feature", "id": 165, "properties": {"CATEGORY": "Enhanced", "STORE_ADDR": "1700 Wallace St", "OFFICIAL_S": "A A A Food Market, Inc", "ZIP": "19130", "CDC_STORE_": 3.0}},{"geometry": {"type": "Point", "coordinates": [-75.17373325425689, 40.02682838379537]}, "type": "Feature", "id": 166, "properties": {"CATEGORY": "Enhanced", "STORE_ADDR": "264 W Queen Ln", "OFFICIAL_S": "A and L Deli Market Inc.", "ZIP": "19144", "CDC_STORE_": 3.0}},{"geometry": {"type": "Point", "coordinates": [-75.251444875381, 39.97464185346034]}, "type": "Feature", "id": 167, "properties": {"CATEGORY": "Enhanced", "STORE_ADDR": "6572 Lansdowne Ave", "OFFICIAL_S": "A M Food Market", "ZIP": "19151", "CDC_STORE_": 3.0}},{"geometry": {"type": "Point", "coordinates": [-75.16869641792617, 39.91909369888862]}, "type": "Feature", "id": 168, "properties": {"CATEGORY": "Certification", "STORE_ADDR": "1300 W Porter St", "OFFICIAL_S": "A&E Grocery", "ZIP": "19148", "CDC_STORE_": 3.0}},{"geometry": {"type": "Point", "coordinates": [-75.12672577760097, 39.9861326518365]}, "type": "Feature", "id": 169, "properties": {"CATEGORY": "Basic", "STORE_ADDR": "2533 Emerald St", "OFFICIAL_S": "A&M Mini Market Almonte II", "ZIP": "19125", "CDC_STORE_": 1.0}},{"geometry": {"type": "Point", "coordinates": [-75.1492879525148, 40.06411924227341]}, "type": "Feature", "id": 170, "properties": {"CATEGORY": "Basic", "STORE_ADDR": "1949 72nd Ave", "OFFICIAL_S": "Abreu Food Market", "ZIP": "19138", "CDC_STORE_": 1.0}},{"geometry": {"type": "Point", "coordinates": [-75.0892796739503, 40.03262656337679]}, "type": "Feature", "id": 171, "properties": {"CATEGORY": "Basic", "STORE_ADDR": "948 E Sanger St", "OFFICIAL_S": "Abreu Mini Market", "ZIP": "19124", "CDC_STORE_": 1.0}},{"geometry": {"type": "Point", "coordinates": [-75.08123892054812, 40.0353954513371]}, "type": "Feature", "id": 172, "properties": {"CATEGORY": "Enhanced", "STORE_ADDR": "6059 Castor Ave", "OFFICIAL_S": "Abreu Super Deli", "ZIP": "19149", "CDC_STORE_": 3.0}},{"geometry": {"type": "Point", "coordinates": [-75.0625169106335, 40.05508645347708]}, "type": "Feature", "id": 173, "properties": {"CATEGORY": "Basic", "STORE_ADDR": "7534 Castor Ave", "OFFICIAL_S": "Acai Berry Caf\u00e9", "ZIP": "19152", "CDC_STORE_": 2.0}},{"geometry": {"type": "Point", "coordinates": [-75.2320154131236, 39.9553800827144]}, "type": "Feature", "id": 174, "properties": {"CATEGORY": "Basic", "STORE_ADDR": "5503 Spruce St", "OFFICIAL_S": "AD Eight Brothers", "ZIP": "19139", "CDC_STORE_": 2.0}},{"geometry": {"type": "Point", "coordinates": [-75.13700098593493, 39.99335687644144]}, "type": "Feature", "id": 175, "properties": {"CATEGORY": "Enhanced", "STORE_ADDR": "301 West Somerset St.", "OFFICIAL_S": "Coral 1, 2, 3 y Mas", "ZIP": "19133", "CDC_STORE_": 3.0}},{"geometry": {"type": "Point", "coordinates": [-75.15538575265542, 40.005129837698455]}, "type": "Feature", "id": 176, "properties": {"CATEGORY": "Certification", "STORE_ADDR": "3401 N 16th St", "OFFICIAL_S": "Corner Food Market", "ZIP": "19140", "CDC_STORE_": 3.0}},{"geometry": {"type": "Point", "coordinates": [-75.03188995815593, 40.03177809094856]}, "type": "Feature", "id": 177, "properties": {"CATEGORY": "Enhanced", "STORE_ADDR": "7417 Torresdale Ave", "OFFICIAL_S": "Cottman Grocery", "ZIP": "19136", "CDC_STORE_": 3.0}},{"geometry": {"type": "Point", "coordinates": [-75.22051428704503, 39.96710936921171]}, "type": "Feature", "id": 178, "properties": {"CATEGORY": "Basic", "STORE_ADDR": "850 N 50th St", "OFFICIAL_S": "CPC Grocery", "ZIP": "19139", "CDC_STORE_": 1.0}},{"geometry": {"type": "Point", "coordinates": [-75.1199720930088, 39.99281988553736]}, "type": "Feature", "id": 179, "properties": {"CATEGORY": "Enhanced", "STORE_ADDR": "2907 Kensington Ave", "OFFICIAL_S": "CR Grocery", "ZIP": "19134", "CDC_STORE_": 3.0}},{"geometry": {"type": "Point", "coordinates": [-75.23783779894192, 39.98791759636826]}, "type": "Feature", "id": 180, "properties": {"CATEGORY": "Basic", "STORE_ADDR": "5731 Malvern Ave", "OFFICIAL_S": "Crest Food Market", "ZIP": "19131", "CDC_STORE_": 2.0}},{"geometry": {"type": "Point", "coordinates": [-75.15734301059018, 39.92701064993167]}, "type": "Feature", "id": 181, "properties": {"CATEGORY": "Basic", "STORE_ADDR": "1724 South 7Th St 1st Fl", "OFFICIAL_S": "Cristo Rey Tienda Mexicana", "ZIP": "19148", "CDC_STORE_": 1.0}},{"geometry": {"type": "Point", "coordinates": [-75.18219056553907, 39.92886167340772]}, "type": "Feature", "id": 182, "properties": {"CATEGORY": "Basic", "STORE_ADDR": "1838 S 22nd St", "OFFICIAL_S": "Cruz & F Grocery", "ZIP": "19145", "CDC_STORE_": 1.0}},{"geometry": {"type": "Point", "coordinates": [-75.17883219639188, 39.927173648696524]}, "type": "Feature", "id": 183, "properties": {"CATEGORY": "Basic", "STORE_ADDR": "1941 S 20th St", "OFFICIAL_S": "Cruz Brother Mini Market", "ZIP": "19145", "CDC_STORE_": 1.0}},{"geometry": {"type": "Point", "coordinates": [-75.17551438585937, 39.92763119355654]}, "type": "Feature", "id": 184, "properties": {"CATEGORY": "Basic", "STORE_ADDR": "1901 S 18Th St", "OFFICIAL_S": "Cruz's Grocery", "ZIP": "19145", "CDC_STORE_": 2.0}},{"geometry": {"type": "Point", "coordinates": [-75.16009201022392, 39.99153475330393]}, "type": "Feature", "id": 185, "properties": {"CATEGORY": "Basic", "STORE_ADDR": "2500 N 17th St", "OFFICIAL_S": "Cumberland Food Market", "ZIP": "19132", "CDC_STORE_": 2.0}},{"geometry": {"type": "Point", "coordinates": [-75.12841998976282, 39.972686936293464]}, "type": "Feature", "id": 186, "properties": {"CATEGORY": "Certification", "STORE_ADDR": "543 E Thompson St", "OFFICIAL_S": "D & C Deli Grocery", "ZIP": "19125", "CDC_STORE_": 3.0}},{"geometry": {"type": "Point", "coordinates": [-75.12702162455886, 40.04382795316438]}, "type": "Feature", "id": 187, "properties": {"CATEGORY": "Enhanced", "STORE_ADDR": "400 W Spencer St", "OFFICIAL_S": "D & L Food Market", "ZIP": "19120", "CDC_STORE_": 3.0}},{"geometry": {"type": "Point", "coordinates": [-75.08163424648353, 40.01274630124027]}, "type": "Feature", "id": 188, "properties": {"CATEGORY": "Enhanced", "STORE_ADDR": "1801 Orthodox St", "OFFICIAL_S": "D & R Food Market", "ZIP": "19124", "CDC_STORE_": 3.0}},{"geometry": {"type": "Point", "coordinates": [-75.05083488475991, 40.027996594565394]}, "type": "Feature", "id": 189, "properties": {"CATEGORY": "Enhanced", "STORE_ADDR": "6663 Walker St.", "OFFICIAL_S": "D' Angela Mini Market", "ZIP": "19135", "CDC_STORE_": 3.0}},{"geometry": {"type": "Point", "coordinates": [-75.06404268413601, 40.015138641840174]}, "type": "Feature", "id": 190, "properties": {"CATEGORY": "Basic", "STORE_ADDR": "5537 Torresdale Ave", "OFFICIAL_S": "D&S Quick Stop", "ZIP": "19124", "CDC_STORE_": 1.0}},{"geometry": {"type": "Point", "coordinates": [-75.04706083736119, 40.02475388835138]}, "type": "Feature", "id": 191, "properties": {"CATEGORY": "Enhanced", "STORE_ADDR": "4620 Unruh Ave", "OFFICIAL_S": "Daily Bread", "ZIP": "19135", "CDC_STORE_": 3.0}},{"geometry": {"type": "Point", "coordinates": [-75.15774926224803, 39.93974008910913]}, "type": "Feature", "id": 192, "properties": {"CATEGORY": "Enhanced", "STORE_ADDR": "800 S 9th St", "OFFICIAL_S": "Dasani LLC", "ZIP": "19147", "CDC_STORE_": 3.0}},{"geometry": {"type": "Point", "coordinates": [-75.16390577416945, 39.988371386655814]}, "type": "Feature", "id": 193, "properties": {"CATEGORY": "Enhanced", "STORE_ADDR": "2267 North 19th St.", "OFFICIAL_S": "Dauphin Street Grocery & Deli", "ZIP": "19132", "CDC_STORE_": 3.0}},{"geometry": {"type": "Point", "coordinates": [-75.16706223438865, 39.9976734468547]}, "type": "Feature", "id": 194, "properties": {"CATEGORY": "Basic", "STORE_ADDR": "2831 N 22nd St", "OFFICIAL_S": "Dave's Meat Market", "ZIP": "19132", "CDC_STORE_": 2.0}},{"geometry": {"type": "Point", "coordinates": [-75.21400655214728, 39.9490054871841]}, "type": "Feature", "id": 195, "properties": {"CATEGORY": "Basic", "STORE_ADDR": "4523 Baltimore Ave", "OFFICIAL_S": "Davis Pharmacy", "ZIP": "19143", "CDC_STORE_": 2.0}},{"geometry": {"type": "Point", "coordinates": [-75.1737359112795, 39.9901946778308]}, "type": "Feature", "id": 196, "properties": {"CATEGORY": "Enhanced", "STORE_ADDR": "2300 N 25th St", "OFFICIAL_S": "De Los Santos Mini Mart", "ZIP": "19132", "CDC_STORE_": 3.0}},{"geometry": {"type": "Point", "coordinates": [-75.12804454022347, 39.99527012494121]}, "type": "Feature", "id": 197, "properties": {"CATEGORY": "Basic", "STORE_ADDR": "3000 A St", "OFFICIAL_S": "Decoo Grocery", "ZIP": "19134", "CDC_STORE_": 2.0}},{"geometry": {"type": "Point", "coordinates": [-75.10805533569474, 39.997312698187294]}, "type": "Feature", "id": 198, "properties": {"CATEGORY": "Basic", "STORE_ADDR": "3359 Jasper St.", "OFFICIAL_S": "Del Orbe Mini Market", "ZIP": "19134", "CDC_STORE_": 2.0}},{"geometry": {"type": "Point", "coordinates": [-75.22743976136923, 39.9541777915056]}, "type": "Feature", "id": 199, "properties": {"CATEGORY": "Enhanced", "STORE_ADDR": "5266 Delancey St", "OFFICIAL_S": "Delancey Food Market", "ZIP": "19143", "CDC_STORE_": 3.0}},{"geometry": {"type": "Point", "coordinates": [-75.16906316871275, 39.98096899926115]}, "type": "Feature", "id": 200, "properties": {"CATEGORY": "Basic", "STORE_ADDR": "1753 N 21St St", "OFFICIAL_S": "Delaware Valley Market", "ZIP": "19121", "CDC_STORE_": 1.0}},{"geometry": {"type": "Point", "coordinates": [-75.23056334082041, 39.92425260294864]}, "type": "Feature", "id": 201, "properties": {"CATEGORY": "Basic", "STORE_ADDR": "6401 Grays Ave", "OFFICIAL_S": "Denia A Sanchez Padilla Grocery", "ZIP": "19142", "CDC_STORE_": 1.0}},{"geometry": {"type": "Point", "coordinates": [-75.11376107734823, 39.98535658511973]}, "type": "Feature", "id": 202, "properties": {"CATEGORY": "Enhanced", "STORE_ADDR": "2333 East Cambria St", "OFFICIAL_S": "Dennis Grocery", "ZIP": "19134", "CDC_STORE_": 3.0}},{"geometry": {"type": "Point", "coordinates": [-75.16147683634584, 40.00438761873856]}, "type": "Feature", "id": 203, "properties": {"CATEGORY": "Enhanced", "STORE_ADDR": "1943 W Westmoreland St", "OFFICIAL_S": "Denny's Grocery", "ZIP": "19140", "CDC_STORE_": 3.0}},{"geometry": {"type": "Point", "coordinates": [-75.12785532568678, 40.029856179121715]}, "type": "Feature", "id": 204, "properties": {"CATEGORY": "Enhanced", "STORE_ADDR": "235 W Duncannon Ave", "OFFICIAL_S": "Deynaira Food Market", "ZIP": "19120", "CDC_STORE_": 3.0}},{"geometry": {"type": "Point", "coordinates": [-75.11840416054471, 40.030357788642654]}, "type": "Feature", "id": 205, "properties": {"CATEGORY": "Basic", "STORE_ADDR": "5302 Rising Sun Ave", "OFFICIAL_S": "Dheera Fuels Inc", "ZIP": "19120", "CDC_STORE_": 2.0}},{"geometry": {"type": "Point", "coordinates": [-75.12356306969122, 40.02142166916821]}, "type": "Feature", "id": 206, "properties": {"CATEGORY": "Enhanced", "STORE_ADDR": "140 E Wyoming Ave", "OFFICIAL_S": "Diaz Grocery", "ZIP": "19120", "CDC_STORE_": 3.0}},{"geometry": {"type": "Point", "coordinates": [-75.11544454445531, 39.990592565734424]}, "type": "Feature", "id": 207, "properties": {"CATEGORY": "Enhanced", "STORE_ADDR": "2975 Frankford Avenue", "OFFICIAL_S": "Dilena Food Market", "ZIP": "19134", "CDC_STORE_": 3.0}},{"geometry": {"type": "Point", "coordinates": [-75.2387632450624, 39.94880957614948]}, "type": "Feature", "id": 208, "properties": {"CATEGORY": "Enhanced", "STORE_ADDR": "5736 Christian St", "OFFICIAL_S": "Dios Prueba el Hombre #2", "ZIP": "19143", "CDC_STORE_": 3.0}},{"geometry": {"type": "Point", "coordinates": [-75.23969822732462, 39.94739808030057]}, "type": "Feature", "id": 209, "properties": {"CATEGORY": "Enhanced", "STORE_ADDR": "901 S 58th St", "OFFICIAL_S": "Dios Prueba el Hombre Grocery", "ZIP": "19143", "CDC_STORE_": 3.0}},{"geometry": {"type": "Point", "coordinates": [-75.23520925473, 39.925027454996226]}, "type": "Feature", "id": 210, "properties": {"CATEGORY": "Enhanced", "STORE_ADDR": "6531 Woodland Ave", "OFFICIAL_S": "Executive African Food & Fashion Center", "ZIP": "19142", "CDC_STORE_": 3.0}},{"geometry": {"type": "Point", "coordinates": [-75.10633868434914, 40.032012450777856]}, "type": "Feature", "id": 211, "properties": {"CATEGORY": "Basic", "STORE_ADDR": "5271 Howland St", "OFFICIAL_S": "F&R Food Market", "ZIP": "19124", "CDC_STORE_": 1.0}},{"geometry": {"type": "Point", "coordinates": [-75.24408583236757, 39.965598302013355]}, "type": "Feature", "id": 212, "properties": {"CATEGORY": "Basic", "STORE_ADDR": "6201 Race St", "OFFICIAL_S": "Fair's One Stop Deli & Market", "ZIP": "19139", "CDC_STORE_": 2.0}},{"geometry": {"type": "Point", "coordinates": [-75.1546475405418, 40.004959973915]}, "type": "Feature", "id": 213, "properties": {"CATEGORY": "Basic", "STORE_ADDR": "1520 W Ontario St", "OFFICIAL_S": "Family Discount, Inc", "ZIP": "19140", "CDC_STORE_": 2.0}},{"geometry": {"type": "Point", "coordinates": [-75.15264471750729, 39.987505298725566]}, "type": "Feature", "id": 214, "properties": {"CATEGORY": "Enhanced", "STORE_ADDR": "1213 W Dauphin St", "OFFICIAL_S": "Family M Mini Mart", "ZIP": "19133", "CDC_STORE_": 3.0}},{"geometry": {"type": "Point", "coordinates": [-75.21667877810933, 40.03481021275418]}, "type": "Feature", "id": 215, "properties": {"CATEGORY": "Basic", "STORE_ADDR": "6160 Ridge Ave.", "OFFICIAL_S": "Family Produce", "ZIP": "19128", "CDC_STORE_": 2.0}},{"geometry": {"type": "Point", "coordinates": [-75.14791582111629, 40.032456857228034]}, "type": "Feature", "id": 216, "properties": {"CATEGORY": "Basic", "STORE_ADDR": "5200 N 15th St", "OFFICIAL_S": "Family's Grocery", "ZIP": "19141", "CDC_STORE_": 1.0}},{"geometry": {"type": "Point", "coordinates": [-75.10950451443726, 39.98251672905143]}, "type": "Feature", "id": 217, "properties": {"CATEGORY": "Enhanced", "STORE_ADDR": "2600 E Ann Street", "OFFICIAL_S": "Fat Mom's", "ZIP": "19134", "CDC_STORE_": 3.0}},{"geometry": {"type": "Point", "coordinates": [-75.17590438545082, 39.93710774400135]}, "type": "Feature", "id": 218, "properties": {"CATEGORY": "Basic", "STORE_ADDR": "1946 Federal St", "OFFICIAL_S": "Federal Food Market", "ZIP": "19146", "CDC_STORE_": 2.0}},{"geometry": {"type": "Point", "coordinates": [-75.1412163399032, 39.9969637225562]}, "type": "Feature", "id": 219, "properties": {"CATEGORY": "Enhanced", "STORE_ADDR": "3000 N 6th St", "OFFICIAL_S": "Felix Grocery", "ZIP": "19133", "CDC_STORE_": 3.0}},{"geometry": {"type": "Point", "coordinates": [-75.24452360040969, 39.97549596239405]}, "type": "Feature", "id": 220, "properties": {"CATEGORY": "Basic", "STORE_ADDR": "6225 Lansdowne Ave", "OFFICIAL_S": "Felton Mini Market Inc.", "ZIP": "19151", "CDC_STORE_": 1.0}},{"geometry": {"type": "Point", "coordinates": [-75.13493750673511, 40.00249936005195]}, "type": "Feature", "id": 221, "properties": {"CATEGORY": "Basic", "STORE_ADDR": "3401 N 3Rd St", "OFFICIAL_S": "Fernandez Grocery", "ZIP": "19140", "CDC_STORE_": 2.0}},{"geometry": {"type": "Point", "coordinates": [-75.18058887817267, 39.92874943831976]}, "type": "Feature", "id": 222, "properties": {"CATEGORY": "Basic", "STORE_ADDR": "1826 S 21St St", "OFFICIAL_S": "Fernandez Mini Market", "ZIP": "19145", "CDC_STORE_": 2.0}},{"geometry": {"type": "Point", "coordinates": [-75.11767055164857, 39.99761160505102]}, "type": "Feature", "id": 223, "properties": {"CATEGORY": "Enhanced", "STORE_ADDR": "658 E Hilton St", "OFFICIAL_S": "Ferrer Grocery", "ZIP": "19134", "CDC_STORE_": 3.0}},{"geometry": {"type": "Point", "coordinates": [-75.13353939099632, 39.9838596926838]}, "type": "Feature", "id": 224, "properties": {"CATEGORY": "Basic", "STORE_ADDR": "2218 N Howard St", "OFFICIAL_S": "Filpo Grocery", "ZIP": "19133", "CDC_STORE_": 2.0}},{"geometry": {"type": "Point", "coordinates": [-75.13869299121991, 39.99656091521613]}, "type": "Feature", "id": 225, "properties": {"CATEGORY": "Enhanced", "STORE_ADDR": "440 W Indiana Ave", "OFFICIAL_S": "Filpo Grocery", "ZIP": "19133", "CDC_STORE_": 3.0}},{"geometry": {"type": "Point", "coordinates": [-75.14262034533748, 39.99835977780876]}, "type": "Feature", "id": 226, "properties": {"CATEGORY": "Enhanced", "STORE_ADDR": "3064 N 7th St", "OFFICIAL_S": "Fior Mini Market", "ZIP": "19133", "CDC_STORE_": 3.0}},{"geometry": {"type": "Point", "coordinates": [-75.14235026835787, 39.973791213252646]}, "type": "Feature", "id": 227, "properties": {"CATEGORY": "Certification", "STORE_ADDR": "1500 N 4Th St", "OFFICIAL_S": "Four Jefferson Mini Market", "ZIP": "19122", "CDC_STORE_": 3.0}},{"geometry": {"type": "Point", "coordinates": [-75.13065085079027, 40.03557718811549]}, "type": "Feature", "id": 228, "properties": {"CATEGORY": "Basic", "STORE_ADDR": "5549 N 5th St", "OFFICIAL_S": "Fouta Food Market", "ZIP": "19120", "CDC_STORE_": 1.0}},{"geometry": {"type": "Point", "coordinates": [-75.09996542986592, 39.99897758843947]}, "type": "Feature", "id": 229, "properties": {"CATEGORY": "Enhanced", "STORE_ADDR": "3643 Frankford Ave", "OFFICIAL_S": "Franchiany Food Market", "ZIP": "19134", "CDC_STORE_": 3.0}},{"geometry": {"type": "Point", "coordinates": [-75.12363939957663, 40.04496886512535]}, "type": "Feature", "id": 230, "properties": {"CATEGORY": "Basic", "STORE_ADDR": "200 W Godfrey Ave", "OFFICIAL_S": "Franciela Grocery", "ZIP": "19120", "CDC_STORE_": 2.0}},{"geometry": {"type": "Point", "coordinates": [-75.121230174728, 39.99223618196624]}, "type": "Feature", "id": 231, "properties": {"CATEGORY": "Basic", "STORE_ADDR": "2850 Kensington Ave", "OFFICIAL_S": "Frank Market Inc", "ZIP": "19134", "CDC_STORE_": 2.0}},{"geometry": {"type": "Point", "coordinates": [-75.10332189346161, 39.99678177826878]}, "type": "Feature", "id": 232, "properties": {"CATEGORY": "Enhanced", "STORE_ADDR": "3501 Frankford Ave", "OFFICIAL_S": "Frankford Deli Grocery", "ZIP": "19134", "CDC_STORE_": 3.0}},{"geometry": {"type": "Point", "coordinates": [-75.14050281689867, 40.01108182194328]}, "type": "Feature", "id": 233, "properties": {"CATEGORY": "Basic", "STORE_ADDR": "3900 North Franklin Street", "OFFICIAL_S": "Franklin Mini Mkt", "ZIP": "19140", "CDC_STORE_": 1.0}},{"geometry": {"type": "Point", "coordinates": [-75.14719962995353, 39.98292065934563]}, "type": "Feature", "id": 234, "properties": {"CATEGORY": "Basic", "STORE_ADDR": "2063 N 8th St", "OFFICIAL_S": "Friend Mini Market", "ZIP": "19122", "CDC_STORE_": 1.0}},{"geometry": {"type": "Point", "coordinates": [-75.11766942308687, 39.99907695414914]}, "type": "Feature", "id": 235, "properties": {"CATEGORY": "Certification", "STORE_ADDR": "664 E Cornwall St", "OFFICIAL_S": "Friendly Corner", "ZIP": "19134", "CDC_STORE_": 2.0}},{"geometry": {"type": "Point", "coordinates": [-75.15832500745691, 39.92203631459068]}, "type": "Feature", "id": 236, "properties": {"CATEGORY": "Basic", "STORE_ADDR": "2135 S 7Th St", "OFFICIAL_S": "Friendly Market", "ZIP": "19148", "CDC_STORE_": 1.0}},{"geometry": {"type": "Point", "coordinates": [-75.12941080409274, 39.99760099709152]}, "type": "Feature", "id": 237, "properties": {"CATEGORY": "Enhanced", "STORE_ADDR": "3123 N Front St", "OFFICIAL_S": "Front Street Grocery Store Inc", "ZIP": "19133", "CDC_STORE_": 3.0}},{"geometry": {"type": "Point", "coordinates": [-75.16091718863358, 39.92484168486503]}, "type": "Feature", "id": 238, "properties": {"CATEGORY": "Certification", "STORE_ADDR": "1945 S 9th St", "OFFICIAL_S": "Fruit & Veggies to You", "ZIP": "19148", "CDC_STORE_": 3.0}},{"geometry": {"type": "Point", "coordinates": [-75.0374960360081, 40.081432401681546]}, "type": "Feature", "id": 239, "properties": {"CATEGORY": "Enhanced", "STORE_ADDR": "1916 Welsh Rd Ste 11", "OFFICIAL_S": "Fruit And Produce Inc.", "ZIP": "19115", "CDC_STORE_": 3.0}},{"geometry": {"type": "Point", "coordinates": [-75.15412686425691, 39.92646212155141]}, "type": "Feature", "id": 240, "properties": {"CATEGORY": "Basic", "STORE_ADDR": "1741 S 5Th St", "OFFICIAL_S": "Fuji Food Market", "ZIP": "19148", "CDC_STORE_": 2.0}},{"geometry": {"type": "Point", "coordinates": [-75.18278576811998, 39.933966766863314]}, "type": "Feature", "id": 241, "properties": {"CATEGORY": "Basic", "STORE_ADDR": "1438 S 23rd St", "OFFICIAL_S": "G & N Grocery Deli", "ZIP": "19146", "CDC_STORE_": 1.0}},{"geometry": {"type": "Point", "coordinates": [-75.11472930491861, 39.999856693821094]}, "type": "Feature", "id": 242, "properties": {"CATEGORY": "Enhanced", "STORE_ADDR": "3401 G St", "OFFICIAL_S": "G and Ontario Grocery", "ZIP": "19134", "CDC_STORE_": 3.0}},{"geometry": {"type": "Point", "coordinates": [-75.16738394900028, 39.99671286471743]}, "type": "Feature", "id": 243, "properties": {"CATEGORY": "Enhanced", "STORE_ADDR": "2768 N 22nd St", "OFFICIAL_S": "G&F Grocery", "ZIP": "19132", "CDC_STORE_": 3.0}},{"geometry": {"type": "Point", "coordinates": [-75.2374433340973, 39.96789072701764]}, "type": "Feature", "id": 244, "properties": {"CATEGORY": "Basic", "STORE_ADDR": "401 N 59th St", "OFFICIAL_S": "Garcia Food Market", "ZIP": "19151", "CDC_STORE_": 2.0}},{"geometry": {"type": "Point", "coordinates": [-75.12720160968429, 40.001493607933476]}, "type": "Feature", "id": 245, "properties": {"CATEGORY": "Basic", "STORE_ADDR": "177 E Ontario St", "OFFICIAL_S": "Garcia Grocery", "ZIP": "19134", "CDC_STORE_": 1.0}},{"geometry": {"type": "Point", "coordinates": [-75.14093088917089, 40.00951943545035]}, "type": "Feature", "id": 246, "properties": {"CATEGORY": "Basic", "STORE_ADDR": "734 W Butler St", "OFFICIAL_S": "Garcia Grocery", "ZIP": "19140", "CDC_STORE_": 1.0}},{"geometry": {"type": "Point", "coordinates": [-75.12411112610302, 40.001098464837256]}, "type": "Feature", "id": 247, "properties": {"CATEGORY": "Enhanced", "STORE_ADDR": "315 E Ontario St", "OFFICIAL_S": "Garcia Grocery", "ZIP": "19134", "CDC_STORE_": 3.0}},{"geometry": {"type": "Point", "coordinates": [-75.17460852514556, 39.967295255147384]}, "type": "Feature", "id": 248, "properties": {"CATEGORY": "Basic", "STORE_ADDR": "2244 Fairmount Ave", "OFFICIAL_S": "Garden Fresh", "ZIP": "19130", "CDC_STORE_": 2.0}},{"geometry": {"type": "Point", "coordinates": [-75.0411586958372, 40.03083423764003]}, "type": "Feature", "id": 249, "properties": {"CATEGORY": "Enhanced", "STORE_ADDR": "4419 Princeton Ave", "OFFICIAL_S": "George's Deli", "ZIP": "19135", "CDC_STORE_": 3.0}},{"geometry": {"type": "Point", "coordinates": [-75.17382237776232, 40.03678344619061]}, "type": "Feature", "id": 250, "properties": {"CATEGORY": "Basic", "STORE_ADDR": "35 E Chelten Avestore A", "OFFICIAL_S": "Germantown Eden Produce", "ZIP": "19144", "CDC_STORE_": 2.0}},{"geometry": {"type": "Point", "coordinates": [-75.17382237776232, 40.03678344619061]}, "type": "Feature", "id": 251, "properties": {"CATEGORY": "Basic", "STORE_ADDR": "35 E Chelten Ave", "OFFICIAL_S": "Giant Dollar Plus, Inc.", "ZIP": "19144", "CDC_STORE_": 2.0}},{"geometry": {"type": "Point", "coordinates": [-75.1760286447428, 39.93318551136529]}, "type": "Feature", "id": 252, "properties": {"CATEGORY": "Basic", "STORE_ADDR": "1426 S 19th St", "OFFICIAL_S": "Gil Grocery #2", "ZIP": "19146", "CDC_STORE_": 1.0}},{"geometry": {"type": "Point", "coordinates": [-75.13942398799897, 40.012500042238806]}, "type": "Feature", "id": 253, "properties": {"CATEGORY": "Enhanced", "STORE_ADDR": "4001 N 7Th St", "OFFICIAL_S": "Gil's Deli", "ZIP": "19140", "CDC_STORE_": 3.0}},{"geometry": {"type": "Point", "coordinates": [-75.0851778071587, 40.0601034002441]}, "type": "Feature", "id": 254, "properties": {"CATEGORY": "Enhanced", "STORE_ADDR": "7223 Rising Sun Ave", "OFFICIAL_S": "Glorious International Store", "ZIP": "19111", "CDC_STORE_": 3.0}},{"geometry": {"type": "Point", "coordinates": [-75.1543447982186, 39.962246102643704]}, "type": "Feature", "id": 255, "properties": {"CATEGORY": "Enhanced", "STORE_ADDR": "551 N 10th St", "OFFICIAL_S": "Golden Bridge Grocery", "ZIP": "19123", "CDC_STORE_": 3.0}},{"geometry": {"type": "Point", "coordinates": [-75.13754933529549, 40.01377416962291]}, "type": "Feature", "id": 256, "properties": {"CATEGORY": "Basic", "STORE_ADDR": "4100 N 6Th St", "OFFICIAL_S": "Gomez Grocery", "ZIP": "19140", "CDC_STORE_": 1.0}},{"geometry": {"type": "Point", "coordinates": [-75.24486554554413, 39.961997856436035]}, "type": "Feature", "id": 257, "properties": {"CATEGORY": "Enhanced", "STORE_ADDR": "18 S 62nd St", "OFFICIAL_S": "West Philadelphia Produce", "ZIP": "19139", "CDC_STORE_": 3.0}},{"geometry": {"type": "Point", "coordinates": [-75.1504972127285, 39.93194914930239]}, "type": "Feature", "id": 258, "properties": {"CATEGORY": "Basic", "STORE_ADDR": "349 Wharton St", "OFFICIAL_S": "Wharton Deli & Grocery", "ZIP": "19147", "CDC_STORE_": 2.0}},{"geometry": {"type": "Point", "coordinates": [-75.1599247816913, 39.91468702965084]}, "type": "Feature", "id": 259, "properties": {"CATEGORY": "Enhanced", "STORE_ADDR": "2747 S 7th St", "OFFICIAL_S": "Wholly Smokes Cigarette Outlet II", "ZIP": "19148", "CDC_STORE_": 3.0}},{"geometry": {"type": "Point", "coordinates": [-75.16033257256167, 39.920620652721176]}, "type": "Feature", "id": 260, "properties": {"CATEGORY": "Basic", "STORE_ADDR": "2300 S 8Th St", "OFFICIAL_S": "Wolf Mini Market Inc", "ZIP": "19148", "CDC_STORE_": 2.0}},{"geometry": {"type": "Point", "coordinates": [-75.16651357415131, 39.92140810618948]}, "type": "Feature", "id": 261, "properties": {"CATEGORY": "Enhanced", "STORE_ADDR": "2301 S 12th St", "OFFICIAL_S": "Wolf Variety Store", "ZIP": "19148", "CDC_STORE_": 3.0}},{"geometry": {"type": "Point", "coordinates": [-75.16369456260807, 40.04483598235201]}, "type": "Feature", "id": 262, "properties": {"CATEGORY": "Enhanced", "STORE_ADDR": "5637 Chew Ave", "OFFICIAL_S": "Woodlawn Deli", "ZIP": "19138", "CDC_STORE_": 3.0}},{"geometry": {"type": "Point", "coordinates": [-75.16861797078117, 39.9958148609567]}, "type": "Feature", "id": 263, "properties": {"CATEGORY": "Enhanced", "STORE_ADDR": "2227 W Lehigh Ave", "OFFICIAL_S": "Yadira Grocery", "ZIP": "19132", "CDC_STORE_": 3.0}},{"geometry": {"type": "Point", "coordinates": [-75.09054500980727, 40.01423138884126]}, "type": "Feature", "id": 264, "properties": {"CATEGORY": "Basic", "STORE_ADDR": "1362 Unity St", "OFFICIAL_S": "Yandel Food Market", "ZIP": "19124", "CDC_STORE_": 1.0}},{"geometry": {"type": "Point", "coordinates": [-75.17866850337694, 39.98260445380218]}, "type": "Feature", "id": 265, "properties": {"CATEGORY": "Basic", "STORE_ADDR": "1754 N 27th St", "OFFICIAL_S": "Yaritza Grocery", "ZIP": "19121", "CDC_STORE_": 2.0}},{"geometry": {"type": "Point", "coordinates": [-75.17268555511754, 39.97765810360849]}, "type": "Feature", "id": 266, "properties": {"CATEGORY": "Basic", "STORE_ADDR": "2236 W Jefferson St", "OFFICIAL_S": "Yasmin Food Market", "ZIP": "19121", "CDC_STORE_": 1.0}},{"geometry": {"type": "Point", "coordinates": [-75.1647993287713, 39.97042707617522]}, "type": "Feature", "id": 267, "properties": {"CATEGORY": "Basic", "STORE_ADDR": "1700 Ridge Ave", "OFFICIAL_S": "Yellow Front Market", "ZIP": "19130", "CDC_STORE_": 2.0}},{"geometry": {"type": "Point", "coordinates": [-75.17565820431727, 39.996365143921324]}, "type": "Feature", "id": 268, "properties": {"CATEGORY": "Basic", "STORE_ADDR": "2668 N 27th St", "OFFICIAL_S": "Yoscar Mini Market", "ZIP": "19132", "CDC_STORE_": 2.0}},{"geometry": {"type": "Point", "coordinates": [-75.1437842217934, 39.99568114539939]}, "type": "Feature", "id": 269, "properties": {"CATEGORY": "Basic", "STORE_ADDR": "716 W Cambria St", "OFFICIAL_S": "Yudish Grocery", "ZIP": "19133", "CDC_STORE_": 2.0}},{"geometry": {"type": "Point", "coordinates": [-75.02971440828931, 40.03289993603244]}, "type": "Feature", "id": 270, "properties": {"CATEGORY": "Enhanced", "STORE_ADDR": "7601 Torresdale Ave", "OFFICIAL_S": "Z & Y Food Market", "ZIP": "19136", "CDC_STORE_": 3.0}},{"geometry": {"type": "Point", "coordinates": [-75.23142153708393, 39.98474991953781]}, "type": "Feature", "id": 271, "properties": {"CATEGORY": "Basic", "STORE_ADDR": "1823 N 54th St", "OFFICIAL_S": "Zabala Super Market", "ZIP": "19131", "CDC_STORE_": 2.0}},{"geometry": {"type": "Point", "coordinates": [-75.2425629047121, 39.913654325428844]}, "type": "Feature", "id": 272, "properties": {"CATEGORY": "Enhanced", "STORE_ADDR": "7333 Elmwood Ave", "OFFICIAL_S": "Zam Zam Market", "ZIP": "19142", "CDC_STORE_": 3.0}},{"geometry": {"type": "Point", "coordinates": [-75.14655468903254, 39.97582067426661]}, "type": "Feature", "id": 273, "properties": {"CATEGORY": "Enhanced", "STORE_ADDR": "643 W Oxford Avenue", "OFFICIAL_S": "Zenarda Grocery", "ZIP": "19122", "CDC_STORE_": 3.0}},{"geometry": {"type": "Point", "coordinates": [-75.11931418861697, 39.99721942735521]}, "type": "Feature", "id": 274, "properties": {"CATEGORY": "Basic", "STORE_ADDR": "600 E Allegheny Ave", "OFFICIAL_S": "Jerrys General", "ZIP": "19134", "CDC_STORE_": 1.0}},{"geometry": {"type": "Point", "coordinates": [-75.11755014647281, 39.996547463191824]}, "type": "Feature", "id": 275, "properties": {"CATEGORY": "Enhanced", "STORE_ADDR": "3130 F St", "OFFICIAL_S": "Jhoanny Grocery", "ZIP": "19134", "CDC_STORE_": 3.0}},{"geometry": {"type": "Point", "coordinates": [-75.1471445582326, 40.04337962367696]}, "type": "Feature", "id": 276, "properties": {"CATEGORY": "Basic", "STORE_ADDR": "1601 Nedro Ave", "OFFICIAL_S": "Johanny Grocery Store", "ZIP": "19141", "CDC_STORE_": 2.0}},{"geometry": {"type": "Point", "coordinates": [-75.22468498002648, 39.9657537350237]}, "type": "Feature", "id": 277, "properties": {"CATEGORY": "Basic", "STORE_ADDR": "315 N 52nd Street", "OFFICIAL_S": "Jonalis Grocery", "ZIP": "19139", "CDC_STORE_": 2.0}},{"geometry": {"type": "Point", "coordinates": [-75.15258305520865, 39.9174162263309]}, "type": "Feature", "id": 278, "properties": {"CATEGORY": "Basic", "STORE_ADDR": "2438 S 3Rd St", "OFFICIAL_S": "Jose Vargas Deli", "ZIP": "19148", "CDC_STORE_": 2.0}},{"geometry": {"type": "Point", "coordinates": [-75.16134125555591, 39.993216993438594]}, "type": "Feature", "id": 279, "properties": {"CATEGORY": "Enhanced", "STORE_ADDR": "2600 N 18th St", "OFFICIAL_S": "Joselin Groceries", "ZIP": "19132", "CDC_STORE_": 3.0}},{"geometry": {"type": "Point", "coordinates": [-75.12913394139193, 40.00166242139638]}, "type": "Feature", "id": 280, "properties": {"CATEGORY": "Enhanced", "STORE_ADDR": "106 W Ontario St", "OFFICIAL_S": "Joselin Grocery", "ZIP": "19140", "CDC_STORE_": 3.0}},{"geometry": {"type": "Point", "coordinates": [-75.23624940153492, 39.924289347304516]}, "type": "Feature", "id": 281, "properties": {"CATEGORY": "Enhanced", "STORE_ADDR": "6629 Woodland Ave", "OFFICIAL_S": "Liberty African Grocery", "ZIP": "19142", "CDC_STORE_": 3.0}},{"geometry": {"type": "Point", "coordinates": [-75.14338226486501, 39.96534123734503]}, "type": "Feature", "id": 282, "properties": {"CATEGORY": "Basic", "STORE_ADDR": "326 Poplar St", "OFFICIAL_S": "Liberty Deli", "ZIP": "19123", "CDC_STORE_": 2.0}},{"geometry": {"type": "Point", "coordinates": [-75.24280817841478, 39.926371142367174]}, "type": "Feature", "id": 283, "properties": {"CATEGORY": "Enhanced", "STORE_ADDR": "1838 S 68th St", "OFFICIAL_S": "Liberty Mini Market", "ZIP": "19142", "CDC_STORE_": 3.0}},{"geometry": {"type": "Point", "coordinates": [-75.09920746002358, 40.01198602917365]}, "type": "Feature", "id": 284, "properties": {"CATEGORY": "Basic", "STORE_ADDR": "1412 E Bristol St", "OFFICIAL_S": "Linda Deli", "ZIP": "19124", "CDC_STORE_": 2.0}},{"geometry": {"type": "Point", "coordinates": [-75.16235174723245, 39.91498890928309]}, "type": "Feature", "id": 285, "properties": {"CATEGORY": "Enhanced", "STORE_ADDR": "2746 S Darien St", "OFFICIAL_S": "Lin's Grocery Store", "ZIP": "19148", "CDC_STORE_": 3.0}},{"geometry": {"type": "Point", "coordinates": [-75.0802683375588, 40.044918053946176]}, "type": "Feature", "id": 286, "properties": {"CATEGORY": "Enhanced", "STORE_ADDR": "1201 Magee Ave", "OFFICIAL_S": "Li'S Market", "ZIP": "19111", "CDC_STORE_": 3.0}},{"geometry": {"type": "Point", "coordinates": [-75.13882452175912, 39.98726036864272]}, "type": "Feature", "id": 287, "properties": {"CATEGORY": "Enhanced", "STORE_ADDR": "313 W York St", "OFFICIAL_S": "Lisseth Grocery", "ZIP": "19133", "CDC_STORE_": 3.0}},{"geometry": {"type": "Point", "coordinates": [-75.15804694333524, 39.916447174328255]}, "type": "Feature", "id": 288, "properties": {"CATEGORY": "Basic", "STORE_ADDR": "2600 S 6Th St", "OFFICIAL_S": "Little Petes Deli", "ZIP": "19148", "CDC_STORE_": 2.0}},{"geometry": {"type": "Point", "coordinates": [-75.14494697050678, 39.99837240652568]}, "type": "Feature", "id": 289, "properties": {"CATEGORY": "Enhanced", "STORE_ADDR": "3062 N 9th St", "OFFICIAL_S": "Lopez Grocery", "ZIP": "19133", "CDC_STORE_": 3.0}},{"geometry": {"type": "Point", "coordinates": [-75.10408909079113, 39.99937831915368]}, "type": "Feature", "id": 290, "properties": {"CATEGORY": "Enhanced", "STORE_ADDR": "3539 Jasper St", "OFFICIAL_S": "Lopez Grocery", "ZIP": "19134", "CDC_STORE_": 3.0}},{"geometry": {"type": "Point", "coordinates": [-75.16489733308589, 39.987376328330164]}, "type": "Feature", "id": 291, "properties": {"CATEGORY": "Enhanced", "STORE_ADDR": "1920 W Susquehanna Ave", "OFFICIAL_S": "Lora Mini Market", "ZIP": "19121", "CDC_STORE_": 3.0}},{"geometry": {"type": "Point", "coordinates": [-75.12938213724603, 39.983343894476405]}, "type": "Feature", "id": 292, "properties": {"CATEGORY": "Basic", "STORE_ADDR": "2036 E York St", "OFFICIAL_S": "Los Amigos Grocery", "ZIP": "19125", "CDC_STORE_": 1.0}},{"geometry": {"type": "Point", "coordinates": [-75.09118508084116, 40.022661791459846]}, "type": "Feature", "id": 293, "properties": {"CATEGORY": "Enhanced", "STORE_ADDR": "1034 Foulkrod St", "OFFICIAL_S": "Los Amigos Market", "ZIP": "19124", "CDC_STORE_": 3.0}},{"geometry": {"type": "Point", "coordinates": [-75.15474895660357, 39.92413723626861]}, "type": "Feature", "id": 294, "properties": {"CATEGORY": "Basic", "STORE_ADDR": "1924 S 5Th St", "OFFICIAL_S": "Los Coyotes", "ZIP": "19148", "CDC_STORE_": 2.0}},{"geometry": {"type": "Point", "coordinates": [-75.1630015147842, 39.92101174167236]}, "type": "Feature", "id": 295, "properties": {"CATEGORY": "Basic", "STORE_ADDR": "951 Wolf St", "OFFICIAL_S": "Los Gallos", "ZIP": "19148", "CDC_STORE_": 2.0}},{"geometry": {"type": "Point", "coordinates": [-75.07538002176014, 40.017696582921815]}, "type": "Feature", "id": 296, "properties": {"CATEGORY": "Basic", "STORE_ADDR": "1829 Wakeling St", "OFFICIAL_S": "Los Manueles Grocery", "ZIP": "19124", "CDC_STORE_": 1.0}},{"geometry": {"type": "Point", "coordinates": [-75.11305064508379, 40.00020698220719]}, "type": "Feature", "id": 297, "properties": {"CATEGORY": "Enhanced", "STORE_ADDR": "875 E Russell St", "OFFICIAL_S": "Lucas Grocery", "ZIP": "19134", "CDC_STORE_": 3.0}},{"geometry": {"type": "Point", "coordinates": [-75.1059983402467, 40.00808517618063]}, "type": "Feature", "id": 298, "properties": {"CATEGORY": "Enhanced", "STORE_ADDR": "1126 E Luzerne St", "OFFICIAL_S": "Luzerne Food Market", "ZIP": "19124", "CDC_STORE_": 3.0}},{"geometry": {"type": "Point", "coordinates": [-75.21794109912592, 40.03064883477471]}, "type": "Feature", "id": 299, "properties": {"CATEGORY": "Basic", "STORE_ADDR": "391 Lyceum", "OFFICIAL_S": "Lyceum Mart & Deli", "ZIP": "19128", "CDC_STORE_": 2.0}},{"geometry": {"type": "Point", "coordinates": [-75.2103974164117, 40.02468693474575]}, "type": "Feature", "id": 300, "properties": {"CATEGORY": "Enhanced", "STORE_ADDR": "458 Markle St", "OFFICIAL_S": "M & M Food Market", "ZIP": "19128", "CDC_STORE_": 3.0}},{"geometry": {"type": "Point", "coordinates": [-75.23543096878959, 39.94842023372902]}, "type": "Feature", "id": 301, "properties": {"CATEGORY": "Enhanced", "STORE_ADDR": "801 S 56th St", "OFFICIAL_S": "M & U Mini Market", "ZIP": "19143", "CDC_STORE_": 3.0}},{"geometry": {"type": "Point", "coordinates": [-75.14296119474247, 40.00986302360125]}, "type": "Feature", "id": 302, "properties": {"CATEGORY": "Basic", "STORE_ADDR": "911 W Butler St", "OFFICIAL_S": "M.P. Grocery", "ZIP": "19140", "CDC_STORE_": 2.0}},{"geometry": {"type": "Point", "coordinates": [-75.12084771076991, 39.99100259120536]}, "type": "Feature", "id": 303, "properties": {"CATEGORY": "Enhanced", "STORE_ADDR": "1854 Hart Ln", "OFFICIAL_S": "MAC Grocery", "ZIP": "19134", "CDC_STORE_": 3.0}},{"geometry": {"type": "Point", "coordinates": [-75.17252475109237, 40.04449983144891]}, "type": "Feature", "id": 304, "properties": {"CATEGORY": "Basic", "STORE_ADDR": "461 E High St", "OFFICIAL_S": "Magnolia Variety Store", "ZIP": "19144", "CDC_STORE_": 1.0}},{"geometry": {"type": "Point", "coordinates": [-75.11056837313193, 40.01931442836189]}, "type": "Feature", "id": 305, "properties": {"CATEGORY": "Enhanced", "STORE_ADDR": "4669 G St", "OFFICIAL_S": "Malyah Grocery", "ZIP": "19120", "CDC_STORE_": 3.0}},{"geometry": {"type": "Point", "coordinates": [-75.24991000737693, 39.98867137348509]}, "type": "Feature", "id": 306, "properties": {"CATEGORY": "Enhanced", "STORE_ADDR": "2117 N 63rd St", "OFFICIAL_S": "Mama Deli", "ZIP": "19151", "CDC_STORE_": 3.0}},{"geometry": {"type": "Point", "coordinates": [-75.08482880506799, 40.00944124417202]}, "type": "Feature", "id": 307, "properties": {"CATEGORY": "Basic", "STORE_ADDR": "1900 Church St", "OFFICIAL_S": "Manabao Food Market", "ZIP": "19124", "CDC_STORE_": 1.0}},{"geometry": {"type": "Point", "coordinates": [-75.11423711193574, 39.99119205989035]}, "type": "Feature", "id": 308, "properties": {"CATEGORY": "Enhanced", "STORE_ADDR": "3050 Frankford Ave", "OFFICIAL_S": "MAO Grocery", "ZIP": "19134", "CDC_STORE_": 3.0}},{"geometry": {"type": "Point", "coordinates": [-75.11646100404269, 40.01788083991739]}, "type": "Feature", "id": 309, "properties": {"CATEGORY": "Basic", "STORE_ADDR": "4566 D Street", "OFFICIAL_S": "Marcela Market", "ZIP": "19120", "CDC_STORE_": 1.0}},{"geometry": {"type": "Point", "coordinates": [-75.07624698374693, 40.00765600502486]}, "type": "Feature", "id": 310, "properties": {"CATEGORY": "Basic", "STORE_ADDR": "2300 Margaret Street", "OFFICIAL_S": "Margaret Mini Market", "ZIP": "19137", "CDC_STORE_": 1.0}},{"geometry": {"type": "Point", "coordinates": [-75.13959280769798, 39.994606684437684]}, "type": "Feature", "id": 311, "properties": {"CATEGORY": "Enhanced", "STORE_ADDR": "2863 N 5Th St", "OFFICIAL_S": "Maria's Grocery", "ZIP": "19133", "CDC_STORE_": 3.0}},{"geometry": {"type": "Point", "coordinates": [-75.15432395732515, 39.93281796068162]}, "type": "Feature", "id": 312, "properties": {"CATEGORY": "Enhanced", "STORE_ADDR": "1229 S 6th St", "OFFICIAL_S": "Marie's Grocery Store", "ZIP": "19147", "CDC_STORE_": 3.0}},{"geometry": {"type": "Point", "coordinates": [-75.21770745990969, 39.94851321993812]}, "type": "Feature", "id": 313, "properties": {"CATEGORY": "Basic", "STORE_ADDR": "4726 Baltimore Ave", "OFFICIAL_S": "Mariposa Inc", "ZIP": "19143", "CDC_STORE_": 2.0}},{"geometry": {"type": "Point", "coordinates": [-75.24201044208925, 39.96216645885411]}, "type": "Feature", "id": 314, "properties": {"CATEGORY": "Basic", "STORE_ADDR": "6033 Market St", "OFFICIAL_S": "Market Grocery", "ZIP": "19139", "CDC_STORE_": 2.0}},{"geometry": {"type": "Point", "coordinates": [-75.1264257680488, 40.001306647775905]}, "type": "Feature", "id": 315, "properties": {"CATEGORY": "Basic", "STORE_ADDR": "208 E Ontario St", "OFFICIAL_S": "Marlin's Deli", "ZIP": "19134", "CDC_STORE_": 1.0}},{"geometry": {"type": "Point", "coordinates": [-75.15300133333405, 39.995331363885626]}, "type": "Feature", "id": 316, "properties": {"CATEGORY": "Basic", "STORE_ADDR": "1328 West Somerset St", "OFFICIAL_S": "Martinez Food Market Inc", "ZIP": "19132", "CDC_STORE_": 2.0}},{"geometry": {"type": "Point", "coordinates": [-75.16729477672848, 39.98074979769469]}, "type": "Feature", "id": 317, "properties": {"CATEGORY": "Basic", "STORE_ADDR": "1752 N 20th St", "OFFICIAL_S": "Martinez Grocery", "ZIP": "19121", "CDC_STORE_": 2.0}},{"geometry": {"type": "Point", "coordinates": [-75.23498640065152, 39.974972586169685]}, "type": "Feature", "id": 318, "properties": {"CATEGORY": "Basic", "STORE_ADDR": "1501 N 57Th St", "OFFICIAL_S": "Martinez Grocery", "ZIP": "19131", "CDC_STORE_": 2.0}},{"geometry": {"type": "Point", "coordinates": [-75.1425714074567, 39.99561074799915]}, "type": "Feature", "id": 319, "properties": {"CATEGORY": "Enhanced", "STORE_ADDR": "647 West Cambria St", "OFFICIAL_S": "Martinez Grocery", "ZIP": "19133", "CDC_STORE_": 3.0}},{"geometry": {"type": "Point", "coordinates": [-75.18198699630715, 39.92718845011677]}, "type": "Feature", "id": 320, "properties": {"CATEGORY": "Enhanced", "STORE_ADDR": "2000 S Beechwood St", "OFFICIAL_S": "Martinez Grocery", "ZIP": "19145", "CDC_STORE_": 3.0}},{"geometry": {"type": "Point", "coordinates": [-75.23455533448761, 39.972081959708454]}, "type": "Feature", "id": 321, "properties": {"CATEGORY": "Basic", "STORE_ADDR": "1300 N 57Th St", "OFFICIAL_S": "Martinez Mini Market", "ZIP": "19131", "CDC_STORE_": 1.0}},{"geometry": {"type": "Point", "coordinates": [-75.12306090198437, 39.99615717471442]}, "type": "Feature", "id": 322, "properties": {"CATEGORY": "Basic", "STORE_ADDR": "417 East Clearfield St", "OFFICIAL_S": "Martinez Mini Market", "ZIP": "19134", "CDC_STORE_": 2.0}},{"geometry": {"type": "Point", "coordinates": [-75.1382617388465, 39.97231771367774]}, "type": "Feature", "id": 323, "properties": {"CATEGORY": "Enhanced", "STORE_ADDR": "178 W Master St", "OFFICIAL_S": "Master St. Mini Mart", "ZIP": "19122", "CDC_STORE_": 3.0}},{"geometry": {"type": "Point", "coordinates": [-75.2306524120391, 39.97382021507217]}, "type": "Feature", "id": 324, "properties": {"CATEGORY": "Basic", "STORE_ADDR": "5453 Master St", "OFFICIAL_S": "Maximino Food Market Inc", "ZIP": "19131", "CDC_STORE_": 2.0}},{"geometry": {"type": "Point", "coordinates": [-75.21846839829509, 39.93668148228113]}, "type": "Feature", "id": 325, "properties": {"CATEGORY": "Basic", "STORE_ADDR": "5358 Woodland Ave", "OFFICIAL_S": "MDA Gocery", "ZIP": "19143", "CDC_STORE_": 2.0}},{"geometry": {"type": "Point", "coordinates": [-75.15496065378498, 40.05053953831821]}, "type": "Feature", "id": 326, "properties": {"CATEGORY": "Enhanced", "STORE_ADDR": "2067 Medary Ave", "OFFICIAL_S": "Medary Deli Grocery", "ZIP": "19138", "CDC_STORE_": 3.0}},{"geometry": {"type": "Point", "coordinates": [-75.13838213114552, 40.05475362465577]}, "type": "Feature", "id": 327, "properties": {"CATEGORY": "Enhanced", "STORE_ADDR": "1260 Oak Lane", "OFFICIAL_S": "Mema's Treats", "ZIP": "19126", "CDC_STORE_": 3.0}},{"geometry": {"type": "Point", "coordinates": [-75.13701432805297, 39.981659048414954]}, "type": "Feature", "id": 328, "properties": {"CATEGORY": "Enhanced", "STORE_ADDR": "2066 N 2nd St", "OFFICIAL_S": "Mendoza Grocery", "ZIP": "19122", "CDC_STORE_": 3.0}},{"geometry": {"type": "Point", "coordinates": [-75.16950876668923, 39.98267811277775]}, "type": "Feature", "id": 329, "properties": {"CATEGORY": "Basic", "STORE_ADDR": "1859 N Van Pelt St", "OFFICIAL_S": "Mercado Food Market", "ZIP": "19121", "CDC_STORE_": 2.0}},{"geometry": {"type": "Point", "coordinates": [-75.22606239760752, 39.95459118920436]}, "type": "Feature", "id": 330, "properties": {"CATEGORY": "Basic", "STORE_ADDR": "300 S 52nd St", "OFFICIAL_S": "Mezquita Grocery", "ZIP": "19143", "CDC_STORE_": 1.0}},{"geometry": {"type": "Point", "coordinates": [-75.17354957259934, 39.92228567118647]}, "type": "Feature", "id": 331, "properties": {"CATEGORY": "Basic", "STORE_ADDR": "2300 S 16th St", "OFFICIAL_S": "Mi Pals Deli", "ZIP": "19145", "CDC_STORE_": 2.0}},{"geometry": {"type": "Point", "coordinates": [-75.12876574405196, 39.99192132105596]}, "type": "Feature", "id": 332, "properties": {"CATEGORY": "Enhanced", "STORE_ADDR": "2750 A St", "OFFICIAL_S": "Mi Tierra Food Market # 2", "ZIP": "19134", "CDC_STORE_": 3.0}},{"geometry": {"type": "Point", "coordinates": [-75.10317545792118, 40.03926498915347]}, "type": "Feature", "id": 333, "properties": {"CATEGORY": "Enhanced", "STORE_ADDR": "599 E Godfrey Ave", "OFFICIAL_S": "Michael Food Market", "ZIP": "19120", "CDC_STORE_": 3.0}},{"geometry": {"type": "Point", "coordinates": [-75.135070388142, 39.980433621494974]}, "type": "Feature", "id": 334, "properties": {"CATEGORY": "Enhanced", "STORE_ADDR": "147 W Norris St", "OFFICIAL_S": "Michelle Grocery", "ZIP": "19122", "CDC_STORE_": 3.0}},{"geometry": {"type": "Point", "coordinates": [-75.16592477222247, 39.93139238030509]}, "type": "Feature", "id": 335, "properties": {"CATEGORY": "Enhanced", "STORE_ADDR": "1501 S 13th St", "OFFICIAL_S": "Michelle's Market", "ZIP": "19147", "CDC_STORE_": 3.0}},{"geometry": {"type": "Point", "coordinates": [-75.23026473229018, 39.96905122180741]}, "type": "Feature", "id": 336, "properties": {"CATEGORY": "Enhanced", "STORE_ADDR": "601 N 55Th St", "OFFICIAL_S": "Mini Market Rodriguez", "ZIP": "19131", "CDC_STORE_": 3.0}},{"geometry": {"type": "Point", "coordinates": [-75.14696174089498, 39.989171139445155]}, "type": "Feature", "id": 337, "properties": {"CATEGORY": "Basic", "STORE_ADDR": "2445 Germantown Ave", "OFFICIAL_S": "Mini Mart", "ZIP": "19133", "CDC_STORE_": 1.0}},{"geometry": {"type": "Point", "coordinates": [-75.10453365292369, 39.98639539305212]}, "type": "Feature", "id": 338, "properties": {"CATEGORY": "Enhanced", "STORE_ADDR": "2530 E Allegheny Ave", "OFFICIAL_S": "Misnik's Deli", "ZIP": "19134", "CDC_STORE_": 3.0}},{"geometry": {"type": "Point", "coordinates": [-75.21252678455402, 39.95539560907802]}, "type": "Feature", "id": 339, "properties": {"CATEGORY": "Enhanced", "STORE_ADDR": "4525 Walnut St", "OFFICIAL_S": "Mohamed Halal's Center", "ZIP": "19139", "CDC_STORE_": 3.0}},{"geometry": {"type": "Point", "coordinates": [-75.17310340081586, 39.929156794946614]}, "type": "Feature", "id": 340, "properties": {"CATEGORY": "Basic", "STORE_ADDR": "1754 S Chadwick St", "OFFICIAL_S": "Mohamed Market", "ZIP": "19145", "CDC_STORE_": 2.0}},{"geometry": {"type": "Point", "coordinates": [-75.16457219276228, 39.92331602913411]}, "type": "Feature", "id": 341, "properties": {"CATEGORY": "Basic", "STORE_ADDR": "1101 Cantrell St", "OFFICIAL_S": "Mom's Variety", "ZIP": "19148", "CDC_STORE_": 1.0}},{"geometry": {"type": "Point", "coordinates": [-75.12214694787738, 40.022341447659144]}, "type": "Feature", "id": 342, "properties": {"CATEGORY": "Basic", "STORE_ADDR": "4745 A St", "OFFICIAL_S": "Mon & Keo Grocery", "ZIP": "19120", "CDC_STORE_": 2.0}},{"geometry": {"type": "Point", "coordinates": [-75.22847952078583, 39.958934279846204]}, "type": "Feature", "id": 343, "properties": {"CATEGORY": "Basic", "STORE_ADDR": "5351 Chestnut St", "OFFICIAL_S": "Montesinos Super Market Inc.", "ZIP": "19139", "CDC_STORE_": 2.0}},{"geometry": {"type": "Point", "coordinates": [-75.15644912977498, 40.02254767012922]}, "type": "Feature", "id": 344, "properties": {"CATEGORY": "Basic", "STORE_ADDR": "4501 N 19Th St", "OFFICIAL_S": "Mora Mini Market Inc", "ZIP": "19140", "CDC_STORE_": 1.0}},{"geometry": {"type": "Point", "coordinates": [-75.1349763032116, 39.97887133965939]}, "type": "Feature", "id": 345, "properties": {"CATEGORY": "Enhanced", "STORE_ADDR": "1901 Waterloo St", "OFFICIAL_S": "Morel Deli Market", "ZIP": "19122", "CDC_STORE_": 3.0}},{"geometry": {"type": "Point", "coordinates": [-75.1180380367415, 40.0208211107588]}, "type": "Feature", "id": 346, "properties": {"CATEGORY": "Basic", "STORE_ADDR": "405 E Wyoming", "OFFICIAL_S": "Morevalue Inc", "ZIP": "19120", "CDC_STORE_": 2.0}},{"geometry": {"type": "Point", "coordinates": [-75.23187160894722, 39.98606622500549]}, "type": "Feature", "id": 347, "properties": {"CATEGORY": "Enhanced", "STORE_ADDR": "1921 N 54Th St", "OFFICIAL_S": "Morgan's Fruits & Vegetables", "ZIP": "19131", "CDC_STORE_": 3.0}},{"geometry": {"type": "Point", "coordinates": [-75.17633100285403, 40.04546812806726]}, "type": "Feature", "id": 348, "properties": {"CATEGORY": "Basic", "STORE_ADDR": "6201 Morton St", "OFFICIAL_S": "Morton Food Market", "ZIP": "19144", "CDC_STORE_": 2.0}},{"geometry": {"type": "Point", "coordinates": [-75.13010726592184, 39.97707358337201]}, "type": "Feature", "id": 349, "properties": {"CATEGORY": "Basic", "STORE_ADDR": "1638 E Berks St", "OFFICIAL_S": "Mr. Bill's Deli", "ZIP": "19125", "CDC_STORE_": 1.0}},{"geometry": {"type": "Point", "coordinates": [-75.16788829275654, 39.963166604245465]}, "type": "Feature", "id": 350, "properties": {"CATEGORY": "Certification", "STORE_ADDR": "1800 Spring Garden St", "OFFICIAL_S": "Museum Market", "ZIP": "19130", "CDC_STORE_": 3.0}},{"geometry": {"type": "Point", "coordinates": [-75.17899390787939, 39.9948970431521]}, "type": "Feature", "id": 351, "properties": {"CATEGORY": "Basic", "STORE_ADDR": "2563 N 29Th St", "OFFICIAL_S": "Mv Grocery Inc", "ZIP": "19132", "CDC_STORE_": 2.0}},{"geometry": {"type": "Point", "coordinates": [-75.24476028298652, 39.983863351889575]}, "type": "Feature", "id": 352, "properties": {"CATEGORY": "Basic", "STORE_ADDR": "6154 Lancaster Ave", "OFFICIAL_S": "Joseph P Giordano Jr", "ZIP": "19151", "CDC_STORE_": 1.0}},{"geometry": {"type": "Point", "coordinates": [-75.1625902645507, 39.917650028789794]}, "type": "Feature", "id": 353, "properties": {"CATEGORY": "Enhanced", "STORE_ADDR": "2554 S 9Th St", "OFFICIAL_S": "Josie's Food Market", "ZIP": "19148", "CDC_STORE_": 3.0}},{"geometry": {"type": "Point", "coordinates": [-75.15969015609441, 40.05709567197272]}, "type": "Feature", "id": 354, "properties": {"CATEGORY": "Basic", "STORE_ADDR": "6672 Cornelius St", "OFFICIAL_S": "Josue Grocery", "ZIP": "19138", "CDC_STORE_": 2.0}},{"geometry": {"type": "Point", "coordinates": [-75.13902837900561, 39.988816801063216]}, "type": "Feature", "id": 355, "properties": {"CATEGORY": "Enhanced", "STORE_ADDR": "401 W Cumberland St", "OFFICIAL_S": "Josue Grocery", "ZIP": "19133", "CDC_STORE_": 3.0}},{"geometry": {"type": "Point", "coordinates": [-75.13145261876151, 40.031883467950685]}, "type": "Feature", "id": 356, "properties": {"CATEGORY": "Enhanced", "STORE_ADDR": "5301 N 5th St", "OFFICIAL_S": "Joy & Smile Deli", "ZIP": "19120", "CDC_STORE_": 3.0}},{"geometry": {"type": "Point", "coordinates": [-75.17698558182724, 39.92826672333414]}, "type": "Feature", "id": 357, "properties": {"CATEGORY": "Basic", "STORE_ADDR": "1825 S 19Th St", "OFFICIAL_S": "JR Food Market", "ZIP": "19145", "CDC_STORE_": 2.0}},{"geometry": {"type": "Point", "coordinates": [-75.1742340611628, 39.93406575938431]}, "type": "Feature", "id": 358, "properties": {"CATEGORY": "Basic", "STORE_ADDR": "1344 S. 18th Street", "OFFICIAL_S": "Juan Carlos Gomez Grocery", "ZIP": "19146", "CDC_STORE_": 2.0}},{"geometry": {"type": "Point", "coordinates": [-75.232765152696, 39.943815599174215]}, "type": "Feature", "id": 359, "properties": {"CATEGORY": "Basic", "STORE_ADDR": "1135 S 56Th St", "OFFICIAL_S": "JW Supermarket", "ZIP": "19143", "CDC_STORE_": 2.0}},{"geometry": {"type": "Point", "coordinates": [-75.03557774829294, 40.03589304639179]}, "type": "Feature", "id": 360, "properties": {"CATEGORY": "Basic", "STORE_ADDR": "4300 Loring St", "OFFICIAL_S": "Kaila's Place", "ZIP": "19136", "CDC_STORE_": 2.0}},{"geometry": {"type": "Point", "coordinates": [-75.12035231167901, 40.024248098138855]}, "type": "Feature", "id": 361, "properties": {"CATEGORY": "Enhanced", "STORE_ADDR": "253 E Rockland St", "OFFICIAL_S": "Kailyn Grocery", "ZIP": "19120", "CDC_STORE_": 3.0}},{"geometry": {"type": "Point", "coordinates": [-75.18448752971199, 39.977845603723075]}, "type": "Feature", "id": 362, "properties": {"CATEGORY": "Basic", "STORE_ADDR": "1400 N 30th St", "OFFICIAL_S": "Karen Mini Market", "ZIP": "19121", "CDC_STORE_": 2.0}},{"geometry": {"type": "Point", "coordinates": [-75.13654662755117, 40.01527666494867]}, "type": "Feature", "id": 363, "properties": {"CATEGORY": "Basic", "STORE_ADDR": "4200 N Fairhill St", "OFFICIAL_S": "Karina Grocery", "ZIP": "19140", "CDC_STORE_": 2.0}},{"geometry": {"type": "Point", "coordinates": [-75.1170113082558, 40.00120792036161]}, "type": "Feature", "id": 364, "properties": {"CATEGORY": "Basic", "STORE_ADDR": "3469 Keim St", "OFFICIAL_S": "Keim Food Market", "ZIP": "19134", "CDC_STORE_": 2.0}},{"geometry": {"type": "Point", "coordinates": [-75.17339042825962, 40.02618818630408]}, "type": "Feature", "id": 365, "properties": {"CATEGORY": "Basic", "STORE_ADDR": "5254 Pulaski Ave", "OFFICIAL_S": "Kil Lee Market", "ZIP": "19144", "CDC_STORE_": 2.0}},{"geometry": {"type": "Point", "coordinates": [-75.17855107728253, 39.94152676686924]}, "type": "Feature", "id": 366, "properties": {"CATEGORY": "Basic", "STORE_ADDR": "2148 Christian St", "OFFICIAL_S": "Kim Van's Caf\u00e9, Grocery & Deli", "ZIP": "19146", "CDC_STORE_": 2.0}},{"geometry": {"type": "Point", "coordinates": [-75.22338600587165, 39.93791131583168]}, "type": "Feature", "id": 367, "properties": {"CATEGORY": "Basic", "STORE_ADDR": "1550 S 55th St", "OFFICIAL_S": "Kingssesing Food Market", "ZIP": "19143", "CDC_STORE_": 2.0}},{"geometry": {"type": "Point", "coordinates": [-75.2429494614612, 39.96849098047987]}, "type": "Feature", "id": 368, "properties": {"CATEGORY": "Basic", "STORE_ADDR": "6152 Callowhill St", "OFFICIAL_S": "Koury Grocery", "ZIP": "19151", "CDC_STORE_": 2.0}},{"geometry": {"type": "Point", "coordinates": [-75.15873939600141, 39.98983085204874]}, "type": "Feature", "id": 369, "properties": {"CATEGORY": "Enhanced", "STORE_ADDR": "2401 N 16th St", "OFFICIAL_S": "L K Mini Market #1", "ZIP": "19132", "CDC_STORE_": 3.0}},{"geometry": {"type": "Point", "coordinates": [-75.15917703281885, 39.93271053533539]}, "type": "Feature", "id": 370, "properties": {"CATEGORY": "Basic", "STORE_ADDR": "1309 S 9th St", "OFFICIAL_S": "L M Grocery Store", "ZIP": "19147", "CDC_STORE_": 1.0}},{"geometry": {"type": "Point", "coordinates": [-75.11593581051024, 40.02322035959364]}, "type": "Feature", "id": 371, "properties": {"CATEGORY": "Enhanced", "STORE_ADDR": "4863 D St", "OFFICIAL_S": "L&M Food Market", "ZIP": "19120", "CDC_STORE_": 3.0}},{"geometry": {"type": "Point", "coordinates": [-75.11541222645859, 39.994809541964116]}, "type": "Feature", "id": 372, "properties": {"CATEGORY": "Enhanced", "STORE_ADDR": "1813 E Clearfield St", "OFFICIAL_S": "La Bodega", "ZIP": "19134", "CDC_STORE_": 3.0}},{"geometry": {"type": "Point", "coordinates": [-75.16616095552307, 39.93084547832636]}, "type": "Feature", "id": 373, "properties": {"CATEGORY": "Basic", "STORE_ADDR": "1548 S 13th Street", "OFFICIAL_S": "La Fortuna", "ZIP": "19147", "CDC_STORE_": 1.0}},{"geometry": {"type": "Point", "coordinates": [-75.17043509003838, 39.93447714531798]}, "type": "Feature", "id": 374, "properties": {"CATEGORY": "Enhanced", "STORE_ADDR": "1540 Wharton St", "OFFICIAL_S": "La Fuerza", "ZIP": "19146", "CDC_STORE_": 3.0}},{"geometry": {"type": "Point", "coordinates": [-75.17051125227286, 39.935791746575994]}, "type": "Feature", "id": 375, "properties": {"CATEGORY": "Basic", "STORE_ADDR": "1213 S 16th St", "OFFICIAL_S": "La Fuerza Grocery", "ZIP": "19146", "CDC_STORE_": 1.0}},{"geometry": {"type": "Point", "coordinates": [-75.16864751107339, 39.93433576513837]}, "type": "Feature", "id": 376, "properties": {"CATEGORY": "Basic", "STORE_ADDR": "1429 Wharton St", "OFFICIAL_S": "La Meca Food Market", "ZIP": "19146", "CDC_STORE_": 2.0}},{"geometry": {"type": "Point", "coordinates": [-75.1331634859886, 40.00217700630497]}, "type": "Feature", "id": 377, "properties": {"CATEGORY": "Basic", "STORE_ADDR": "212 W Ontario St", "OFFICIAL_S": "La Original Grocery", "ZIP": "19140", "CDC_STORE_": 1.0}},{"geometry": {"type": "Point", "coordinates": [-75.1453222221086, 39.97711966295605]}, "type": "Feature", "id": 378, "properties": {"CATEGORY": "Basic", "STORE_ADDR": "601 Cecil B Moore Ave", "OFFICIAL_S": "La Sienega Deli Grocery #1", "ZIP": "19122", "CDC_STORE_": 1.0}},{"geometry": {"type": "Point", "coordinates": [-75.20392725651833, 39.97233735661464]}, "type": "Feature", "id": 379, "properties": {"CATEGORY": "Basic", "STORE_ADDR": "1013 N 40th St", "OFFICIAL_S": "La Super Big Manny Grocery Store", "ZIP": "19104", "CDC_STORE_": 2.0}},{"geometry": {"type": "Point", "coordinates": [-75.14408669998215, 39.97012500140164]}, "type": "Feature", "id": 380, "properties": {"CATEGORY": "Basic", "STORE_ADDR": "423 W Girard Ave", "OFFICIAL_S": "Lawrence Bakery Inc.", "ZIP": "19123", "CDC_STORE_": 1.0}},{"geometry": {"type": "Point", "coordinates": [-75.12018831322749, 40.02266439207669]}, "type": "Feature", "id": 381, "properties": {"CATEGORY": "Basic", "STORE_ADDR": "4800 B St", "OFFICIAL_S": "LCM Grocery", "ZIP": "19120", "CDC_STORE_": 2.0}},{"geometry": {"type": "Point", "coordinates": [-75.10618375518929, 39.9962706172614]}, "type": "Feature", "id": 382, "properties": {"CATEGORY": "Enhanced", "STORE_ADDR": "2023 E Ontario St", "OFFICIAL_S": "Ledesma Grocery", "ZIP": "19134", "CDC_STORE_": 3.0}},{"geometry": {"type": "Point", "coordinates": [-75.14614353913605, 40.02946304109291]}, "type": "Feature", "id": 383, "properties": {"CATEGORY": "Enhanced", "STORE_ADDR": "5010 Old York Rd", "OFFICIAL_S": "Leema's Market", "ZIP": "19141", "CDC_STORE_": 3.0}},{"geometry": {"type": "Point", "coordinates": [-75.1318466429449, 39.98633199899214]}, "type": "Feature", "id": 384, "properties": {"CATEGORY": "Certification", "STORE_ADDR": "2401 N Front St", "OFFICIAL_S": "Lee's Food Cart, Inc.", "ZIP": "19133", "CDC_STORE_": 3.0}},{"geometry": {"type": "Point", "coordinates": [-75.18707999150297, 40.03708216385633]}, "type": "Feature", "id": 385, "properties": {"CATEGORY": "Basic", "STORE_ADDR": "280 W Washington Ln", "OFFICIAL_S": "Lee's Market", "ZIP": "19144", "CDC_STORE_": 1.0}},{"geometry": {"type": "Point", "coordinates": [-75.17806234187547, 39.99702413814138]}, "type": "Feature", "id": 386, "properties": {"CATEGORY": "Enhanced", "STORE_ADDR": "2837 West Lehigh Avenue", "OFFICIAL_S": "Lehigh Avenue Supermarket", "ZIP": "19132", "CDC_STORE_": 3.0}},{"geometry": {"type": "Point", "coordinates": [-75.1292916332442, 39.983391155400405]}, "type": "Feature", "id": 387, "properties": {"CATEGORY": "Basic", "STORE_ADDR": "2033 E York St", "OFFICIAL_S": "Leotah's Place", "ZIP": "19125", "CDC_STORE_": 2.0}},{"geometry": {"type": "Point", "coordinates": [-75.15201946672937, 40.00932538880017]}, "type": "Feature", "id": 388, "properties": {"CATEGORY": "Basic", "STORE_ADDR": "1414 W Erie Ave", "OFFICIAL_S": "Dollar Crazy", "ZIP": "19140", "CDC_STORE_": 1.0}},{"geometry": {"type": "Point", "coordinates": [-75.10558762189514, 39.98775180726611]}, "type": "Feature", "id": 389, "properties": {"CATEGORY": "Basic", "STORE_ADDR": "2413 E Allegheny Ave", "OFFICIAL_S": "Dollar Global", "ZIP": "19134", "CDC_STORE_": 2.0}},{"geometry": {"type": "Point", "coordinates": [-75.14841552530832, 39.991309584461455]}, "type": "Feature", "id": 390, "properties": {"CATEGORY": "Enhanced", "STORE_ADDR": "2562 Germantown Ave", "OFFICIAL_S": "Double Star Food Mart", "ZIP": "19133", "CDC_STORE_": 3.0}},{"geometry": {"type": "Point", "coordinates": [-75.14988701045974, 40.02323581878574]}, "type": "Feature", "id": 391, "properties": {"CATEGORY": "Basic", "STORE_ADDR": "1501 W Courtland St", "OFFICIAL_S": "Duran Groceries", "ZIP": "19140", "CDC_STORE_": 2.0}},{"geometry": {"type": "Point", "coordinates": [-75.18050511263687, 39.9361139318569]}, "type": "Feature", "id": 392, "properties": {"CATEGORY": "Basic", "STORE_ADDR": "1267 S 22Nd St", "OFFICIAL_S": "Duran Grocery Inc", "ZIP": "19146", "CDC_STORE_": 2.0}},{"geometry": {"type": "Point", "coordinates": [-75.14079775473932, 40.0284087431749]}, "type": "Feature", "id": 393, "properties": {"CATEGORY": "Enhanced", "STORE_ADDR": "1025 W Ruscomb St", "OFFICIAL_S": "Duran Grocery Store", "ZIP": "19141", "CDC_STORE_": 3.0}},{"geometry": {"type": "Point", "coordinates": [-75.17812364949704, 39.93048013476672]}, "type": "Feature", "id": 394, "properties": {"CATEGORY": "Basic", "STORE_ADDR": "1701 S 20th St", "OFFICIAL_S": "Duran Mini Market", "ZIP": "19145", "CDC_STORE_": 2.0}},{"geometry": {"type": "Point", "coordinates": [-75.23219331605826, 39.927029719589534]}, "type": "Feature", "id": 395, "properties": {"CATEGORY": "Enhanced", "STORE_ADDR": "6316 Woodland Ave", "OFFICIAL_S": "Dynamic Dollar", "ZIP": "19142", "CDC_STORE_": 3.0}},{"geometry": {"type": "Point", "coordinates": [-75.0713876548056, 40.05430687216874]}, "type": "Feature", "id": 396, "properties": {"CATEGORY": "Basic", "STORE_ADDR": "1701 Cottman Ave", "OFFICIAL_S": "E Z Gas Mini Mart", "ZIP": "19111", "CDC_STORE_": 2.0}},{"geometry": {"type": "Point", "coordinates": [-75.15629577850426, 39.986469618998875]}, "type": "Feature", "id": 397, "properties": {"CATEGORY": "Certification", "STORE_ADDR": "2208 N Broad St", "OFFICIAL_S": "Eagle Super Food Market", "ZIP": "19132", "CDC_STORE_": 3.0}},{"geometry": {"type": "Point", "coordinates": [-75.11661565352591, 39.995231532258956]}, "type": "Feature", "id": 398, "properties": {"CATEGORY": "Basic", "STORE_ADDR": "3099 Potter St", "OFFICIAL_S": "Echavarria Grocery #1", "ZIP": "19134", "CDC_STORE_": 1.0}},{"geometry": {"type": "Point", "coordinates": [-75.24239259593531, 39.978759670058665]}, "type": "Feature", "id": 399, "properties": {"CATEGORY": "Basic", "STORE_ADDR": "6101 W Jefferson St", "OFFICIAL_S": "Economic Jefferson Food Market", "ZIP": "19151", "CDC_STORE_": 1.0}},{"geometry": {"type": "Point", "coordinates": [-75.23749085279967, 39.97018933880919]}, "type": "Feature", "id": 400, "properties": {"CATEGORY": "Basic", "STORE_ADDR": "5901 Girard Ave", "OFFICIAL_S": "Economic Mini Mart", "ZIP": "19151", "CDC_STORE_": 2.0}},{"geometry": {"type": "Point", "coordinates": [-75.14612566747974, 40.02210955100665]}, "type": "Feature", "id": 401, "properties": {"CATEGORY": "Basic", "STORE_ADDR": "4561 N 13Th St", "OFFICIAL_S": "Edison Mini Market", "ZIP": "19140", "CDC_STORE_": 1.0}},{"geometry": {"type": "Point", "coordinates": [-75.11093004799208, 40.018208497509725]}, "type": "Feature", "id": 402, "properties": {"CATEGORY": "Enhanced", "STORE_ADDR": "4598 G St", "OFFICIAL_S": "El Mayimbe Mini Market", "ZIP": "19120", "CDC_STORE_": 3.0}},{"geometry": {"type": "Point", "coordinates": [-75.12670691401725, 40.02000327111624]}, "type": "Feature", "id": 403, "properties": {"CATEGORY": "Basic", "STORE_ADDR": "4540 Rising Sun Ave", "OFFICIAL_S": "El Nino Grocery", "ZIP": "19140", "CDC_STORE_": 1.0}},{"geometry": {"type": "Point", "coordinates": [-75.15421320553136, 39.9265682636802]}, "type": "Feature", "id": 404, "properties": {"CATEGORY": "Certification", "STORE_ADDR": "1724 S 5Th Street", "OFFICIAL_S": "El Rey Dominicano Super Market Inc", "ZIP": "19148", "CDC_STORE_": 3.0}},{"geometry": {"type": "Point", "coordinates": [-75.1595021696655, 39.91663574996553]}, "type": "Feature", "id": 405, "properties": {"CATEGORY": "Enhanced", "STORE_ADDR": "2601 S 7Th St", "OFFICIAL_S": "El Rey Dominicano Supermarket II", "ZIP": "19148", "CDC_STORE_": 3.0}},{"geometry": {"type": "Point", "coordinates": [-75.1345631369196, 39.99132969963275]}, "type": "Feature", "id": 406, "properties": {"CATEGORY": "Basic", "STORE_ADDR": "186 West Lehigh Ave", "OFFICIAL_S": "El Rincon Restaurant", "ZIP": "19133", "CDC_STORE_": 1.0}},{"geometry": {"type": "Point", "coordinates": [-75.17013200117087, 39.930099111329454]}, "type": "Feature", "id": 407, "properties": {"CATEGORY": "Certification", "STORE_ADDR": "1649 South 15 Street", "OFFICIAL_S": "El Soto Grocery Store Inc.", "ZIP": "19145", "CDC_STORE_": 3.0}},{"geometry": {"type": "Point", "coordinates": [-75.1368888299465, 40.01368815128669]}, "type": "Feature", "id": 408, "properties": {"CATEGORY": "Basic", "STORE_ADDR": "4100 N Fairhill St", "OFFICIAL_S": "Elio Grocery", "ZIP": "19140", "CDC_STORE_": 1.0}},{"geometry": {"type": "Point", "coordinates": [-75.23376761595352, 39.91983947489117]}, "type": "Feature", "id": 409, "properties": {"CATEGORY": "Enhanced", "STORE_ADDR": "6731 Elmwood Ave", "OFFICIAL_S": "Elmwood Market", "ZIP": "19142", "CDC_STORE_": 3.0}},{"geometry": {"type": "Point", "coordinates": [-75.2391244369701, 39.915960652582164]}, "type": "Feature", "id": 410, "properties": {"CATEGORY": "Basic", "STORE_ADDR": "7110 Elmwood Ave", "OFFICIAL_S": "Elmwood Mini Market Inc", "ZIP": "19142", "CDC_STORE_": 2.0}},{"geometry": {"type": "Point", "coordinates": [-75.12977432949819, 40.02764760926377]}, "type": "Feature", "id": 411, "properties": {"CATEGORY": "Basic", "STORE_ADDR": "326 W Ashdale St", "OFFICIAL_S": "Elvis Grocery", "ZIP": "19120", "CDC_STORE_": 1.0}},{"geometry": {"type": "Point", "coordinates": [-75.11038022622772, 39.994785123393285]}, "type": "Feature", "id": 412, "properties": {"CATEGORY": "Enhanced", "STORE_ADDR": "3234 Emerald St", "OFFICIAL_S": "Emerald Deli & Grocery", "ZIP": "19134", "CDC_STORE_": 3.0}},{"geometry": {"type": "Point", "coordinates": [-75.11898041848741, 39.99881697456104]}, "type": "Feature", "id": 413, "properties": {"CATEGORY": "Enhanced", "STORE_ADDR": "600 E Westmoreland St", "OFFICIAL_S": "Emilio Mini Market", "ZIP": "19134", "CDC_STORE_": 3.0}},{"geometry": {"type": "Point", "coordinates": [-75.13289280930492, 39.98802490664866]}, "type": "Feature", "id": 414, "properties": {"CATEGORY": "Enhanced", "STORE_ADDR": "145 W Cumberland", "OFFICIAL_S": "Emmanuel Deli Grocery", "ZIP": "19133", "CDC_STORE_": 3.0}},{"geometry": {"type": "Point", "coordinates": [-75.14185278209838, 40.00972117342578]}, "type": "Feature", "id": 415, "properties": {"CATEGORY": "Enhanced", "STORE_ADDR": "3801 N Darien St", "OFFICIAL_S": "Enmanuel Mini Market", "ZIP": "19140", "CDC_STORE_": 3.0}},{"geometry": {"type": "Point", "coordinates": [-75.06864847304449, 40.02037223221053]}, "type": "Feature", "id": 416, "properties": {"CATEGORY": "Basic", "STORE_ADDR": "5456 Erdrick St", "OFFICIAL_S": "Erdrick St. Food Market", "ZIP": "19124", "CDC_STORE_": 2.0}},{"geometry": {"type": "Point", "coordinates": [-75.17159917827532, 39.98447574680726]}, "type": "Feature", "id": 417, "properties": {"CATEGORY": "Basic", "STORE_ADDR": "1959 North 23rd St", "OFFICIAL_S": "Espinal Grocery", "ZIP": "19121", "CDC_STORE_": 2.0}},{"geometry": {"type": "Point", "coordinates": [-75.23427557224726, 39.964363761279444]}, "type": "Feature", "id": 418, "properties": {"CATEGORY": "Basic", "STORE_ADDR": "200 N 57th St", "OFFICIAL_S": "Espinal Grocery", "ZIP": "19139", "CDC_STORE_": 2.0}},{"geometry": {"type": "Point", "coordinates": [-75.17612474823437, 40.02354209213667]}, "type": "Feature", "id": 419, "properties": {"CATEGORY": "Enhanced", "STORE_ADDR": "5237 Laurens St", "OFFICIAL_S": "Espinal Grocery", "ZIP": "19144", "CDC_STORE_": 3.0}},{"geometry": {"type": "Point", "coordinates": [-75.16399529521738, 39.977992258305946]}, "type": "Feature", "id": 420, "properties": {"CATEGORY": "Enhanced", "STORE_ADDR": "1738 W Oxford St", "OFFICIAL_S": "Estevez Food Market", "ZIP": "19121", "CDC_STORE_": 3.0}},{"geometry": {"type": "Point", "coordinates": [-75.15018926099052, 39.99170984284342]}, "type": "Feature", "id": 421, "properties": {"CATEGORY": "Basic", "STORE_ADDR": "1118 W Huntingdon St", "OFFICIAL_S": "Estevez Grocery", "ZIP": "19133", "CDC_STORE_": 1.0}},{"geometry": {"type": "Point", "coordinates": [-75.17523513360031, 40.04882182355597]}, "type": "Feature", "id": 422, "properties": {"CATEGORY": "Basic", "STORE_ADDR": "457 E Washington Ln", "OFFICIAL_S": "Estevez Grocery", "ZIP": "19144", "CDC_STORE_": 1.0}},{"geometry": {"type": "Point", "coordinates": [-75.1309190901059, 40.05533280662784]}, "type": "Feature", "id": 423, "properties": {"CATEGORY": "Basic", "STORE_ADDR": "712 Oak Lane", "OFFICIAL_S": "Candy 4 Days", "ZIP": "19126", "CDC_STORE_": 2.0}},{"geometry": {"type": "Point", "coordinates": [-75.13601596159629, 39.98046872544679]}, "type": "Feature", "id": 424, "properties": {"CATEGORY": "Enhanced", "STORE_ADDR": "172 W Norris St", "OFFICIAL_S": "Canemo Grocery", "ZIP": "19122", "CDC_STORE_": 3.0}},{"geometry": {"type": "Point", "coordinates": [-75.13283523435999, 40.00069041084956]}, "type": "Feature", "id": 425, "properties": {"CATEGORY": "Basic", "STORE_ADDR": "3301 N 2Nd St", "OFFICIAL_S": "Caribe Grocery", "ZIP": "19140", "CDC_STORE_": 2.0}},{"geometry": {"type": "Point", "coordinates": [-75.13655112038921, 40.014740930824566]}, "type": "Feature", "id": 426, "properties": {"CATEGORY": "Basic", "STORE_ADDR": "4171 N Fairhill St", "OFFICIAL_S": "Carlos Mini Market #1", "ZIP": "19140", "CDC_STORE_": 1.0}},{"geometry": {"type": "Point", "coordinates": [-75.11578177607878, 39.996851022880165]}, "type": "Feature", "id": 427, "properties": {"CATEGORY": "Basic", "STORE_ADDR": "767 East Allegheny Ave", "OFFICIAL_S": "Carmen  Grocery", "ZIP": "19134", "CDC_STORE_": 2.0}},{"geometry": {"type": "Point", "coordinates": [-75.1816864371632, 39.98743248097796]}, "type": "Feature", "id": 428, "properties": {"CATEGORY": "Basic", "STORE_ADDR": "2952 Ridge Ave", "OFFICIAL_S": "Carolina Market", "ZIP": "19121", "CDC_STORE_": 2.0}},{"geometry": {"type": "Point", "coordinates": [-75.11151086575893, 39.99746052760218]}, "type": "Feature", "id": 429, "properties": {"CATEGORY": "Enhanced", "STORE_ADDR": "3257 Kensington Ave", "OFFICIAL_S": "Casablanca Grocery", "ZIP": "19134", "CDC_STORE_": 3.0}},{"geometry": {"type": "Point", "coordinates": [-75.05574382184615, 40.06219133475563]}, "type": "Feature", "id": 430, "properties": {"CATEGORY": "Enhanced", "STORE_ADDR": "8011 Castor Ave", "OFFICIAL_S": "Castor Discount", "ZIP": "19152", "CDC_STORE_": 3.0}},{"geometry": {"type": "Point", "coordinates": [-75.17142085219587, 39.932105028253225]}, "type": "Feature", "id": 431, "properties": {"CATEGORY": "Basic", "STORE_ADDR": "1500 S 16Th St", "OFFICIAL_S": "Castro Grocery", "ZIP": "19146", "CDC_STORE_": 1.0}},{"geometry": {"type": "Point", "coordinates": [-75.16336777588624, 40.044530273583185]}, "type": "Feature", "id": 432, "properties": {"CATEGORY": "Enhanced", "STORE_ADDR": "5616 Chew Ave", "OFFICIAL_S": "Cawley's Market", "ZIP": "19138", "CDC_STORE_": 3.0}},{"geometry": {"type": "Point", "coordinates": [-75.17748345674758, 39.981182948051114]}, "type": "Feature", "id": 433, "properties": {"CATEGORY": "Basic", "STORE_ADDR": "2604 Cecil B Moore Ave", "OFFICIAL_S": "Cecil B Moore Grocery", "ZIP": "19121", "CDC_STORE_": 2.0}},{"geometry": {"type": "Point", "coordinates": [-75.2269302315684, 39.95045385700733]}, "type": "Feature", "id": 434, "properties": {"CATEGORY": "Certification", "STORE_ADDR": "600 S 52nd St", "OFFICIAL_S": "Cedar Food Market Inc.", "ZIP": "19143", "CDC_STORE_": 2.0}},{"geometry": {"type": "Point", "coordinates": [-75.23887492271456, 39.96486557403827]}, "type": "Feature", "id": 435, "properties": {"CATEGORY": "Enhanced", "STORE_ADDR": "5934 Race St", "OFFICIAL_S": "Cesar's Mini Market", "ZIP": "19139", "CDC_STORE_": 3.0}},{"geometry": {"type": "Point", "coordinates": [-75.22231125085347, 39.94799956076255]}, "type": "Feature", "id": 436, "properties": {"CATEGORY": "Enhanced", "STORE_ADDR": "4922 Baltimore Ave", "OFFICIAL_S": "Charlie and Kim's Market", "ZIP": "19143", "CDC_STORE_": 3.0}},{"geometry": {"type": "Point", "coordinates": [-75.21396640649711, 39.945925229562555]}, "type": "Feature", "id": 437, "properties": {"CATEGORY": "Basic", "STORE_ADDR": "4700 Chester Ave", "OFFICIAL_S": "Chester Food Plaza", "ZIP": "19143", "CDC_STORE_": 1.0}},{"geometry": {"type": "Point", "coordinates": [-75.09942958741152, 40.0073291011703]}, "type": "Feature", "id": 438, "properties": {"CATEGORY": "Basic", "STORE_ADDR": "1443 E Luzerne St", "OFFICIAL_S": "Chevere Mini Market #1", "ZIP": "19124", "CDC_STORE_": 2.0}},{"geometry": {"type": "Point", "coordinates": [-75.06515391661864, 40.050632530180955]}, "type": "Feature", "id": 439, "properties": {"CATEGORY": "Basic", "STORE_ADDR": "2028 Cottman Ave", "OFFICIAL_S": "Chopan Food Market", "ZIP": "19149", "CDC_STORE_": 2.0}},{"geometry": {"type": "Point", "coordinates": [-75.18005783894495, 39.94179876445688]}, "type": "Feature", "id": 440, "properties": {"CATEGORY": "Enhanced", "STORE_ADDR": "2243 Christian Street", "OFFICIAL_S": "Christian Food Market", "ZIP": "19146", "CDC_STORE_": 3.0}},{"geometry": {"type": "Point", "coordinates": [-75.1375565979962, 39.993433983486526]}, "type": "Feature", "id": 441, "properties": {"CATEGORY": "Enhanced", "STORE_ADDR": "323 W Somerset St", "OFFICIAL_S": "Chuchu Mini Market", "ZIP": "19133", "CDC_STORE_": 3.0}},{"geometry": {"type": "Point", "coordinates": [-75.1548847897121, 39.93078843152389]}, "type": "Feature", "id": 442, "properties": {"CATEGORY": "Basic", "STORE_ADDR": "1414 S 6th St", "OFFICIAL_S": "Chuen Hing Grocery", "ZIP": "19147", "CDC_STORE_": 1.0}},{"geometry": {"type": "Point", "coordinates": [-75.20205414801202, 39.96045606072483]}, "type": "Feature", "id": 443, "properties": {"CATEGORY": "Basic", "STORE_ADDR": "401 N 40th St", "OFFICIAL_S": "City Food Market", "ZIP": "19104", "CDC_STORE_": 2.0}},{"geometry": {"type": "Point", "coordinates": [-75.1665053568121, 39.97644488975742]}, "type": "Feature", "id": 444, "properties": {"CATEGORY": "Enhanced", "STORE_ADDR": "1445 North 19th St", "OFFICIAL_S": "City Food Market", "ZIP": "19121", "CDC_STORE_": 3.0}},{"geometry": {"type": "Point", "coordinates": [-75.10861942179825, 39.99701109514531]}, "type": "Feature", "id": 445, "properties": {"CATEGORY": "Enhanced", "STORE_ADDR": "3339 Jasper St", "OFFICIAL_S": "Cleotilde Grocery", "ZIP": "19134", "CDC_STORE_": 3.0}},{"geometry": {"type": "Point", "coordinates": [-75.1578256244522, 40.05205756869539]}, "type": "Feature", "id": 446, "properties": {"CATEGORY": "Basic", "STORE_ADDR": "6402 Wister St", "OFFICIAL_S": "CNA Tropical Market", "ZIP": "19138", "CDC_STORE_": 2.0}},{"geometry": {"type": "Point", "coordinates": [-75.15014771732945, 40.021739333846675]}, "type": "Feature", "id": 447, "properties": {"CATEGORY": "Basic", "STORE_ADDR": "4501 N 15Th St", "OFFICIAL_S": "Collado Grocery", "ZIP": "19140", "CDC_STORE_": 1.0}},{"geometry": {"type": "Point", "coordinates": [-75.15342040052339, 40.04361526661041]}, "type": "Feature", "id": 448, "properties": {"CATEGORY": "Basic", "STORE_ADDR": "1956 Nedro Avenue", "OFFICIAL_S": "Collado Grocery", "ZIP": "19141", "CDC_STORE_": 2.0}},{"geometry": {"type": "Point", "coordinates": [-75.1113559996696, 39.99935496601504]}, "type": "Feature", "id": 449, "properties": {"CATEGORY": "Basic", "STORE_ADDR": "942 E Ontario St", "OFFICIAL_S": "Collado Mini Market", "ZIP": "19134", "CDC_STORE_": 1.0}},{"geometry": {"type": "Point", "coordinates": [-75.2103866689764, 40.019904905851746]}, "type": "Feature", "id": 450, "properties": {"CATEGORY": "Enhanced", "STORE_ADDR": "5255 Ridge Ave", "OFFICIAL_S": "Commissary Food Market", "ZIP": "19128", "CDC_STORE_": 3.0}},{"geometry": {"type": "Point", "coordinates": [-75.18222803122397, 39.98042656697043]}, "type": "Feature", "id": 451, "properties": {"CATEGORY": "Enhanced", "STORE_ADDR": "2901 W Oxford St", "OFFICIAL_S": "Community Food Market Llc #1", "ZIP": "19121", "CDC_STORE_": 3.0}},{"geometry": {"type": "Point", "coordinates": [-75.22942165990696, 39.984511962234734]}, "type": "Feature", "id": 452, "properties": {"CATEGORY": "Basic", "STORE_ADDR": "1801 Georges Ln", "OFFICIAL_S": "Community Mini Market", "ZIP": "19131", "CDC_STORE_": 2.0}},{"geometry": {"type": "Point", "coordinates": [-75.24724306840264, 39.970580452396256]}, "type": "Feature", "id": 453, "properties": {"CATEGORY": "Enhanced", "STORE_ADDR": "6400 W Girard Ave", "OFFICIAL_S": "Community Mini Market", "ZIP": "19151", "CDC_STORE_": 3.0}},{"geometry": {"type": "Point", "coordinates": [-75.14270917449383, 40.027028924157925]}, "type": "Feature", "id": 454, "properties": {"CATEGORY": "Basic", "STORE_ADDR": "1116-18 Rockland St", "OFFICIAL_S": "Community Variety Grocery Store", "ZIP": "19141", "CDC_STORE_": 2.0}},{"geometry": {"type": "Point", "coordinates": [-75.16984992019397, 40.0284981234474]}, "type": "Feature", "id": 455, "properties": {"CATEGORY": "Basic", "STORE_ADDR": "147 W Hansberry St", "OFFICIAL_S": "Complete Grocery And Deli", "ZIP": "19144", "CDC_STORE_": 1.0}},{"geometry": {"type": "Point", "coordinates": [-75.2245767266449, 39.95688823180379]}, "type": "Feature", "id": 456, "properties": {"CATEGORY": "Certification", "STORE_ADDR": "5153 Walnut St", "OFFICIAL_S": "Connie's Food Store", "ZIP": "19139", "CDC_STORE_": 2.0}},{"geometry": {"type": "Point", "coordinates": [-75.1657937337738, 39.92467689628653]}, "type": "Feature", "id": 457, "properties": {"CATEGORY": "Enhanced", "STORE_ADDR": "2015 S 12th St", "OFFICIAL_S": "Convenience Grocery", "ZIP": "19148", "CDC_STORE_": 3.0}},{"geometry": {"type": "Point", "coordinates": [-75.10491126916797, 40.0425779951987]}, "type": "Feature", "id": 458, "properties": {"CATEGORY": "Enhanced", "STORE_ADDR": "5754 Rising Sun Ave", "OFFICIAL_S": "R & M Food Market", "ZIP": "19120", "CDC_STORE_": 3.0}},{"geometry": {"type": "Point", "coordinates": [-75.10991704021451, 40.02725420214005]}, "type": "Feature", "id": 459, "properties": {"CATEGORY": "Basic", "STORE_ADDR": "5087 F St", "OFFICIAL_S": "R&W", "ZIP": "19124", "CDC_STORE_": 1.0}},{"geometry": {"type": "Point", "coordinates": [-75.12806388754348, 40.00151932516232]}, "type": "Feature", "id": 460, "properties": {"CATEGORY": "Enhanced", "STORE_ADDR": "116 E Ontario St", "OFFICIAL_S": "Rafa Grocery", "ZIP": "19134", "CDC_STORE_": 3.0}},{"geometry": {"type": "Point", "coordinates": [-75.12477889053378, 40.0011853376714]}, "type": "Feature", "id": 461, "properties": {"CATEGORY": "Basic", "STORE_ADDR": "3400 B St", "OFFICIAL_S": "Rafael Mini Mart", "ZIP": "19134", "CDC_STORE_": 2.0}},{"geometry": {"type": "Point", "coordinates": [-75.15675099665884, 40.006846784678046]}, "type": "Feature", "id": 462, "properties": {"CATEGORY": "Enhanced", "STORE_ADDR": "1701 W Tioga St", "OFFICIAL_S": "Ramirez Grocery", "ZIP": "19140", "CDC_STORE_": 3.0}},{"geometry": {"type": "Point", "coordinates": [-75.1477077692195, 39.973095437877554]}, "type": "Feature", "id": 463, "properties": {"CATEGORY": "Basic", "STORE_ADDR": "1400 N 7th St", "OFFICIAL_S": "Ramon A. Gonzalez Enterprises Inc", "ZIP": "19122", "CDC_STORE_": 2.0}},{"geometry": {"type": "Point", "coordinates": [-75.18439966590456, 39.928751141999165]}, "type": "Feature", "id": 464, "properties": {"CATEGORY": "Basic", "STORE_ADDR": "1901 S Bonsall St", "OFFICIAL_S": "Ranacaro Grocery Store", "ZIP": "19145", "CDC_STORE_": 2.0}},{"geometry": {"type": "Point", "coordinates": [-75.22135727784156, 39.93464166071805]}, "type": "Feature", "id": 465, "properties": {"CATEGORY": "Basic", "STORE_ADDR": "5540 Woodland Ave", "OFFICIAL_S": "Ray's Grocery", "ZIP": "19143", "CDC_STORE_": 1.0}},{"geometry": {"type": "Point", "coordinates": [-75.16082400939015, 39.92572117352888]}, "type": "Feature", "id": 466, "properties": {"CATEGORY": "Basic", "STORE_ADDR": "1900 S 9th St", "OFFICIAL_S": "Red's Hoagies & Groceries", "ZIP": "19148", "CDC_STORE_": 2.0}},{"geometry": {"type": "Point", "coordinates": [-75.18076090734804, 39.93494552009354]}, "type": "Feature", "id": 467, "properties": {"CATEGORY": "Basic", "STORE_ADDR": "1341 S 22Nd St", "OFFICIAL_S": "Reed Mini Market", "ZIP": "19146", "CDC_STORE_": 2.0}},{"geometry": {"type": "Point", "coordinates": [-75.23312556652363, 39.97354835761128]}, "type": "Feature", "id": 468, "properties": {"CATEGORY": "Basic", "STORE_ADDR": "5601 Master St", "OFFICIAL_S": "Reyes Grocery", "ZIP": "19131", "CDC_STORE_": 2.0}},{"geometry": {"type": "Point", "coordinates": [-75.1151887903855, 40.025030797568895]}, "type": "Feature", "id": 469, "properties": {"CATEGORY": "Enhanced", "STORE_ADDR": "5000 Gransback St", "OFFICIAL_S": "Ricardo's Mini Market", "ZIP": "19120", "CDC_STORE_": 3.0}},{"geometry": {"type": "Point", "coordinates": [-75.17509547679013, 39.93700034146094]}, "type": "Feature", "id": 470, "properties": {"CATEGORY": "Basic", "STORE_ADDR": "1201 S 19Th St", "OFFICIAL_S": "Right Triangle", "ZIP": "19146", "CDC_STORE_": 1.0}},{"geometry": {"type": "Point", "coordinates": [-75.16185708150243, 39.928371262327815]}, "type": "Feature", "id": 471, "properties": {"CATEGORY": "Certification", "STORE_ADDR": "1700 S 10th St", "OFFICIAL_S": "Rios Food Market", "ZIP": "19148", "CDC_STORE_": 1.0}},{"geometry": {"type": "Point", "coordinates": [-75.14009859551835, 40.012585927050345]}, "type": "Feature", "id": 472, "properties": {"CATEGORY": "Basic", "STORE_ADDR": "715 W Luzerne St", "OFFICIAL_S": "Rios Grocery Store", "ZIP": "19140", "CDC_STORE_": 2.0}},{"geometry": {"type": "Point", "coordinates": [-75.15898278839484, 39.91951996227191]}, "type": "Feature", "id": 473, "properties": {"CATEGORY": "Enhanced", "STORE_ADDR": "2348 S 7Th St", "OFFICIAL_S": "Rising Sun Grocery", "ZIP": "19148", "CDC_STORE_": 3.0}},{"geometry": {"type": "Point", "coordinates": [-75.14674116349326, 40.00498824838745]}, "type": "Feature", "id": 474, "properties": {"CATEGORY": "Basic", "STORE_ADDR": "3428 N 11Th St", "OFFICIAL_S": "Rising Sun Mini Market", "ZIP": "19140", "CDC_STORE_": 2.0}},{"geometry": {"type": "Point", "coordinates": [-75.17638055227155, 40.00468429263422]}, "type": "Feature", "id": 475, "properties": {"CATEGORY": "Basic", "STORE_ADDR": "2839 W Allegheny Ave", "OFFICIAL_S": "Rodriguez Grocery", "ZIP": "19132", "CDC_STORE_": 2.0}},{"geometry": {"type": "Point", "coordinates": [-75.22645714793796, 39.96186081536536]}, "type": "Feature", "id": 476, "properties": {"CATEGORY": "Basic", "STORE_ADDR": "101 N 53rd St", "OFFICIAL_S": "Rodriguez Grocery", "ZIP": "19139", "CDC_STORE_": 2.0}},{"geometry": {"type": "Point", "coordinates": [-75.17642800605778, 39.9754139126256]}, "type": "Feature", "id": 477, "properties": {"CATEGORY": "Enhanced", "STORE_ADDR": "2438 W Thompson St", "OFFICIAL_S": "Rodriguez Grocery", "ZIP": "19121", "CDC_STORE_": 3.0}},{"geometry": {"type": "Point", "coordinates": [-75.18530943147402, 39.99629801596071]}, "type": "Feature", "id": 478, "properties": {"CATEGORY": "Enhanced", "STORE_ADDR": "2601 N 33rd St", "OFFICIAL_S": "Rodriguez Grocery", "ZIP": "19132", "CDC_STORE_": 3.0}},{"geometry": {"type": "Point", "coordinates": [-75.17253890118029, 39.997943384371034]}, "type": "Feature", "id": 479, "properties": {"CATEGORY": "Basic", "STORE_ADDR": "2513 W Somerset St", "OFFICIAL_S": "Rodriguez Mini Market", "ZIP": "19132", "CDC_STORE_": 1.0}},{"geometry": {"type": "Point", "coordinates": [-75.18205056508674, 39.981425300576426]}, "type": "Feature", "id": 480, "properties": {"CATEGORY": "Enhanced", "STORE_ADDR": "1646 N 29Th St", "OFFICIAL_S": "Rodriguez Mini Market", "ZIP": "19121", "CDC_STORE_": 3.0}},{"geometry": {"type": "Point", "coordinates": [-75.14931288424908, 40.05699268664721]}, "type": "Feature", "id": 481, "properties": {"CATEGORY": "Basic", "STORE_ADDR": "6731 Ogontz Ave", "OFFICIAL_S": "Rodriguez Mini Market #4", "ZIP": "19126", "CDC_STORE_": 2.0}},{"geometry": {"type": "Point", "coordinates": [-75.18032667773222, 39.98162630549975]}, "type": "Feature", "id": 482, "properties": {"CATEGORY": "Basic", "STORE_ADDR": "1700 N 28th St", "OFFICIAL_S": "Rodriguez Supermarket", "ZIP": "19121", "CDC_STORE_": 2.0}},{"geometry": {"type": "Point", "coordinates": [-75.12652964877613, 40.02044874742506]}, "type": "Feature", "id": 483, "properties": {"CATEGORY": "Enhanced", "STORE_ADDR": "4600 Rising Sun Ave", "OFFICIAL_S": "Rodriguez Variety", "ZIP": "19140", "CDC_STORE_": 3.0}},{"geometry": {"type": "Point", "coordinates": [-75.1822072002907, 39.992780969281185]}, "type": "Feature", "id": 484, "properties": {"CATEGORY": "Enhanced", "STORE_ADDR": "3034-36 W York Street", "OFFICIAL_S": "Rogelio Mini Market", "ZIP": "19132", "CDC_STORE_": 3.0}},{"geometry": {"type": "Point", "coordinates": [-75.11669270744387, 39.99139714188798]}, "type": "Feature", "id": 485, "properties": {"CATEGORY": "Basic", "STORE_ADDR": "2000 E Orleans St", "OFFICIAL_S": "Romano Grocery", "ZIP": "19134", "CDC_STORE_": 1.0}},{"geometry": {"type": "Point", "coordinates": [-75.23417494876149, 39.915244009508946]}, "type": "Feature", "id": 486, "properties": {"CATEGORY": "Basic", "STORE_ADDR": "6935 Dicks Ave", "OFFICIAL_S": "Romano Grocery", "ZIP": "19142", "CDC_STORE_": 1.0}},{"geometry": {"type": "Point", "coordinates": [-75.10411227505357, 40.007940419911286]}, "type": "Feature", "id": 487, "properties": {"CATEGORY": "Enhanced", "STORE_ADDR": "1219 E. Luzerne Street", "OFFICIAL_S": "Romano's Grocery", "ZIP": "19124", "CDC_STORE_": 3.0}},{"geometry": {"type": "Point", "coordinates": [-75.14368093130038, 40.0549301860367]}, "type": "Feature", "id": 488, "properties": {"CATEGORY": "Basic", "STORE_ADDR": "1545 Kinsdale St", "OFFICIAL_S": "Rosario Grocery", "ZIP": "19126", "CDC_STORE_": 2.0}},{"geometry": {"type": "Point", "coordinates": [-75.14429881611305, 39.97015183045807]}, "type": "Feature", "id": 489, "properties": {"CATEGORY": "Enhanced", "STORE_ADDR": "441 W Girard Ave", "OFFICIAL_S": "Rosa's Pretzel Bakery And Deli", "ZIP": "19123", "CDC_STORE_": 3.0}},{"geometry": {"type": "Point", "coordinates": [-75.14063956039524, 40.013471799840865]}, "type": "Feature", "id": 490, "properties": {"CATEGORY": "Enhanced", "STORE_ADDR": "4056 N 8Th St", "OFFICIAL_S": "Roselix Grocery", "ZIP": "19140", "CDC_STORE_": 3.0}},{"geometry": {"type": "Point", "coordinates": [-75.15963326240595, 39.93798664459101]}, "type": "Feature", "id": 491, "properties": {"CATEGORY": "Basic", "STORE_ADDR": "1001 S 10th St", "OFFICIAL_S": "Rosie's Market", "ZIP": "19147", "CDC_STORE_": 2.0}},{"geometry": {"type": "Point", "coordinates": [-75.19272026440957, 39.96622716344206]}, "type": "Feature", "id": 492, "properties": {"CATEGORY": "Basic", "STORE_ADDR": "3412 Fairmount Ave", "OFFICIAL_S": "Ruben Groceries", "ZIP": "19104", "CDC_STORE_": 2.0}},{"geometry": {"type": "Point", "coordinates": [-75.23024551986707, 39.9325078250476]}, "type": "Feature", "id": 493, "properties": {"CATEGORY": "Basic", "STORE_ADDR": "6000 Kingsessing Ave", "OFFICIAL_S": "S&P Grocery Inc", "ZIP": "19142", "CDC_STORE_": 2.0}},{"geometry": {"type": "Point", "coordinates": [-75.1589737721498, 39.92629888259284]}, "type": "Feature", "id": 494, "properties": {"CATEGORY": "Basic", "STORE_ADDR": "1815 S 8Th St", "OFFICIAL_S": "Sagrado Corazon Grocery Store Inc", "ZIP": "19148", "CDC_STORE_": 2.0}},{"geometry": {"type": "Point", "coordinates": [-75.18020296575817, 39.97729211450853]}, "type": "Feature", "id": 495, "properties": {"CATEGORY": "Basic", "STORE_ADDR": "1400 N Etting St", "OFFICIAL_S": "Sajoma Grocery", "ZIP": "19121", "CDC_STORE_": 1.0}},{"geometry": {"type": "Point", "coordinates": [-75.1606157505844, 39.966321333148244]}, "type": "Feature", "id": 496, "properties": {"CATEGORY": "Enhanced", "STORE_ADDR": "676 N Broad St", "OFFICIAL_S": "Sal's Produce Plus Inc", "ZIP": "19130", "CDC_STORE_": 3.0}},{"geometry": {"type": "Point", "coordinates": [-75.22966999960366, 39.936764914943446]}, "type": "Feature", "id": 497, "properties": {"CATEGORY": "Enhanced", "STORE_ADDR": "1801 S 58th St", "OFFICIAL_S": "Samana Food Market", "ZIP": "19143", "CDC_STORE_": 3.0}},{"geometry": {"type": "Point", "coordinates": [-75.21939681627184, 39.93614269268486]}, "type": "Feature", "id": 498, "properties": {"CATEGORY": "Basic", "STORE_ADDR": "5411 Woodland Ave", "OFFICIAL_S": "Samiches Deli Inc", "ZIP": "19143", "CDC_STORE_": 2.0}},{"geometry": {"type": "Point", "coordinates": [-75.1218277975796, 40.023858372926874]}, "type": "Feature", "id": 499, "properties": {"CATEGORY": "Basic", "STORE_ADDR": "4847 A St", "OFFICIAL_S": "Sams Grocery Store", "ZIP": "19120", "CDC_STORE_": 2.0}},{"geometry": {"type": "Point", "coordinates": [-75.13045333073241, 39.99327959132048]}, "type": "Feature", "id": 500, "properties": {"CATEGORY": "Enhanced", "STORE_ADDR": "2852 N Front St", "OFFICIAL_S": "Sam's Supermarket", "ZIP": "19133", "CDC_STORE_": 3.0}},{"geometry": {"type": "Point", "coordinates": [-75.16705521929097, 39.924084642289216]}, "type": "Feature", "id": 501, "properties": {"CATEGORY": "Basic", "STORE_ADDR": "1247 Snyder Ave", "OFFICIAL_S": "San Agus Mini Market", "ZIP": "19148", "CDC_STORE_": 2.0}},{"geometry": {"type": "Point", "coordinates": [-75.17106380122964, 39.93079320175591]}, "type": "Feature", "id": 502, "properties": {"CATEGORY": "Basic", "STORE_ADDR": "1526 Tasker St", "OFFICIAL_S": "San Lucas Grocery Inc", "ZIP": "19145", "CDC_STORE_": 2.0}},{"geometry": {"type": "Point", "coordinates": [-75.14026456577518, 39.98744689741036]}, "type": "Feature", "id": 503, "properties": {"CATEGORY": "Enhanced", "STORE_ADDR": "425 W York St", "OFFICIAL_S": "San Miguel Deli", "ZIP": "19133", "CDC_STORE_": 3.0}},{"geometry": {"type": "Point", "coordinates": [-75.15985021690179, 39.92284112667784]}, "type": "Feature", "id": 504, "properties": {"CATEGORY": "Enhanced", "STORE_ADDR": "2108 S 8Th St", "OFFICIAL_S": "San Miguel Mini Market Inc", "ZIP": "19148", "CDC_STORE_": 3.0}},{"geometry": {"type": "Point", "coordinates": [-75.21436510617676, 39.95710088865172]}, "type": "Feature", "id": 505, "properties": {"CATEGORY": "Basic", "STORE_ADDR": "4630-32 Chestnut St", "OFFICIAL_S": "Sanchez Mini Market", "ZIP": "19139", "CDC_STORE_": 1.0}},{"geometry": {"type": "Point", "coordinates": [-75.11757396216076, 40.02444984003444]}, "type": "Feature", "id": 506, "properties": {"CATEGORY": "Basic", "STORE_ADDR": "4948 C St", "OFFICIAL_S": "Santana Deli & Grocery", "ZIP": "19120", "CDC_STORE_": 1.0}},{"geometry": {"type": "Point", "coordinates": [-75.16962810419979, 39.93069303634585]}, "type": "Feature", "id": 507, "properties": {"CATEGORY": "Basic", "STORE_ADDR": "1443 Tasker St", "OFFICIAL_S": "Santos Grocery", "ZIP": "19145", "CDC_STORE_": 2.0}},{"geometry": {"type": "Point", "coordinates": [-75.12954908184169, 39.99697845652232]}, "type": "Feature", "id": 508, "properties": {"CATEGORY": "Enhanced", "STORE_ADDR": "3101 N Front St", "OFFICIAL_S": "Saury Inc", "ZIP": "19133", "CDC_STORE_": 3.0}},{"geometry": {"type": "Point", "coordinates": [-75.23341937031594, 39.92008433725993]}, "type": "Feature", "id": 509, "properties": {"CATEGORY": "Enhanced", "STORE_ADDR": "6715 Elmwood Ave", "OFFICIAL_S": "Sekpeh Prosperity #1", "ZIP": "19142", "CDC_STORE_": 3.0}},{"geometry": {"type": "Point", "coordinates": [-75.1593046572544, 39.91788379076438]}, "type": "Feature", "id": 510, "properties": {"CATEGORY": "Basic", "STORE_ADDR": "700 W Porter St", "OFFICIAL_S": "Seven & Porter Mini Market", "ZIP": "19148", "CDC_STORE_": 2.0}},{"geometry": {"type": "Point", "coordinates": [-75.17499705208355, 39.98253143022922]}, "type": "Feature", "id": 511, "properties": {"CATEGORY": "Enhanced", "STORE_ADDR": "2449 Ridge Avenue", "OFFICIAL_S": "SH & FY Inc.", "ZIP": "19121", "CDC_STORE_": 3.0}},{"geometry": {"type": "Point", "coordinates": [-75.1122350399169, 39.995130119126436]}, "type": "Feature", "id": 512, "properties": {"CATEGORY": "Basic", "STORE_ADDR": "1900 E Allegheny Ave", "OFFICIAL_S": "Shachary Grocery", "ZIP": "19134", "CDC_STORE_": 1.0}},{"geometry": {"type": "Point", "coordinates": [-75.05846056286849, 40.01802827594793]}, "type": "Feature", "id": 513, "properties": {"CATEGORY": "Basic", "STORE_ADDR": "6017 Torresdale Ave", "OFFICIAL_S": "Shao Ping Grocery", "ZIP": "19135", "CDC_STORE_": 2.0}},{"geometry": {"type": "Point", "coordinates": [-75.2306654250644, 39.92203195369525]}, "type": "Feature", "id": 514, "properties": {"CATEGORY": "Basic", "STORE_ADDR": "6523 Elmwood Ave", "OFFICIAL_S": "Shema's Convenience Store", "ZIP": "19142", "CDC_STORE_": 1.0}},{"geometry": {"type": "Point", "coordinates": [-75.09104888993792, 40.03304356315715]}, "type": "Feature", "id": 515, "properties": {"CATEGORY": "Enhanced", "STORE_ADDR": "899 Brill St", "OFFICIAL_S": "Shiv Food Market Llc", "ZIP": "19124", "CDC_STORE_": 3.0}},{"geometry": {"type": "Point", "coordinates": [-75.21717949114024, 39.93770194047128]}, "type": "Feature", "id": 516, "properties": {"CATEGORY": "Enhanced", "STORE_ADDR": "5227 Woodland Ave", "OFFICIAL_S": "Shop & Go Convenience Store", "ZIP": "19143", "CDC_STORE_": 3.0}},{"geometry": {"type": "Point", "coordinates": [-75.23519553734738, 39.949923674785374]}, "type": "Feature", "id": 517, "properties": {"CATEGORY": "Enhanced", "STORE_ADDR": "5600 Catharine St", "OFFICIAL_S": "Shop & Save Dollar Plus", "ZIP": "19143", "CDC_STORE_": 3.0}},{"geometry": {"type": "Point", "coordinates": [-75.03843525422616, 40.03769917063288]}, "type": "Feature", "id": 518, "properties": {"CATEGORY": "Basic", "STORE_ADDR": "7370 Frankford Ave", "OFFICIAL_S": "Shop-N-Go", "ZIP": "19136", "CDC_STORE_": 2.0}},{"geometry": {"type": "Point", "coordinates": [-75.2252408091528, 39.93811925246008]}, "type": "Feature", "id": 519, "properties": {"CATEGORY": "Enhanced", "STORE_ADDR": "5533 Chester Ave", "OFFICIAL_S": "Sister International Food Market", "ZIP": "19143", "CDC_STORE_": 3.0}},{"geometry": {"type": "Point", "coordinates": [-75.23607140651045, 39.924415256116696]}, "type": "Feature", "id": 520, "properties": {"CATEGORY": "Basic", "STORE_ADDR": "6621 Woodland Ave", "OFFICIAL_S": "Sita T African Grocery Store", "ZIP": "19142", "CDC_STORE_": 2.0}},{"geometry": {"type": "Point", "coordinates": [-75.19104308200642, 39.92708743616788]}, "type": "Feature", "id": 521, "properties": {"CATEGORY": "Certification", "STORE_ADDR": "2700 Snyder Ave", "OFFICIAL_S": "Snyder Supermarket Inc", "ZIP": "19145", "CDC_STORE_": 2.0}},{"geometry": {"type": "Point", "coordinates": [-75.16847291347896, 39.917784193913164]}, "type": "Feature", "id": 522, "properties": {"CATEGORY": "Basic", "STORE_ADDR": "2600 S Iseminger St", "OFFICIAL_S": "Sophia Grocery & Deli Llc", "ZIP": "19148", "CDC_STORE_": 1.0}},{"geometry": {"type": "Point", "coordinates": [-75.10271456947665, 40.008661188318946]}, "type": "Feature", "id": 523, "properties": {"CATEGORY": "Enhanced", "STORE_ADDR": "4062 L St", "OFFICIAL_S": "Sosa Food Market", "ZIP": "19124", "CDC_STORE_": 3.0}},{"geometry": {"type": "Point", "coordinates": [-75.15606491273763, 39.93269189958146]}, "type": "Feature", "id": 524, "properties": {"CATEGORY": "Basic", "STORE_ADDR": "701 Wharton St", "OFFICIAL_S": "South Philly Cold Cuts", "ZIP": "19147", "CDC_STORE_": 1.0}},{"geometry": {"type": "Point", "coordinates": [-75.07422794705303, 40.02882818505642]}, "type": "Feature", "id": 525, "properties": {"CATEGORY": "Enhanced", "STORE_ADDR": "5934 Bustleton Ave.", "OFFICIAL_S": "Speedy's Mart", "ZIP": "19149", "CDC_STORE_": 3.0}},{"geometry": {"type": "Point", "coordinates": [-75.24190027855902, 39.95678813089831]}, "type": "Feature", "id": 526, "properties": {"CATEGORY": "Basic", "STORE_ADDR": "284 S 60th St", "OFFICIAL_S": "Spruce Mini Market", "ZIP": "19139", "CDC_STORE_": 1.0}},{"geometry": {"type": "Point", "coordinates": [-75.24190027855902, 39.95678813089831]}, "type": "Feature", "id": 527, "properties": {"CATEGORY": "Basic", "STORE_ADDR": "284 S 60th St", "OFFICIAL_S": "Spruce St Market", "ZIP": "19139", "CDC_STORE_": 1.0}},{"geometry": {"type": "Point", "coordinates": [-75.1476221750944, 39.99428334965531]}, "type": "Feature", "id": 528, "properties": {"CATEGORY": "Basic", "STORE_ADDR": "2756 Germantown Ave", "OFFICIAL_S": "Torres Grocery", "ZIP": "19133", "CDC_STORE_": 1.0}},{"geometry": {"type": "Point", "coordinates": [-75.17404427316036, 39.983914075810226]}, "type": "Feature", "id": 529, "properties": {"CATEGORY": "Basic", "STORE_ADDR": "1900 N Ringgold St", "OFFICIAL_S": "Torres Grocery", "ZIP": "19121", "CDC_STORE_": 2.0}},{"geometry": {"type": "Point", "coordinates": [-75.1740345010913, 39.99631391367304]}, "type": "Feature", "id": 530, "properties": {"CATEGORY": "Basic", "STORE_ADDR": "2684 N 26th St", "OFFICIAL_S": "Torres Grocery", "ZIP": "19132", "CDC_STORE_": 2.0}},{"geometry": {"type": "Point", "coordinates": [-75.14920161100584, 39.99800234482326]}, "type": "Feature", "id": 531, "properties": {"CATEGORY": "Basic", "STORE_ADDR": "1149 West Indiana Ave", "OFFICIAL_S": "Torres Grocery", "ZIP": "19133", "CDC_STORE_": 2.0}},{"geometry": {"type": "Point", "coordinates": [-75.16076655804451, 39.99106221656227]}, "type": "Feature", "id": 532, "properties": {"CATEGORY": "Basic", "STORE_ADDR": "2466 N Colorado St", "OFFICIAL_S": "Torres Grocery Store", "ZIP": "19132", "CDC_STORE_": 2.0}},{"geometry": {"type": "Point", "coordinates": [-75.18410372904708, 39.99462788189602]}, "type": "Feature", "id": 533, "properties": {"CATEGORY": "Basic", "STORE_ADDR": "2500 N 32nd St", "OFFICIAL_S": "Torres Mini Market", "ZIP": "19132", "CDC_STORE_": 1.0}},{"geometry": {"type": "Point", "coordinates": [-75.21766858601879, 39.95602692282005]}, "type": "Feature", "id": 534, "properties": {"CATEGORY": "Basic", "STORE_ADDR": "4801 Walnut St", "OFFICIAL_S": "Torres Super Market", "ZIP": "19139", "CDC_STORE_": 1.0}},{"geometry": {"type": "Point", "coordinates": [-75.13624894447156, 39.96900014485891]}, "type": "Feature", "id": 535, "properties": {"CATEGORY": "Basic", "STORE_ADDR": "1204 N Front St", "OFFICIAL_S": "Trax Foods", "ZIP": "19122", "CDC_STORE_": 2.0}},{"geometry": {"type": "Point", "coordinates": [-75.15668911818527, 39.96185926784875]}, "type": "Feature", "id": 536, "properties": {"CATEGORY": "Certification", "STORE_ADDR": "1137 Spring Garden St", "OFFICIAL_S": "Trebol Supermarket", "ZIP": "19123", "CDC_STORE_": 3.0}},{"geometry": {"type": "Point", "coordinates": [-75.17968555123808, 39.97027969596505]}, "type": "Feature", "id": 537, "properties": {"CATEGORY": "Basic", "STORE_ADDR": "2600 Brown St", "OFFICIAL_S": "Trust Market", "ZIP": "19130", "CDC_STORE_": 1.0}},{"geometry": {"type": "Point", "coordinates": [-75.17517417235811, 39.979919146712554]}, "type": "Feature", "id": 538, "properties": {"CATEGORY": "Basic", "STORE_ADDR": "2454 Turner St", "OFFICIAL_S": "Turner Grocery", "ZIP": "19121", "CDC_STORE_": 1.0}},{"geometry": {"type": "Point", "coordinates": [-75.26681886010743, 39.977976422783364]}, "type": "Feature", "id": 539, "properties": {"CATEGORY": "Basic", "STORE_ADDR": "7540 Haverford Ave", "OFFICIAL_S": "Twins Grocers", "ZIP": "19151", "CDC_STORE_": 2.0}},{"geometry": {"type": "Point", "coordinates": [-75.22819082065685, 39.94408342983781]}, "type": "Feature", "id": 540, "properties": {"CATEGORY": "Basic", "STORE_ADDR": "5400 Willows Ave", "OFFICIAL_S": "Two Brothers Food Market", "ZIP": "19143", "CDC_STORE_": 2.0}},{"geometry": {"type": "Point", "coordinates": [-75.22447589480869, 39.92626684101855]}, "type": "Feature", "id": 541, "properties": {"CATEGORY": "Enhanced", "STORE_ADDR": "6053 Elmwood Ave", "OFFICIAL_S": "Uceta Grocery", "ZIP": "19142", "CDC_STORE_": 3.0}},{"geometry": {"type": "Point", "coordinates": [-75.1359432895488, 40.026232771437556]}, "type": "Feature", "id": 542, "properties": {"CATEGORY": "Enhanced", "STORE_ADDR": "659 W Rockland St", "OFFICIAL_S": "United Mini Market", "ZIP": "19120", "CDC_STORE_": 3.0}},{"geometry": {"type": "Point", "coordinates": [-75.21685647476119, 39.95342237792311]}, "type": "Feature", "id": 543, "properties": {"CATEGORY": "Enhanced", "STORE_ADDR": "4734-40 Spruce Street", "OFFICIAL_S": "University Dollar Plus", "ZIP": "19139", "CDC_STORE_": 3.0}},{"geometry": {"type": "Point", "coordinates": [-75.24038437160844, 39.92432667073369]}, "type": "Feature", "id": 544, "properties": {"CATEGORY": "Basic", "STORE_ADDR": "2024 S 68th St", "OFFICIAL_S": "Upland Mini Market", "ZIP": "19142", "CDC_STORE_": 1.0}},{"geometry": {"type": "Point", "coordinates": [-75.19051633693714, 39.93708852078216]}, "type": "Feature", "id": 545, "properties": {"CATEGORY": "Basic", "STORE_ADDR": "1300 S 28Th St", "OFFICIAL_S": "Urena Food Mart", "ZIP": "19146", "CDC_STORE_": 1.0}},{"geometry": {"type": "Point", "coordinates": [-75.08989280431581, 40.03422514913662]}, "type": "Feature", "id": 546, "properties": {"CATEGORY": "Basic", "STORE_ADDR": "898 Anchor St", "OFFICIAL_S": "Valentina Grocery", "ZIP": "19124", "CDC_STORE_": 1.0}},{"geometry": {"type": "Point", "coordinates": [-75.18338566265626, 40.005491934090074]}, "type": "Feature", "id": 547, "properties": {"CATEGORY": "Enhanced", "STORE_ADDR": "3300 W Allegheny Ave", "OFFICIAL_S": "Valentina Grocery", "ZIP": "19132", "CDC_STORE_": 3.0}},{"geometry": {"type": "Point", "coordinates": [-75.21357223336952, 39.94896767596038]}, "type": "Feature", "id": 548, "properties": {"CATEGORY": "Basic", "STORE_ADDR": "4520 Baltimore Ave", "OFFICIAL_S": "Valentino African Food Store", "ZIP": "19143", "CDC_STORE_": 1.0}},{"geometry": {"type": "Point", "coordinates": [-75.088044894093, 40.014763170997554]}, "type": "Feature", "id": 549, "properties": {"CATEGORY": "Basic", "STORE_ADDR": "1500 Sellers St", "OFFICIAL_S": "Valerio Food Market", "ZIP": "19124", "CDC_STORE_": 1.0}},{"geometry": {"type": "Point", "coordinates": [-75.23121301877754, 39.976967804322406]}, "type": "Feature", "id": 550, "properties": {"CATEGORY": "Basic", "STORE_ADDR": "5455 Lansdowne Ave", "OFFICIAL_S": "Valerio's Food Market", "ZIP": "19131", "CDC_STORE_": 2.0}},{"geometry": {"type": "Point", "coordinates": [-75.12701757025175, 39.99360292721769]}, "type": "Feature", "id": 551, "properties": {"CATEGORY": "Basic", "STORE_ADDR": "241 E Cambria St", "OFFICIAL_S": "Vargas Mini Market", "ZIP": "19134", "CDC_STORE_": 1.0}},{"geometry": {"type": "Point", "coordinates": [-75.16801921113019, 39.91698906704773]}, "type": "Feature", "id": 552, "properties": {"CATEGORY": "Basic", "STORE_ADDR": "2655 S Camac St", "OFFICIAL_S": "Venuti's Food Market", "ZIP": "19148", "CDC_STORE_": 2.0}},{"geometry": {"type": "Point", "coordinates": [-75.15845356572919, 39.929181122250014]}, "type": "Feature", "id": 553, "properties": {"CATEGORY": "Basic", "STORE_ADDR": "1600 S 8Th St", "OFFICIAL_S": "Vics Coffee Shop", "ZIP": "19148", "CDC_STORE_": 1.0}},{"geometry": {"type": "Point", "coordinates": [-75.13986236137802, 40.01100070440477]}, "type": "Feature", "id": 554, "properties": {"CATEGORY": "Enhanced", "STORE_ADDR": "3900 N 7Th St", "OFFICIAL_S": "Villa Vasquez Mini Market", "ZIP": "19140", "CDC_STORE_": 3.0}},{"geometry": {"type": "Point", "coordinates": [-75.22876243863568, 39.97115636861781]}, "type": "Feature", "id": 555, "properties": {"CATEGORY": "Basic", "STORE_ADDR": "5401 W Girard Ave", "OFFICIAL_S": "Vinas Food Market", "ZIP": "19131", "CDC_STORE_": 2.0}},{"geometry": {"type": "Point", "coordinates": [-75.0334474156822, 40.03785427515441]}, "type": "Feature", "id": 556, "properties": {"CATEGORY": "Basic", "STORE_ADDR": "4244 Chippendale St", "OFFICIAL_S": "Vince's Deli", "ZIP": "19136", "CDC_STORE_": 2.0}},{"geometry": {"type": "Point", "coordinates": [-75.13432192908108, 40.00156366775497]}, "type": "Feature", "id": 557, "properties": {"CATEGORY": "Basic", "STORE_ADDR": "230 West Wensley Street", "OFFICIAL_S": "Viola Grocery", "ZIP": "19140", "CDC_STORE_": 2.0}},{"geometry": {"type": "Point", "coordinates": [-75.2375123560595, 39.97305917233679]}, "type": "Feature", "id": 558, "properties": {"CATEGORY": "Basic", "STORE_ADDR": "5845 Master St", "OFFICIAL_S": "VR Mini Market", "ZIP": "19131", "CDC_STORE_": 2.0}},{"geometry": {"type": "Point", "coordinates": [-75.1704337900706, 39.96632052069491]}, "type": "Feature", "id": 559, "properties": {"CATEGORY": "Certification", "STORE_ADDR": "2000 Wallace St", "OFFICIAL_S": "Wallace Market", "ZIP": "19130", "CDC_STORE_": 3.0}},{"geometry": {"type": "Point", "coordinates": [-75.16921583097714, 40.026284268535036]}, "type": "Feature", "id": 560, "properties": {"CATEGORY": "Enhanced", "STORE_ADDR": "5101 Wayne Ave", "OFFICIAL_S": "Wayne Associated", "ZIP": "19144", "CDC_STORE_": 3.0}},{"geometry": {"type": "Point", "coordinates": [-75.16775023589061, 40.02548918866903]}, "type": "Feature", "id": 561, "properties": {"CATEGORY": "Certification", "STORE_ADDR": "5007 Wayne Ave", "OFFICIAL_S": "Wayne Avenue Health Food Store", "ZIP": "19144", "CDC_STORE_": 1.0}},{"geometry": {"type": "Point", "coordinates": [-75.17391429093931, 40.028820977037135]}, "type": "Feature", "id": 562, "properties": {"CATEGORY": "Basic", "STORE_ADDR": "5348 Wayne Ave", "OFFICIAL_S": "Wayne Supermarket Inc", "ZIP": "19144", "CDC_STORE_": 2.0}},{"geometry": {"type": "Point", "coordinates": [-75.12163064125835, 39.99563308728787]}, "type": "Feature", "id": 563, "properties": {"CATEGORY": "Enhanced", "STORE_ADDR": "3061 D St", "OFFICIAL_S": "Wensle Mini Mart", "ZIP": "19134", "CDC_STORE_": 3.0}},{"geometry": {"type": "Point", "coordinates": [-75.16834983067318, 39.99988917136412]}, "type": "Feature", "id": 564, "properties": {"CATEGORY": "Enhanced", "STORE_ADDR": "2964 N 23rd St", "OFFICIAL_S": "Weso Mini Market", "ZIP": "19132", "CDC_STORE_": 3.0}},{"geometry": {"type": "Point", "coordinates": [-75.09212949512475, 39.98862809567084]}, "type": "Feature", "id": 565, "properties": {"CATEGORY": "Basic", "STORE_ADDR": "3623 Salmon St", "OFFICIAL_S": "Stanley R Swiacki", "ZIP": "19134", "CDC_STORE_": 2.0}},{"geometry": {"type": "Point", "coordinates": [-75.12959166186481, 40.036370590625225]}, "type": "Feature", "id": 566, "properties": {"CATEGORY": "Enhanced", "STORE_ADDR": "425 W Olney St", "OFFICIAL_S": "Starlite Grocery", "ZIP": "19120", "CDC_STORE_": 3.0}},{"geometry": {"type": "Point", "coordinates": [-75.12199659987343, 39.9938667353576]}, "type": "Feature", "id": 567, "properties": {"CATEGORY": "Basic", "STORE_ADDR": "2963 D St", "OFFICIAL_S": "Steven Grocery", "ZIP": "19134", "CDC_STORE_": 2.0}},{"geometry": {"type": "Point", "coordinates": [-75.03238606724717, 40.03679341503292]}, "type": "Feature", "id": 568, "properties": {"CATEGORY": "Enhanced", "STORE_ADDR": "4345 Chippendale St", "OFFICIAL_S": "Stop N Shop", "ZIP": "19136", "CDC_STORE_": 3.0}},{"geometry": {"type": "Point", "coordinates": [-75.08112308016702, 40.04399647258604]}, "type": "Feature", "id": 569, "properties": {"CATEGORY": "Basic", "STORE_ADDR": "1200 Greeby St", "OFFICIAL_S": "Summerdale Mini Market", "ZIP": "19111", "CDC_STORE_": 1.0}},{"geometry": {"type": "Point", "coordinates": [-75.16597390886724, 39.933984851819005]}, "type": "Feature", "id": 570, "properties": {"CATEGORY": "Enhanced", "STORE_ADDR": "1311 Wharton St", "OFFICIAL_S": "Sun's Grocery", "ZIP": "19147", "CDC_STORE_": 3.0}},{"geometry": {"type": "Point", "coordinates": [-75.1288041450325, 40.00096345717842]}, "type": "Feature", "id": 571, "properties": {"CATEGORY": "Basic", "STORE_ADDR": "3354 N Front St", "OFFICIAL_S": "Super Bodega Aqui Me Quedo", "ZIP": "19140", "CDC_STORE_": 1.0}},{"geometry": {"type": "Point", "coordinates": [-75.15615947860545, 40.05709705821066]}, "type": "Feature", "id": 572, "properties": {"CATEGORY": "Enhanced", "STORE_ADDR": "6901 Rodney St", "OFFICIAL_S": "Super Chicken Grocery", "ZIP": "19138", "CDC_STORE_": 3.0}},{"geometry": {"type": "Point", "coordinates": [-75.18561665622055, 40.00577771902916]}, "type": "Feature", "id": 573, "properties": {"CATEGORY": "Basic", "STORE_ADDR": "3420 Allegheny Ave", "OFFICIAL_S": "Sweetsies Sugar Free Sweets", "ZIP": "19132", "CDC_STORE_": 2.0}},{"geometry": {"type": "Point", "coordinates": [-75.2258459318098, 39.955625224004336]}, "type": "Feature", "id": 574, "properties": {"CATEGORY": "Enhanced", "STORE_ADDR": "250 S 52nd St", "OFFICIAL_S": "Syed Brothers Supermarket", "ZIP": "19139", "CDC_STORE_": 3.0}},{"geometry": {"type": "Point", "coordinates": [-75.1041573436842, 40.0110058988084]}, "type": "Feature", "id": 575, "properties": {"CATEGORY": "Enhanced", "STORE_ADDR": "1200 E Hunting Park Ave", "OFFICIAL_S": "T & S Express Market", "ZIP": "19124", "CDC_STORE_": 3.0}},{"geometry": {"type": "Point", "coordinates": [-75.04751184509756, 40.023799616830544]}, "type": "Feature", "id": 576, "properties": {"CATEGORY": "Enhanced", "STORE_ADDR": "6648 Torresdale Ave", "OFFICIAL_S": "Tacony Food Mart", "ZIP": "19135", "CDC_STORE_": 3.0}},{"geometry": {"type": "Point", "coordinates": [-75.13596326644453, 39.97704942924399]}, "type": "Feature", "id": 577, "properties": {"CATEGORY": "Enhanced", "STORE_ADDR": "1770 N Mascher St", "OFFICIAL_S": "Tamyra Family Market", "ZIP": "19122", "CDC_STORE_": 3.0}},{"geometry": {"type": "Point", "coordinates": [-75.0806483429338, 40.062215720513514]}, "type": "Feature", "id": 578, "properties": {"CATEGORY": "Enhanced", "STORE_ADDR": "7401 Bingham St", "OFFICIAL_S": "Tanos Deli", "ZIP": "19111", "CDC_STORE_": 3.0}},{"geometry": {"type": "Point", "coordinates": [-75.19484329687472, 39.934535175588785]}, "type": "Feature", "id": 579, "properties": {"CATEGORY": "Basic", "STORE_ADDR": "1548 S Corlies St", "OFFICIAL_S": "Tasker Food Market", "ZIP": "19146", "CDC_STORE_": 1.0}},{"geometry": {"type": "Point", "coordinates": [-75.15242835662498, 40.06329558895465]}, "type": "Feature", "id": 580, "properties": {"CATEGORY": "Basic", "STORE_ADDR": "7155 Ogontz Ave", "OFFICIAL_S": "Tasty Kake Outlet", "ZIP": "19138", "CDC_STORE_": 1.0}},{"geometry": {"type": "Point", "coordinates": [-75.16612673971146, 40.01019083027181]}, "type": "Feature", "id": 581, "properties": {"CATEGORY": "Enhanced", "STORE_ADDR": "2236 Hunting Park Ave", "OFFICIAL_S": "Tasty Kake Outlet", "ZIP": "19140", "CDC_STORE_": 3.0}},{"geometry": {"type": "Point", "coordinates": [-75.17127267147508, 40.003921079372205]}, "type": "Feature", "id": 582, "properties": {"CATEGORY": "Enhanced", "STORE_ADDR": "2514 W Allegheny Ave", "OFFICIAL_S": "Tavares Grocery", "ZIP": "19132", "CDC_STORE_": 3.0}},{"geometry": {"type": "Point", "coordinates": [-75.17726915412096, 39.92698787394884]}, "type": "Feature", "id": 583, "properties": {"CATEGORY": "Basic", "STORE_ADDR": "1939 S 19Th St", "OFFICIAL_S": "Tc Grocery Llc #1", "ZIP": "19145", "CDC_STORE_": 1.0}},{"geometry": {"type": "Point", "coordinates": [-75.11767670870552, 40.02069489454736]}, "type": "Feature", "id": 584, "properties": {"CATEGORY": "Enhanced", "STORE_ADDR": "414 E Wyoming Ave", "OFFICIAL_S": "Thang Len Market", "ZIP": "19120", "CDC_STORE_": 3.0}},{"geometry": {"type": "Point", "coordinates": [-75.12958500058485, 40.03628473325344]}, "type": "Feature", "id": 585, "properties": {"CATEGORY": "Enhanced", "STORE_ADDR": "420 W Olney Ave", "OFFICIAL_S": "Thank God Grocery", "ZIP": "19120", "CDC_STORE_": 3.0}},{"geometry": {"type": "Point", "coordinates": [-75.24367857202934, 39.957995191554446]}, "type": "Feature", "id": 586, "properties": {"CATEGORY": "Basic", "STORE_ADDR": "6100 Locust St", "OFFICIAL_S": "The Kids Food Market", "ZIP": "19139", "CDC_STORE_": 2.0}},{"geometry": {"type": "Point", "coordinates": [-75.15906920173558, 39.925855618701824]}, "type": "Feature", "id": 587, "properties": {"CATEGORY": "Enhanced", "STORE_ADDR": "1839 S 8Th St", "OFFICIAL_S": "The Latin Spot", "ZIP": "19148", "CDC_STORE_": 3.0}},{"geometry": {"type": "Point", "coordinates": [-75.13277160246584, 40.02635899595587]}, "type": "Feature", "id": 588, "properties": {"CATEGORY": "Enhanced", "STORE_ADDR": "4936 N 5th St", "OFFICIAL_S": "The New Family Restaurant", "ZIP": "19120", "CDC_STORE_": 3.0}},{"geometry": {"type": "Point", "coordinates": [-75.04902732152244, 40.02291455672953]}, "type": "Feature", "id": 589, "properties": {"CATEGORY": "Enhanced", "STORE_ADDR": "6559 Torresdale Ave", "OFFICIAL_S": "The Queen Store", "ZIP": "19135", "CDC_STORE_": 3.0}},{"geometry": {"type": "Point", "coordinates": [-75.17102108503558, 39.983537634345524]}, "type": "Feature", "id": 590, "properties": {"CATEGORY": "Enhanced", "STORE_ADDR": "2221 W Berks St", "OFFICIAL_S": "The Right Choice", "ZIP": "19121", "CDC_STORE_": 3.0}},{"geometry": {"type": "Point", "coordinates": [-75.12106834661105, 39.99842853373722]}, "type": "Feature", "id": 591, "properties": {"CATEGORY": "Basic", "STORE_ADDR": "500 E Willard St", "OFFICIAL_S": "Thelma Soza T/A J&V Deli", "ZIP": "19134", "CDC_STORE_": 1.0}},{"geometry": {"type": "Point", "coordinates": [-75.17663303994169, 39.97674411367239]}, "type": "Feature", "id": 592, "properties": {"CATEGORY": "Enhanced", "STORE_ADDR": "2500 W Master St", "OFFICIAL_S": "Three Sisters Grocery", "ZIP": "19121", "CDC_STORE_": 3.0}},{"geometry": {"type": "Point", "coordinates": [-75.12375267752577, 40.02390932786229]}, "type": "Feature", "id": 593, "properties": {"CATEGORY": "Enhanced", "STORE_ADDR": "4831 Rising Sun Ave.", "OFFICIAL_S": "TiendaMex", "ZIP": "19120", "CDC_STORE_": 3.0}},{"geometry": {"type": "Point", "coordinates": [-75.18844273137039, 40.014237239289216]}, "type": "Feature", "id": 594, "properties": {"CATEGORY": "Enhanced", "STORE_ADDR": "3539 Vaux St", "OFFICIAL_S": "Tilden Food Market", "ZIP": "19129", "CDC_STORE_": 3.0}},{"geometry": {"type": "Point", "coordinates": [-75.23422771344129, 39.95457504143786]}, "type": "Feature", "id": 595, "properties": {"CATEGORY": "Basic", "STORE_ADDR": "5601 Pine St", "OFFICIAL_S": "TNT #2 Food Market Inc", "ZIP": "19143", "CDC_STORE_": 2.0}},{"geometry": {"type": "Point", "coordinates": [-75.14663040076324, 40.063772477877464]}, "type": "Feature", "id": 596, "properties": {"CATEGORY": "Enhanced", "STORE_ADDR": "1847 72nd Ave", "OFFICIAL_S": "TNT Market", "ZIP": "19126", "CDC_STORE_": 3.0}},{"geometry": {"type": "Point", "coordinates": [-75.15061006168531, 39.916842411853416]}, "type": "Feature", "id": 597, "properties": {"CATEGORY": "Basic", "STORE_ADDR": "153 W Porter St", "OFFICIAL_S": "Tonys Mkt Antonio Tecce", "ZIP": "19148", "CDC_STORE_": 1.0}},{"geometry": {"type": "Point", "coordinates": [-75.23305652494534, 39.97676596269295]}, "type": "Feature", "id": 598, "properties": {"CATEGORY": "Basic", "STORE_ADDR": "5549 Lansdowne Ave", "OFFICIAL_S": "Torres Grocery", "ZIP": "19131", "CDC_STORE_": 1.0}},{"geometry": {"type": "Point", "coordinates": [-75.16273751609104, 39.99668313076755]}, "type": "Feature", "id": 599, "properties": {"CATEGORY": "Basic", "STORE_ADDR": "1915 W Somerset St", "OFFICIAL_S": "Torres Grocery", "ZIP": "19132", "CDC_STORE_": 1.0}},{"geometry": {"type": "Point", "coordinates": [-75.24377068068965, 39.96711809898433]}, "type": "Feature", "id": 600, "properties": {"CATEGORY": "Enhanced", "STORE_ADDR": "6201 Vine St", "OFFICIAL_S": "Nadia's Market Inc.", "ZIP": "19139", "CDC_STORE_": 3.0}},{"geometry": {"type": "Point", "coordinates": [-75.15937007295499, 39.91725917654729]}, "type": "Feature", "id": 601, "properties": {"CATEGORY": "Basic", "STORE_ADDR": "2553 S. 7th St.", "OFFICIAL_S": "Nameste Grocery", "ZIP": "19148", "CDC_STORE_": 1.0}},{"geometry": {"type": "Point", "coordinates": [-75.22722293462645, 39.94848487164709]}, "type": "Feature", "id": 602, "properties": {"CATEGORY": "Enhanced", "STORE_ADDR": "715 S 52nd St", "OFFICIAL_S": "Natural Coffee Landmark Plus", "ZIP": "19143", "CDC_STORE_": 3.0}},{"geometry": {"type": "Point", "coordinates": [-75.2691874418506, 39.97999567693715]}, "type": "Feature", "id": 603, "properties": {"CATEGORY": "Basic", "STORE_ADDR": "7596 Haverford Ave", "OFFICIAL_S": "Natures Nutrition Centers", "ZIP": "19151", "CDC_STORE_": 2.0}},{"geometry": {"type": "Point", "coordinates": [-75.15592089694157, 40.04377929675272]}, "type": "Feature", "id": 604, "properties": {"CATEGORY": "Basic", "STORE_ADDR": "5900 N 21St St", "OFFICIAL_S": "Nedro Mini Market", "ZIP": "19138", "CDC_STORE_": 2.0}},{"geometry": {"type": "Point", "coordinates": [-75.16275096012045, 40.044155435672174]}, "type": "Feature", "id": 605, "properties": {"CATEGORY": "Enhanced", "STORE_ADDR": "5600 Chew Ave", "OFFICIAL_S": "Neighborhood Deli Grocery", "ZIP": "19138", "CDC_STORE_": 3.0}},{"geometry": {"type": "Point", "coordinates": [-75.17483347824198, 40.004387498947246]}, "type": "Feature", "id": 606, "properties": {"CATEGORY": "Basic", "STORE_ADDR": "2724 W Allegheny Ave", "OFFICIAL_S": "Neighbor's Supermarket", "ZIP": "19132", "CDC_STORE_": 2.0}},{"geometry": {"type": "Point", "coordinates": [-75.1131005373289, 40.02012615799519]}, "type": "Feature", "id": 607, "properties": {"CATEGORY": "Basic", "STORE_ADDR": "626 E Wyoming Ave", "OFFICIAL_S": "Nelson Mini Market", "ZIP": "19120", "CDC_STORE_": 2.0}},{"geometry": {"type": "Point", "coordinates": [-75.16696909340256, 39.990891905301545]}, "type": "Feature", "id": 608, "properties": {"CATEGORY": "Enhanced", "STORE_ADDR": "2101 W York St", "OFFICIAL_S": "New Life Food Market", "ZIP": "19132", "CDC_STORE_": 3.0}},{"geometry": {"type": "Point", "coordinates": [-75.1331664981821, 40.041543923694974]}, "type": "Feature", "id": 609, "properties": {"CATEGORY": "Basic", "STORE_ADDR": "5882 N 7th St", "OFFICIAL_S": "New Life Grocery", "ZIP": "19120", "CDC_STORE_": 2.0}},{"geometry": {"type": "Point", "coordinates": [-75.13910468928624, 40.05806654412882]}, "type": "Feature", "id": 610, "properties": {"CATEGORY": "Enhanced", "STORE_ADDR": "6900 Old York Rd", "OFFICIAL_S": "New Shopexpress", "ZIP": "19126", "CDC_STORE_": 3.0}},{"geometry": {"type": "Point", "coordinates": [-75.13037213783369, 40.03733355281577]}, "type": "Feature", "id": 611, "properties": {"CATEGORY": "Certification", "STORE_ADDR": "5656 N 5th St", "OFFICIAL_S": "New York Deli", "ZIP": "19120", "CDC_STORE_": 3.0}},{"geometry": {"type": "Point", "coordinates": [-75.2137625973976, 39.94903173228672]}, "type": "Feature", "id": 612, "properties": {"CATEGORY": "Enhanced", "STORE_ADDR": "4517 Baltimore Ave", "OFFICIAL_S": "Nigerian African Food Market", "ZIP": "19143", "CDC_STORE_": 3.0}},{"geometry": {"type": "Point", "coordinates": [-75.23191241203759, 39.92722142580972]}, "type": "Feature", "id": 613, "properties": {"CATEGORY": "Enhanced", "STORE_ADDR": "6306 Woodland Ave", "OFFICIAL_S": "Nina's Grocery & Variety", "ZIP": "19142", "CDC_STORE_": 3.0}},{"geometry": {"type": "Point", "coordinates": [-75.1717548599201, 39.99876286231649]}, "type": "Feature", "id": 614, "properties": {"CATEGORY": "Basic", "STORE_ADDR": "2863 N 25th St", "OFFICIAL_S": "Noah Grocery II", "ZIP": "19132", "CDC_STORE_": 2.0}},{"geometry": {"type": "Point", "coordinates": [-75.16354809774394, 39.99046210191708]}, "type": "Feature", "id": 615, "properties": {"CATEGORY": "Basic", "STORE_ADDR": "2400 N 19th St", "OFFICIAL_S": "Norris St Convenience Store", "ZIP": "19132", "CDC_STORE_": 2.0}},{"geometry": {"type": "Point", "coordinates": [-75.1608089200838, 39.988475929256964]}, "type": "Feature", "id": 616, "properties": {"CATEGORY": "Basic", "STORE_ADDR": "1702 W Dauphin St", "OFFICIAL_S": "North Dauphin Grocery Inc", "ZIP": "19132", "CDC_STORE_": 2.0}},{"geometry": {"type": "Point", "coordinates": [-75.17147129760396, 39.92959013392329]}, "type": "Feature", "id": 617, "properties": {"CATEGORY": "Basic", "STORE_ADDR": "1542 Morris St", "OFFICIAL_S": "Nu Mini Market", "ZIP": "19145", "CDC_STORE_": 1.0}},{"geometry": {"type": "Point", "coordinates": [-75.14415740574202, 39.97013394417277]}, "type": "Feature", "id": 618, "properties": {"CATEGORY": "Enhanced", "STORE_ADDR": "429 W Girard Ave", "OFFICIAL_S": "Nuevo Amanecer Deli Supermarket", "ZIP": "19123", "CDC_STORE_": 3.0}},{"geometry": {"type": "Point", "coordinates": [-75.14398023545849, 39.98792739741094]}, "type": "Feature", "id": 619, "properties": {"CATEGORY": "Enhanced", "STORE_ADDR": "617 W York St", "OFFICIAL_S": "Nu\u00f1es Grocery", "ZIP": "19133", "CDC_STORE_": 3.0}},{"geometry": {"type": "Point", "coordinates": [-75.16869757029782, 39.94030039097647]}, "type": "Feature", "id": 620, "properties": {"CATEGORY": "Basic", "STORE_ADDR": "1544 Christian St", "OFFICIAL_S": "Nunez Grocery", "ZIP": "19146", "CDC_STORE_": 1.0}},{"geometry": {"type": "Point", "coordinates": [-75.12610927067901, 39.99498452348073]}, "type": "Feature", "id": 621, "properties": {"CATEGORY": "Enhanced", "STORE_ADDR": "3000 B St", "OFFICIAL_S": "Nunez Grocery", "ZIP": "19134", "CDC_STORE_": 3.0}},{"geometry": {"type": "Point", "coordinates": [-75.16983654552901, 39.92426538627493]}, "type": "Feature", "id": 622, "properties": {"CATEGORY": "Basic", "STORE_ADDR": "2110 S Broad St.", "OFFICIAL_S": "Nuts About You", "ZIP": "19145", "CDC_STORE_": 2.0}},{"geometry": {"type": "Point", "coordinates": [-75.15241488570494, 40.06327612882426]}, "type": "Feature", "id": 623, "properties": {"CATEGORY": "Basic", "STORE_ADDR": "7153 Ogontz Ave", "OFFICIAL_S": "Ogontz Convenience Mart", "ZIP": "19138", "CDC_STORE_": 2.0}},{"geometry": {"type": "Point", "coordinates": [-75.17319232443248, 39.93483061130585]}, "type": "Feature", "id": 624, "properties": {"CATEGORY": "Certification", "STORE_ADDR": "1718 Wharton St", "OFFICIAL_S": "Olivares Food Market", "ZIP": "19146", "CDC_STORE_": 3.0}},{"geometry": {"type": "Point", "coordinates": [-75.14518539979258, 39.98318893482742]}, "type": "Feature", "id": 625, "properties": {"CATEGORY": "Basic", "STORE_ADDR": "642 Diamond St", "OFFICIAL_S": "Ortega Grocery #2", "ZIP": "19122", "CDC_STORE_": 1.0}},{"geometry": {"type": "Point", "coordinates": [-75.18060116352939, 39.980219979163735]}, "type": "Feature", "id": 626, "properties": {"CATEGORY": "Basic", "STORE_ADDR": "2801 W Oxford St", "OFFICIAL_S": "Oxford Mini Market", "ZIP": "19121", "CDC_STORE_": 1.0}},{"geometry": {"type": "Point", "coordinates": [-75.13812531617336, 40.024988656904824]}, "type": "Feature", "id": 627, "properties": {"CATEGORY": "Enhanced", "STORE_ADDR": "4800 N 8th St", "OFFICIAL_S": "P & R Grocery", "ZIP": "19120", "CDC_STORE_": 3.0}},{"geometry": {"type": "Point", "coordinates": [-75.15876176615862, 40.013605296435216]}, "type": "Feature", "id": 628, "properties": {"CATEGORY": "Basic", "STORE_ADDR": "1900 W Hunting Park Ave", "OFFICIAL_S": "P&P Mini Market", "ZIP": "19140", "CDC_STORE_": 1.0}},{"geometry": {"type": "Point", "coordinates": [-75.1250043298919, 39.99181208680276]}, "type": "Feature", "id": 629, "properties": {"CATEGORY": "Basic", "STORE_ADDR": "351 E Somerset St", "OFFICIAL_S": "Paisano #3", "ZIP": "19134", "CDC_STORE_": 2.0}},{"geometry": {"type": "Point", "coordinates": [-75.14108794916986, 39.96209053305625]}, "type": "Feature", "id": 630, "properties": {"CATEGORY": "Basic", "STORE_ADDR": "717 N 2nd St", "OFFICIAL_S": "Palm Tree Market", "ZIP": "19123", "CDC_STORE_": 2.0}},{"geometry": {"type": "Point", "coordinates": [-75.2323457658718, 39.96976239755445]}, "type": "Feature", "id": 631, "properties": {"CATEGORY": "Basic", "STORE_ADDR": "641 N 56th St", "OFFICIAL_S": "Papi Food Market", "ZIP": "19131", "CDC_STORE_": 1.0}},{"geometry": {"type": "Point", "coordinates": [-75.22983500066542, 39.9388982617678]}, "type": "Feature", "id": 632, "properties": {"CATEGORY": "Basic", "STORE_ADDR": "5701 Warrington Ave", "OFFICIAL_S": "Papi's Grocery", "ZIP": "19143", "CDC_STORE_": 2.0}},{"geometry": {"type": "Point", "coordinates": [-75.15501495127248, 40.01810712643223]}, "type": "Feature", "id": 633, "properties": {"CATEGORY": "Enhanced", "STORE_ADDR": "4201 Germantown Ave", "OFFICIAL_S": "Papi's Mini Market", "ZIP": "19140", "CDC_STORE_": 3.0}},{"geometry": {"type": "Point", "coordinates": [-75.0790319509196, 40.02858515494228]}, "type": "Feature", "id": 634, "properties": {"CATEGORY": "Basic", "STORE_ADDR": "1601 E Cheltenham Ave", "OFFICIAL_S": "Papos Grocery", "ZIP": "19124", "CDC_STORE_": 2.0}},{"geometry": {"type": "Point", "coordinates": [-75.17475669362156, 39.9120890720713]}, "type": "Feature", "id": 635, "properties": {"CATEGORY": "Basic", "STORE_ADDR": "1528 Packer Ave", "OFFICIAL_S": "Pastificio", "ZIP": "19145", "CDC_STORE_": 2.0}},{"geometry": {"type": "Point", "coordinates": [-75.21562526104968, 40.026207962782024]}, "type": "Feature", "id": 636, "properties": {"CATEGORY": "Enhanced", "STORE_ADDR": "4200 Manayunk Ave", "OFFICIAL_S": "Pat's Place", "ZIP": "19128", "CDC_STORE_": 3.0}},{"geometry": {"type": "Point", "coordinates": [-75.15698609524733, 40.05196710753402]}, "type": "Feature", "id": 637, "properties": {"CATEGORY": "Enhanced", "STORE_ADDR": "2139 E Chelten Ave", "OFFICIAL_S": "Pena Grocery", "ZIP": "19138", "CDC_STORE_": 3.0}},{"geometry": {"type": "Point", "coordinates": [-75.14170547906465, 40.00011075574742]}, "type": "Feature", "id": 638, "properties": {"CATEGORY": "Enhanced", "STORE_ADDR": "640 W Allegheny Ave", "OFFICIAL_S": "Pena Grocery #2", "ZIP": "19133", "CDC_STORE_": 3.0}},{"geometry": {"type": "Point", "coordinates": [-75.10511366137563, 39.99887134911747]}, "type": "Feature", "id": 639, "properties": {"CATEGORY": "Enhanced", "STORE_ADDR": "1901 E Tioga St", "OFFICIAL_S": "Pena Toribio Grocery", "ZIP": "19134", "CDC_STORE_": 3.0}},{"geometry": {"type": "Point", "coordinates": [-75.14993502006149, 39.92985515176268]}, "type": "Feature", "id": 640, "properties": {"CATEGORY": "Enhanced", "STORE_ADDR": "1425 E Moyamensing Ave", "OFFICIAL_S": "Pennsport Market", "ZIP": "19147", "CDC_STORE_": 3.0}},{"geometry": {"type": "Point", "coordinates": [-75.19155533064864, 39.964084258818076]}, "type": "Feature", "id": 641, "properties": {"CATEGORY": "Basic", "STORE_ADDR": "601 N 34th St", "OFFICIAL_S": "Peralta Food Market", "ZIP": "19104", "CDC_STORE_": 1.0}},{"geometry": {"type": "Point", "coordinates": [-75.08381108275837, 40.03043818484274]}, "type": "Feature", "id": 642, "properties": {"CATEGORY": "Basic", "STORE_ADDR": "5451 Rutland St", "OFFICIAL_S": "Peralta Food Market", "ZIP": "19124", "CDC_STORE_": 1.0}},{"geometry": {"type": "Point", "coordinates": [-75.14187932099247, 39.98448525802941]}, "type": "Feature", "id": 643, "properties": {"CATEGORY": "Enhanced", "STORE_ADDR": "501 W Susquehanna Ave", "OFFICIAL_S": "Peralta Food Market, Inc.", "ZIP": "19122", "CDC_STORE_": 3.0}},{"geometry": {"type": "Point", "coordinates": [-75.16898298177566, 40.00363202382912]}, "type": "Feature", "id": 644, "properties": {"CATEGORY": "Enhanced", "STORE_ADDR": "2400 W Allegheny Ave", "OFFICIAL_S": "Peralta Grocery", "ZIP": "19132", "CDC_STORE_": 3.0}},{"geometry": {"type": "Point", "coordinates": [-75.11387955642672, 39.986284991940565]}, "type": "Feature", "id": 645, "properties": {"CATEGORY": "Enhanced", "STORE_ADDR": "2916 Tulip St", "OFFICIAL_S": "Peralta Grocery", "ZIP": "19134", "CDC_STORE_": 3.0}},{"geometry": {"type": "Point", "coordinates": [-75.1399091485139, 40.006206395236944]}, "type": "Feature", "id": 646, "properties": {"CATEGORY": "Enhanced", "STORE_ADDR": "621 W Venango St", "OFFICIAL_S": "Peralta Grocery", "ZIP": "19140", "CDC_STORE_": 3.0}},{"geometry": {"type": "Point", "coordinates": [-75.1122444842009, 39.986069429030834]}, "type": "Feature", "id": 647, "properties": {"CATEGORY": "Enhanced", "STORE_ADDR": "2981 Memphis St", "OFFICIAL_S": "Peralta Julio Alberto", "ZIP": "19134", "CDC_STORE_": 3.0}},{"geometry": {"type": "Point", "coordinates": [-75.1677099149537, 39.98717279753324]}, "type": "Feature", "id": 648, "properties": {"CATEGORY": "Basic", "STORE_ADDR": "2163 N 21St St", "OFFICIAL_S": "Peralta's Grocery", "ZIP": "19121", "CDC_STORE_": 2.0}},{"geometry": {"type": "Point", "coordinates": [-75.10126036219765, 39.9982378959186]}, "type": "Feature", "id": 649, "properties": {"CATEGORY": "Basic", "STORE_ADDR": "3600 Frankford Ave", "OFFICIAL_S": "Philadelphia Mini Market", "ZIP": "19134", "CDC_STORE_": 2.0}},{"geometry": {"type": "Point", "coordinates": [-75.15927824399492, 39.93221730515572]}, "type": "Feature", "id": 650, "properties": {"CATEGORY": "Enhanced", "STORE_ADDR": "1341 S 9th St", "OFFICIAL_S": "Philamex Grocery Store Inc", "ZIP": "19147", "CDC_STORE_": 3.0}},{"geometry": {"type": "Point", "coordinates": [-75.15647200224038, 39.98944999578674]}, "type": "Feature", "id": 651, "properties": {"CATEGORY": "Enhanced", "STORE_ADDR": "1422 West York St.", "OFFICIAL_S": "Philly's Choice Deli", "ZIP": "19132", "CDC_STORE_": 3.0}},{"geometry": {"type": "Point", "coordinates": [-75.13453531798025, 40.017795213823696]}, "type": "Feature", "id": 652, "properties": {"CATEGORY": "Enhanced", "STORE_ADDR": "4353 N 5Th St", "OFFICIAL_S": "Philly's Food Market", "ZIP": "19140", "CDC_STORE_": 3.0}},{"geometry": {"type": "Point", "coordinates": [-75.14144954162428, 39.99230560674698]}, "type": "Feature", "id": 653, "properties": {"CATEGORY": "Enhanced", "STORE_ADDR": "2701 N Fairhill St", "OFFICIAL_S": "Philly's Mini Market", "ZIP": "19133", "CDC_STORE_": 3.0}},{"geometry": {"type": "Point", "coordinates": [-75.17020668393062, 39.93328247809714]}, "type": "Feature", "id": 654, "properties": {"CATEGORY": "Basic", "STORE_ADDR": "1519 Reed St", "OFFICIAL_S": "Phong Grocery", "ZIP": "19146", "CDC_STORE_": 1.0}},{"geometry": {"type": "Point", "coordinates": [-75.14450934962657, 39.98952902852561]}, "type": "Feature", "id": 655, "properties": {"CATEGORY": "Basic", "STORE_ADDR": "701 W Cumberland St", "OFFICIAL_S": "Pichardo Food Market", "ZIP": "19133", "CDC_STORE_": 1.0}},{"geometry": {"type": "Point", "coordinates": [-75.21444407066673, 39.94896941869372]}, "type": "Feature", "id": 656, "properties": {"CATEGORY": "Basic", "STORE_ADDR": "4533 Baltimore Ave", "OFFICIAL_S": "Pickles and Pies Deli", "ZIP": "19143", "CDC_STORE_": 1.0}},{"geometry": {"type": "Point", "coordinates": [-75.22829584810462, 39.91850506243621]}, "type": "Feature", "id": 657, "properties": {"CATEGORY": "Enhanced", "STORE_ADDR": "6600 Guyer Ave", "OFFICIAL_S": "Pirela Food Market", "ZIP": "19142", "CDC_STORE_": 3.0}},{"geometry": {"type": "Point", "coordinates": [-75.22459228807993, 39.96109507004601]}, "type": "Feature", "id": 658, "properties": {"CATEGORY": "Enhanced", "STORE_ADDR": "61 N 52nd St", "OFFICIAL_S": "PM Food Market Inc", "ZIP": "19139", "CDC_STORE_": 3.0}},{"geometry": {"type": "Point", "coordinates": [-75.1799477604274, 39.9341495896919]}, "type": "Feature", "id": 659, "properties": {"STORE_ADDR": "1426 Point Breeze Ave", "OFFICIAL_S": "Point Breeze Supermarket", "ZIP": "19146", "CDC_STORE_": 0.0}},{"geometry": {"type": "Point", "coordinates": [-75.1535691714561, 39.96578778867927]}, "type": "Feature", "id": 660, "properties": {"CATEGORY": "Certification", "STORE_ADDR": "727 N 10th St", "OFFICIAL_S": "Polo Food Market", "ZIP": "19123", "CDC_STORE_": 3.0}},{"geometry": {"type": "Point", "coordinates": [-75.17413969905581, 39.98083338536824]}, "type": "Feature", "id": 661, "properties": {"CATEGORY": "Enhanced", "STORE_ADDR": "2401 Cecil B Moore Ave", "OFFICIAL_S": "Popex Mini Market", "ZIP": "19121", "CDC_STORE_": 3.0}},{"geometry": {"type": "Point", "coordinates": [-75.15376648715512, 39.92856230667932]}, "type": "Feature", "id": 662, "properties": {"CATEGORY": "Enhanced", "STORE_ADDR": "1600 S 5th St", "OFFICIAL_S": "Popreak Grocery", "ZIP": "19148", "CDC_STORE_": 3.0}},{"geometry": {"type": "Point", "coordinates": [-75.1565497319048, 40.05186414760981]}, "type": "Feature", "id": 663, "properties": {"CATEGORY": "Enhanced", "STORE_ADDR": "2126 E Chelten Ave", "OFFICIAL_S": "Pretty Mary's 24/7 Neighborhood Store", "ZIP": "19138", "CDC_STORE_": 3.0}},{"geometry": {"type": "Point", "coordinates": [-75.02965671581133, 40.040910218491256]}, "type": "Feature", "id": 664, "properties": {"CATEGORY": "Basic", "STORE_ADDR": "7918 Frankford Ave", "OFFICIAL_S": "Providence African Market", "ZIP": "19136", "CDC_STORE_": 2.0}},{"geometry": {"type": "Point", "coordinates": [-75.14862570631392, 39.94068998547187]}, "type": "Feature", "id": 665, "properties": {"CATEGORY": "Enhanced", "STORE_ADDR": "339 Bainbridge St", "OFFICIAL_S": "Queen Village Food Market", "ZIP": "19147", "CDC_STORE_": 3.0}},{"geometry": {"type": "Point", "coordinates": [-75.14836879019153, 39.936365682561274]}, "type": "Feature", "id": 666, "properties": {"CATEGORY": "Enhanced", "STORE_ADDR": "246 Christian St", "OFFICIAL_S": "Queen Village Mini Market & Deli", "ZIP": "19147", "CDC_STORE_": 3.0}},{"geometry": {"type": "Point", "coordinates": [-75.11823662544934, 39.99378228659574]}, "type": "Feature", "id": 667, "properties": {"CATEGORY": "Certification", "STORE_ADDR": "3001 Kensington Ave", "OFFICIAL_S": "Quick Stop 3 Inc", "ZIP": "19134", "CDC_STORE_": 3.0}},{"geometry": {"type": "Point", "coordinates": [-75.13991948521398, 39.969609412252346]}, "type": "Feature", "id": 668, "properties": {"CATEGORY": "Basic", "STORE_ADDR": "209 W Girard Ave", "OFFICIAL_S": "Quince Fine Foods", "ZIP": "19123", "CDC_STORE_": 2.0}}]}